{"type":"FeatureCollection","features":[{"type":"Feature","properties":{"geometry_key":"area|area_conc_urb_curitiba","type":"area_estudo","area_col":"area_conc_urb_curitiba","area_label":"Curitiba - Conc. Urbana","label":"Curitiba - Conc. Urbana"},"geometry":{"type":"Polygon","coordinates":[[[-49.3578598,-25.9544463],[-49.3582776,-25.9524842],[-49.3591171,-25.9535974],[-49.3591113,-25.9522938],[-49.3598134,-25.9518694],[-49.359017,-25.9511107],[-49.3601362,-25.9515861],[-49.3609528,-25.9507114],[-49.3608398,-25.952113],[-49.3616951,-25.9504054],[-49.3633808,-25.9502953],[-49.3639986,-25.9496223],[-49.3624078,-25.9493283],[-49.3635749,-25.9478189],[-49.3618732,-25.946634],[-49.3634647,-25.9467317],[-49.3637395,-25.9450497],[-49.3647098,-25.9447375],[-49.3643272,-25.9439227],[-49.3658729,-25.9448314],[-49.3666747,-25.9437715],[-49.3673904,-25.9438123],[-49.3667085,-25.9414062],[-49.3683916,-25.9426075],[-49.3699027,-25.9421071],[-49.3701332,-25.9435683],[-49.3711786,-25.9443719],[-49.3726399,-25.9442752],[-49.373096,-25.943034],[-49.3716026,-25.9421406],[-49.373058,-25.9417861],[-49.3730071,-25.9403297],[-49.3740097,-25.9403391],[-49.3734529,-25.9392008],[-49.3741102,-25.9369544],[-49.3715628,-25.9346905],[-49.3701716,-25.9343516],[-49.3701073,-25.9324228],[-49.3705043,-25.9322327],[-49.3756805,-25.9346064],[-49.3757292,-25.9336675],[-49.3770635,-25.9330344],[-49.3771473,-25.9318381],[-49.3779461,-25.9313591],[-49.377013,-25.9302637],[-49.378704,-25.9296023],[-49.3806044,-25.9321184],[-49.382023,-25.9317302],[-49.3818264,-25.9330544],[-49.382692,-25.9325802],[-49.3834647,-25.9336894],[-49.3844118,-25.932534],[-49.3856836,-25.9324006],[-49.3864126,-25.9315355],[-49.3873558,-25.9332959],[-49.3879412,-25.9323975],[-49.3887197,-25.9324646],[-49.3902154,-25.9349641],[-49.3910756,-25.9349085],[-49.3910981,-25.9332571],[-49.3919787,-25.932959],[-49.3937832,-25.9352791],[-49.3950895,-25.9360042],[-49.3955608,-25.9356219],[-49.3948361,-25.934917],[-49.3955544,-25.9347623],[-49.3955002,-25.9334346],[-49.3968359,-25.9353272],[-49.3971217,-25.9340175],[-49.398321,-25.9326403],[-49.3993245,-25.9326505],[-49.3996433,-25.9328507],[-49.398986,-25.9338784],[-49.4007148,-25.9343998],[-49.4007769,-25.9351125],[-49.401632,-25.9354468],[-49.4006883,-25.9364393],[-49.4021742,-25.9377872],[-49.4016111,-25.9383441],[-49.4033939,-25.9389167],[-49.4034869,-25.9400178],[-49.404285,-25.9392503],[-49.4049989,-25.9393873],[-49.4052581,-25.9402468],[-49.4061207,-25.9402335],[-49.4067078,-25.941398],[-49.4075545,-25.9397888],[-49.4092332,-25.9400329],[-49.4089153,-25.938523],[-49.4100595,-25.9385357],[-49.4100647,-25.9370135],[-49.4110483,-25.9368932],[-49.410827,-25.936034],[-49.411438,-25.9359119],[-49.4124016,-25.9360496],[-49.4127825,-25.9371237],[-49.4140447,-25.9364906],[-49.4147509,-25.937212],[-49.4153957,-25.9371206],[-49.4151133,-25.9381702],[-49.4164097,-25.9376337],[-49.4166081,-25.9389309],[-49.4185385,-25.9378351],[-49.4210584,-25.9394172],[-49.4217949,-25.9379676],[-49.4233848,-25.9382609],[-49.4231873,-25.9370917],[-49.424441,-25.9369087],[-49.4248951,-25.9349069],[-49.4247212,-25.9333339],[-49.4238309,-25.933032],[-49.4249447,-25.9327203],[-49.4254588,-25.9317221],[-49.4273445,-25.9326833],[-49.4260997,-25.9334621],[-49.4269427,-25.9347029],[-49.4289863,-25.9346286],[-49.4297275,-25.9351185],[-49.4295931,-25.9358809],[-49.4285185,-25.9360318],[-49.428114,-25.9366749],[-49.4292067,-25.9380479],[-49.4317124,-25.9396132],[-49.433164,-25.9379779],[-49.4332913,-25.9365198],[-49.4326553,-25.9358665],[-49.4326574,-25.9343909],[-49.4320269,-25.9332838],[-49.4328512,-25.9330962],[-49.4337661,-25.93178],[-49.4348342,-25.9322118],[-49.4349234,-25.930884],[-49.4338355,-25.9306291],[-49.4361721,-25.929844],[-49.4357214,-25.9287389],[-49.4369457,-25.929572],[-49.4371473,-25.9278946],[-49.4359732,-25.9273631],[-49.4369639,-25.9255286],[-49.4388752,-25.9258246],[-49.4395652,-25.9251833],[-49.4407302,-25.926363],[-49.4437023,-25.9277725],[-49.444884,-25.9265772],[-49.4448724,-25.9258399],[-49.4434857,-25.9251775],[-49.445327,-25.9253433],[-49.446173,-25.9246429],[-49.4472325,-25.9247797],[-49.4476023,-25.923812],[-49.4497169,-25.9223279],[-49.4490854,-25.9213487],[-49.4504942,-25.9204253],[-49.4484346,-25.9177312],[-49.4484647,-25.9153664],[-49.4464606,-25.9152793],[-49.4468497,-25.9143285],[-49.4457903,-25.9133106],[-49.4460865,-25.9124398],[-49.4455142,-25.9124669],[-49.4464558,-25.9117973],[-49.445637,-25.9113014],[-49.4456313,-25.9101256],[-49.4436816,-25.9088366],[-49.442495,-25.9093084],[-49.4432289,-25.9079873],[-49.4425094,-25.9068603],[-49.4431245,-25.9063165],[-49.4407836,-25.9048666],[-49.4400251,-25.9037401],[-49.4401502,-25.9024117],[-49.4395812,-25.902147],[-49.4403495,-25.9008928],[-49.4400383,-25.9000803],[-49.4405099,-25.8996312],[-49.4413282,-25.8999307],[-49.4405799,-25.8982542],[-49.4413362,-25.8980374],[-49.4408075,-25.8973496],[-49.4415226,-25.8974234],[-49.4390079,-25.8967319],[-49.4388078,-25.8956275],[-49.4376702,-25.895063],[-49.4366398,-25.8932226],[-49.4348092,-25.8934624],[-49.4353004,-25.8913924],[-49.4337636,-25.8899685],[-49.4342035,-25.8887112],[-49.4339157,-25.8865681],[-49.4348464,-25.8865117],[-49.4352667,-25.8859195],[-49.4345364,-25.8843228],[-49.4338947,-25.8841864],[-49.434289,-25.8813386],[-49.432553,-25.8814345],[-49.431673,-25.8802268],[-49.430243,-25.8799503],[-49.429505,-25.8791001],[-49.4294875,-25.8762655],[-49.4275577,-25.8760814],[-49.4278496,-25.8756321],[-49.4271843,-25.8746851],[-49.4283983,-25.873417],[-49.427835,-25.8728291],[-49.4281741,-25.8714398],[-49.4270013,-25.8708111],[-49.4267624,-25.8699658],[-49.4248796,-25.870221],[-49.4244196,-25.869829],[-49.4233552,-25.8718234],[-49.4212933,-25.8721413],[-49.4195145,-25.873969],[-49.4185136,-25.8738285],[-49.4178513,-25.872623],[-49.4168942,-25.8732099],[-49.4160009,-25.8704162],[-49.4137145,-25.8688208],[-49.4136233,-25.8677189],[-49.4107061,-25.866227],[-49.4112417,-25.8647944],[-49.4098351,-25.8630925],[-49.4108561,-25.8624536],[-49.4109321,-25.8614191],[-49.4101801,-25.8600333],[-49.410948,-25.8589711],[-49.409745,-25.85789],[-49.4103888,-25.8578653],[-49.4099315,-25.8574049],[-49.4107942,-25.8557458],[-49.4099867,-25.854506],[-49.4078232,-25.8556503],[-49.4046271,-25.8552089],[-49.4032475,-25.8567823],[-49.4026863,-25.8584599],[-49.3999912,-25.8579937],[-49.4007308,-25.856219],[-49.3986655,-25.8541079],[-49.3983012,-25.8519975],[-49.3971798,-25.8528584],[-49.3959703,-25.8523607],[-49.3958687,-25.8479056],[-49.39539,-25.8462464],[-49.3943391,-25.8459609],[-49.3941762,-25.8447586],[-49.395484,-25.8432848],[-49.3950426,-25.8415935],[-49.3935967,-25.8413018],[-49.3919668,-25.840117],[-49.3906778,-25.8402329],[-49.3903762,-25.8391586],[-49.3887995,-25.8375061],[-49.3891995,-25.8370251],[-49.3888525,-25.8363736],[-49.3900281,-25.8364523],[-49.3911503,-25.8357491],[-49.3901423,-25.8348488],[-49.3905459,-25.8340428],[-49.3900164,-25.833517],[-49.3900377,-25.8319638],[-49.3909079,-25.8310671],[-49.3907289,-25.8296877],[-49.3913099,-25.829143],[-49.3909989,-25.8283612],[-49.3898606,-25.827863],[-49.3900965,-25.8288056],[-49.3890063,-25.8288413],[-49.389389,-25.8296245],[-49.3882423,-25.8298062],[-49.3869828,-25.8276206],[-49.3883,-25.8267777],[-49.3878768,-25.8236943],[-49.3861581,-25.8224931],[-49.3844093,-25.8222467],[-49.3833261,-25.8199982],[-49.3809298,-25.8189511],[-49.3807066,-25.8169406],[-49.3796666,-25.8158429],[-49.3785617,-25.8156691],[-49.3767243,-25.8163945],[-49.3758054,-25.8156717],[-49.375748,-25.814634],[-49.3773484,-25.8139209],[-49.3772179,-25.8130447],[-49.374762,-25.8107652],[-49.3701154,-25.8039922],[-49.3708185,-25.802412],[-49.3704062,-25.8011116],[-49.3713482,-25.7990327],[-49.370755,-25.7980203],[-49.3708775,-25.7966937],[-49.3697557,-25.7950618],[-49.3709307,-25.7915581],[-49.3704581,-25.7894478],[-49.369776454711136,-25.78882152114882],[-49.370796,-25.7876362],[-49.381383,-25.7847839],[-49.3834969,-25.7857895],[-49.38508141327667,-25.783804940791118],[-49.3850451,-25.7850224],[-49.3873711,-25.7885849],[-49.3873294,-25.7892493],[-49.3885966,-25.7904271],[-49.3897009,-25.7932627],[-49.3908463,-25.7938034],[-49.3932194,-25.7931964],[-49.3943245,-25.7935394],[-49.3965547,-25.7924469],[-49.4001604,-25.7928328],[-49.4006532,-25.7934276],[-49.4011789,-25.7927847],[-49.4021098,-25.7929907],[-49.4043728,-25.7920801],[-49.4050827,-25.7906972],[-49.4059746,-25.7914469],[-49.4063533,-25.7904255],[-49.4071849,-25.7905391],[-49.4070915,-25.7912794],[-49.4084754,-25.7919734],[-49.4097785,-25.7905992],[-49.4104654,-25.7906911],[-49.4120442,-25.7919209],[-49.4115424,-25.7934437],[-49.4119863,-25.7943522],[-49.4133753,-25.7914997],[-49.4144586,-25.7910663],[-49.4152893,-25.7936625],[-49.4168827,-25.7941801],[-49.4180158,-25.7923988],[-49.4179711,-25.7908137],[-49.4189228,-25.7905058],[-49.4187325,-25.7898241],[-49.4194753,-25.7891376],[-49.4197167,-25.7866489],[-49.4214559,-25.7849307],[-49.4227396,-25.7852746],[-49.4236506,-25.7878102],[-49.4274903,-25.7881812],[-49.427863,-25.7895144],[-49.4285911,-25.7900669],[-49.4297962,-25.7896255],[-49.4303811,-25.7908401],[-49.43187,-25.7910381],[-49.4329874,-25.7884381],[-49.4336839,-25.7887473],[-49.4345973,-25.7909173],[-49.4360837,-25.7920638],[-49.4389443,-25.7924731],[-49.4411855,-25.7913955],[-49.4429338,-25.7940402],[-49.4441092,-25.7940112],[-49.4449179,-25.794622],[-49.4480508,-25.7990504],[-49.4490195,-25.796314],[-49.449637,-25.7963955],[-49.4503866,-25.797717],[-49.4514902,-25.797974],[-49.4524691,-25.7958848],[-49.4522243,-25.7942231],[-49.4539097,-25.7933523],[-49.4537304,-25.7904234],[-49.4528793,-25.7893275],[-49.4541908,-25.78759],[-49.4549762,-25.7875839],[-49.4546854,-25.7869163],[-49.4552729,-25.7865013],[-49.4566714,-25.78857],[-49.4563719,-25.7898021],[-49.4571627,-25.7904907],[-49.4570719,-25.7910933],[-49.4578363,-25.791191],[-49.4588915,-25.7939193],[-49.4593388,-25.7941188],[-49.4598966,-25.7934632],[-49.4603694,-25.7944329],[-49.4615998,-25.794582],[-49.4618472,-25.795369],[-49.4639439,-25.7943342],[-49.4640018,-25.7904866],[-49.4662096,-25.7897264],[-49.4659928,-25.7912025],[-49.4675607,-25.7927576],[-49.4692009,-25.7923383],[-49.4708582,-25.7929889],[-49.4719992,-25.7941234],[-49.4722111,-25.7960534],[-49.4734041,-25.7964283],[-49.4747317,-25.7987956],[-49.4768428,-25.8004783],[-49.4805767,-25.7995212],[-49.482085,-25.800185],[-49.4844342,-25.7969659],[-49.4869404,-25.7963886],[-49.4886323,-25.7969185],[-49.4889328,-25.7962287],[-49.4909175,-25.7953802],[-49.4905328,-25.794843],[-49.4909189,-25.793291],[-49.491927,-25.7927519],[-49.4936414,-25.7941896],[-49.4964617,-25.7954579],[-49.50222,-25.8003213],[-49.5057013,-25.8006585],[-49.5067597,-25.8014551],[-49.5078173,-25.8007417],[-49.5084082,-25.8015014],[-49.5086851,-25.8007496],[-49.5094175,-25.8009064],[-49.5092584,-25.800151],[-49.5115108,-25.8002952],[-49.5126674,-25.8010308],[-49.5128755,-25.8032093],[-49.5137046,-25.8033682],[-49.5141593,-25.8044606],[-49.5155837,-25.8040215],[-49.519363,-25.8070721],[-49.6148609,-25.7816683],[-49.6125074,-25.7782656],[-49.6136442,-25.7751067],[-49.6126263,-25.7745247],[-49.6120704,-25.772178],[-49.6093724,-25.7706588],[-49.6102679,-25.7702037],[-49.6085575,-25.7683583],[-49.6085773,-25.7666056],[-49.6056702,-25.7645935],[-49.6064317,-25.7627946],[-49.6024768,-25.7569118],[-49.6027797,-25.7544874],[-49.6021919,-25.7521451],[-49.602688,-25.7507815],[-49.6041171,-25.7494569],[-49.6041548,-25.7474605],[-49.6051358,-25.7464953],[-49.6051756,-25.7455775],[-49.6040033,-25.7457017],[-49.6037499,-25.7447832],[-49.6023076,-25.7441964],[-49.6029499,-25.7429255],[-49.6027273,-25.7417403],[-49.6014126,-25.738722],[-49.6002206,-25.73765],[-49.6006409,-25.7335289],[-49.5999869,-25.733201],[-49.5995369,-25.7301529],[-49.5988951,-25.7293326],[-49.5997713,-25.7278003],[-49.5997073,-25.7268325],[-49.6003107,-25.7270976],[-49.6005217,-25.7263507],[-49.5998945,-25.7252164],[-49.5990563,-25.7249641],[-49.5990198,-25.7237097],[-49.6008034,-25.721765],[-49.6020923,-25.7187432],[-49.6035814,-25.717996],[-49.6044683,-25.7155179],[-49.6044472,-25.7136523],[-49.6064156,-25.7109869],[-49.6090048,-25.6760149],[-49.6081237,-25.6725142],[-49.6085707,-25.6707364],[-49.6077977,-25.6692337],[-49.609313,-25.6652013],[-49.6082636,-25.6558607],[-49.6084735,-25.6538316],[-49.6096754,-25.651708],[-49.6091221,-25.6500849],[-49.609597,-25.6483034],[-49.6091009,-25.6474848],[-49.6093672,-25.6458206],[-49.6106022,-25.6428708],[-49.6103877,-25.6417904],[-49.6092646,-25.6413341],[-49.6087941,-25.639927],[-49.6093518,-25.6375408],[-49.6086224,-25.6366179],[-49.6083678,-25.6315764],[-49.6060176,-25.6275279],[-49.6059428,-25.6253272],[-49.6051657,-25.6241074],[-49.6063143,-25.6195693],[-49.6049512,-25.613352],[-49.5999134,-25.6058387],[-49.6014886,-25.6075943],[-49.6030335,-25.6069433],[-49.6045709,-25.6043495],[-49.6056724,-25.6038636],[-49.6084168,-25.6033926],[-49.6106018,-25.6039726],[-49.6110359,-25.6019898],[-49.6116505,-25.6021812],[-49.6119704,-25.60411],[-49.612923,-25.604616],[-49.6164878,-25.604402],[-49.6193836,-25.6028136],[-49.6220435,-25.6036463],[-49.6242574,-25.601742],[-49.627275,-25.6013968],[-49.6294255,-25.5989345],[-49.6316657,-25.6008178],[-49.6333073,-25.6008947],[-49.6340039,-25.599845],[-49.6336149,-25.5979169],[-49.6324622,-25.5969122],[-49.6303395,-25.5968931],[-49.6285495,-25.5977452],[-49.6274823,-25.5951887],[-49.6278666,-25.5915285],[-49.6316633,-25.5883373],[-49.6325504,-25.5890317],[-49.6336322,-25.5880729],[-49.6370617,-25.589814],[-49.6440321,-25.5912449],[-49.6470786,-25.5943791],[-49.649414,-25.593779],[-49.6512332,-25.5903802],[-49.653232,-25.5892807],[-49.65383,-25.5908383],[-49.6561519,-25.5912946],[-49.6567612,-25.5920452],[-49.6557539,-25.5963214],[-49.6584032,-25.5983327],[-49.6638281,-25.5970174],[-49.6660465,-25.5945529],[-49.6672853,-25.5940047],[-49.6689261,-25.5942686],[-49.6703492,-25.5957091],[-49.6715098,-25.5960308],[-49.672827,-25.5945523],[-49.6729773,-25.5933115],[-49.6727142,-25.5923774],[-49.6716192,-25.5923055],[-49.6702413,-25.5930379],[-49.6699033,-25.5926612],[-49.6700504,-25.591732],[-49.6712983,-25.5903776],[-49.6744489,-25.5902814],[-49.6771139,-25.5908647],[-49.6791881,-25.5890201],[-49.6806265,-25.5890949],[-49.6836867,-25.5909863],[-49.6835981,-25.5927867],[-49.6848438,-25.5978901],[-49.6915626,-25.6053828],[-49.6926248,-25.6036236],[-49.6919217,-25.5989327],[-49.6932073,-25.5979964],[-49.6973921,-25.6015597],[-49.6984715,-25.6012345],[-49.6993582,-25.600173],[-49.7014962,-25.6013513],[-49.7025137,-25.5993609],[-49.7043301,-25.5992862],[-49.7050316,-25.5997501],[-49.7050417,-25.6019175],[-49.7059134,-25.6038029],[-49.7078539,-25.6048275],[-49.70884,-25.6070009],[-49.7097686,-25.6066308],[-49.7093189,-25.6045811],[-49.7106268,-25.6004555],[-49.7122517,-25.5995245],[-49.7142285,-25.6003663],[-49.7148425,-25.6042022],[-49.7153748,-25.6046665],[-49.7196595,-25.6036951],[-49.7209729,-25.6051869],[-49.7212878,-25.6071371],[-49.7220234,-25.6074865],[-49.7233494,-25.6063061],[-49.7245107,-25.6030654],[-49.7254282,-25.6022497],[-49.7291769,-25.6009992],[-49.7301684,-25.6012372],[-49.7336858,-25.6055099],[-49.7375554,-25.604835],[-49.7434694,-25.6064496],[-49.7445304,-25.608015],[-49.7429629,-25.6179718],[-49.7444083,-25.6197682],[-49.7455162,-25.6199022],[-49.7461847,-25.6197604],[-49.7466253,-25.6168581],[-49.7455317,-25.6135985],[-49.7472608,-25.6124215],[-49.7500136,-25.6129952],[-49.7503433,-25.6120964],[-49.7503326,-25.6100064],[-49.7490801,-25.6073217],[-49.7497083,-25.6035895],[-49.7485373,-25.602877],[-49.7470505,-25.6033493],[-49.7458065,-25.6021399],[-49.7461567,-25.6005209],[-49.7491986,-25.5959063],[-49.7485225,-25.5946639],[-49.7470853,-25.5937364],[-49.7453418,-25.5899047],[-49.745574,-25.5853726],[-49.7470411,-25.5833706],[-49.7514351,-25.5813912],[-49.7561311,-25.5822183],[-49.7577267,-25.5817338],[-49.7584903,-25.5819073],[-49.7603633,-25.5843107],[-49.7642397,-25.5854536],[-49.7647359,-25.5845704],[-49.7642621,-25.5830663],[-49.7650708,-25.5819074],[-49.7689126,-25.5803837],[-49.7733223,-25.5796431],[-49.7786688,-25.5750229],[-49.7834381,-25.5723973],[-49.786199,-25.571754],[-49.7890611,-25.5732203],[-49.7941413,-25.5701518],[-49.7983807,-25.5655207],[-49.8010084,-25.5663186],[-49.803333,-25.5656724],[-49.8074053,-25.5658168],[-49.8080219,-25.5653226],[-49.8085187,-25.5553285],[-49.809399,-25.5537505],[-49.8093465,-25.5501146],[-49.8076018,-25.5491853],[-49.8030747,-25.5522486],[-49.8021842,-25.551833],[-49.8043327,-25.5420971],[-49.8070915,-25.5347729],[-49.8065235,-25.533733],[-49.8066978,-25.5311282],[-49.805811,-25.5302405],[-49.8038227,-25.529597],[-49.8040657,-25.5271943],[-49.8029992,-25.524153],[-49.805601,-25.5212959],[-49.8056473,-25.5204511],[-49.8030654,-25.5193959],[-49.8029969,-25.5147909],[-49.802057,-25.5138863],[-49.798332,-25.5132787],[-49.7974097,-25.5125594],[-49.8009017,-25.5081679],[-49.8012483,-25.505076],[-49.8036024,-25.5047198],[-49.804669,-25.50281],[-49.8021031,-25.5030783],[-49.7990866,-25.5000831],[-49.7988453,-25.4970402],[-49.7946543,-25.4958011],[-49.7926028,-25.4961587],[-49.7853973,-25.4897767],[-49.7841016,-25.486846],[-49.7827514,-25.4865594],[-49.7816961,-25.4875709],[-49.7809041,-25.4873986],[-49.7779755,-25.4841064],[-49.7762486,-25.4801981],[-49.7777794,-25.4773981],[-49.775917,-25.4724163],[-49.7700715,-25.4694719],[-49.7671517,-25.468785],[-49.7665963,-25.4677706],[-49.7683302,-25.4645403],[-49.7681842,-25.4626582],[-49.7668288,-25.4617901],[-49.7650315,-25.4579492],[-49.7640535,-25.4569595],[-49.7646382,-25.4551227],[-49.7665672,-25.4535292],[-49.7666604,-25.4505022],[-49.7639432,-25.4493256],[-49.7604903,-25.4464101],[-49.7561692,-25.4455619],[-49.7534784,-25.4464143],[-49.753258,-25.4449589],[-49.7512521,-25.4433619],[-49.7491462,-25.4392073],[-49.7489762,-25.4378741],[-49.7476586,-25.4364249],[-49.7498707,-25.4326888],[-49.7501116,-25.4301077],[-49.7510889,-25.4286437],[-49.7492398,-25.4273197],[-49.7486506,-25.4250409],[-49.7505597,-25.4221638],[-49.7505448,-25.4206909],[-49.7478945,-25.4181417],[-49.7426719,-25.417707],[-49.741971,-25.4161738],[-49.7403926,-25.4151324],[-49.7415363,-25.4125306],[-49.7412107,-25.4084175],[-49.7435003,-25.407214],[-49.7442256,-25.4050263],[-49.7456407,-25.4042877],[-49.7460753,-25.4019069],[-49.7485404,-25.4000911],[-49.748154,-25.3990887],[-49.7490859,-25.397299],[-49.7481745,-25.3956155],[-49.7447726,-25.3935322],[-49.7450162,-25.3920343],[-49.7441437,-25.3908881],[-49.7440827,-25.3891148],[-49.7449314,-25.3871721],[-49.7440225,-25.3834973],[-49.744641,-25.3811146],[-49.7434746,-25.3758265],[-49.7415635,-25.3730337],[-49.7410383,-25.3663349],[-49.7453583,-25.3636481],[-49.7483858,-25.363147],[-49.7511084,-25.3615872],[-49.7532151,-25.3616046],[-49.7565564,-25.360569],[-49.7423348,-25.3551408],[-49.7583518,-25.3612536],[-49.7960071,-25.3052645],[-49.8196313,-25.2718158],[-49.8196637,-25.2700552],[-49.8218075,-25.2683089],[-49.8264519,-25.2669162],[-49.8267912,-25.2635057],[-49.8277978,-25.2623293],[-49.8396418,-25.2565032],[-49.8431075,-25.2540944],[-49.848099,-25.2483181],[-49.8488044,-25.2467897],[-49.8489098,-25.2435186],[-49.8504284,-25.2407088],[-49.8558295,-25.2360856],[-49.8567694,-25.2339327],[-49.8546695,-25.2332548],[-49.8509113,-25.2341301],[-49.8491534,-25.2339077],[-49.8401649,-25.2295189],[-49.8379633,-25.2276925],[-49.8320543,-25.2253139],[-49.8286931,-25.2247984],[-49.8173144,-25.2263447],[-49.8158712,-25.2252865],[-49.8135113,-25.2200109],[-49.8098721,-25.2166404],[-49.8073156,-25.2158867],[-49.8015747,-25.2161891],[-49.7984143,-25.2146666],[-49.7976605,-25.2134053],[-49.7966363,-25.2086622],[-49.7953109,-25.2072233],[-49.7958883,-25.2030501],[-49.7939654,-25.2002813],[-49.7809062,-25.1940822],[-49.7778101,-25.1938814],[-49.7729956,-25.1954357],[-49.7706667,-25.1968174],[-49.7695444,-25.1980974],[-49.7691749,-25.2024908],[-49.7628449,-25.2062254],[-49.7607381,-25.2100355],[-49.7585448,-25.2114452],[-49.7556621,-25.2165757],[-49.7541934,-25.2179556],[-49.7527105,-25.217002],[-49.7458589,-25.2211921],[-49.7440475,-25.2194099],[-49.7415589,-25.2196817],[-49.7396722,-25.2192327],[-49.7368259,-25.2198249],[-49.7352799,-25.2205652],[-49.7333283,-25.2228556],[-49.7308282,-25.2244172],[-49.7279353,-25.2242374],[-49.7241109,-25.2217922],[-49.718323,-25.2209267],[-49.7153078,-25.2183452],[-49.7121911,-25.217417],[-49.7113725,-25.2148873],[-49.7116611,-25.2116148],[-49.7091199,-25.205839],[-49.7063387,-25.2050907],[-49.7030045,-25.2008157],[-49.7008589,-25.2009652],[-49.7000465,-25.1977617],[-49.6983199,-25.1964996],[-49.6956845,-25.1963537],[-49.6937344,-25.1953825],[-49.6928665,-25.1945445],[-49.6922589,-25.1931103],[-49.6925316,-25.1925568],[-49.6895778,-25.1907454],[-49.6890131,-25.1882654],[-49.6869992,-25.1865164],[-49.6851246,-25.1836919],[-49.6853097,-25.182215],[-49.6843702,-25.1818092],[-49.6813881,-25.1778288],[-49.6818403,-25.1766039],[-49.6812042,-25.1759816],[-49.6817206,-25.1751569],[-49.6813591,-25.174293],[-49.6818012,-25.1742807],[-49.681821,-25.1736343],[-49.6809993,-25.1714117],[-49.6796906,-25.1707536],[-49.680414,-25.1694069],[-49.6802459,-25.1677593],[-49.6825775,-25.1677497],[-49.6826521,-25.1652973],[-49.6847645,-25.1638467],[-49.6859023,-25.1649026],[-49.6863934,-25.1632453],[-49.6880742,-25.1623823],[-49.6872858,-25.1602544],[-49.6877685,-25.159398],[-49.6901765,-25.1583416],[-49.6910863,-25.1571344],[-49.6917955,-25.1571722],[-49.6927277,-25.1552718],[-49.6948583,-25.1550453],[-49.6974288,-25.1531149],[-49.6989512,-25.152913],[-49.7000701,-25.1510306],[-49.7025541,-25.1492986],[-49.7033621,-25.1494607],[-49.7034754,-25.1483223],[-49.7049876,-25.1473352],[-49.7064703,-25.1445802],[-49.7065727,-25.1397046],[-49.7077591,-25.139346],[-49.7076782,-25.1374072],[-49.7101051,-25.1362437],[-49.7113187,-25.1364085],[-49.7128648,-25.1372822],[-49.7136595,-25.1386442],[-49.7146384,-25.1386842],[-49.7188735,-25.1360598],[-49.7228882,-25.1346012],[-49.7245443,-25.1347679],[-49.7264195,-25.1330313],[-49.7276711,-25.1327033],[-49.7271961,-25.1313596],[-49.729339,-25.1299957],[-49.7311485,-25.127949],[-49.7327625,-25.1237646],[-49.7315545,-25.1229837],[-49.7317521,-25.1218946],[-49.7291815,-25.1222415],[-49.7280084,-25.1214003],[-49.7293339,-25.1204589],[-49.7280915,-25.1182173],[-49.7284906,-25.115729],[-49.7311818,-25.1149359],[-49.7302877,-25.1132062],[-49.7284744,-25.1122358],[-49.7281184,-25.1106649],[-49.7315718,-25.1115093],[-49.7315565,-25.1097553],[-49.7307087,-25.1100572],[-49.7295572,-25.1088003],[-49.7350167,-25.1049255],[-49.7382992,-25.1040906],[-49.7392938,-25.1028693],[-49.7394402,-25.1018245],[-49.7370075,-25.1001274],[-49.735895,-25.1000864],[-49.7359684,-25.0992568],[-49.7384496,-25.096156],[-49.737953,-25.0952893],[-49.7380066,-25.0932597],[-49.7389645,-25.0920373],[-49.7381447,-25.0913388],[-49.7375551,-25.08958],[-49.7358966,-25.0898425],[-49.7353348,-25.0888838],[-49.7360818,-25.0883357],[-49.7360188,-25.0863514],[-49.7382974,-25.0846784],[-49.7387135,-25.0836351],[-49.7387214,-25.0827766],[-49.7380027,-25.0821693],[-49.7382836,-25.0812177],[-49.7394986,-25.0810128],[-49.7396611,-25.0818762],[-49.7412373,-25.0827811],[-49.7419833,-25.0826033],[-49.7424104,-25.0820694],[-49.7408958,-25.081562],[-49.7409699,-25.0808549],[-49.7428438,-25.0791802],[-49.7399275,-25.0755084],[-49.7391213,-25.0751645],[-49.7393263,-25.0697365],[-49.7387229,-25.0695769],[-49.7387996,-25.0686239],[-49.7369627,-25.0652307],[-49.7377744,-25.064816],[-49.7378493,-25.0641703],[-49.7394043,-25.0639355],[-49.7394499,-25.0627067],[-49.7372794,-25.0622742],[-49.7371844,-25.0614109],[-49.7366812,-25.0612532],[-49.7354611,-25.0615814],[-49.7348686,-25.0602533],[-49.7330064,-25.0590518],[-49.7319864,-25.0598444],[-49.7308058,-25.0598051],[-49.7296191,-25.0620545],[-49.7286751,-25.0617706],[-49.72771,-25.0628062],[-49.727422,-25.0622203],[-49.7262646,-25.0632252],[-49.7222889,-25.0640067],[-49.7206083,-25.0633465],[-49.7207831,-25.0610861],[-49.719131,-25.0609494],[-49.7199852,-25.0599106],[-49.7187447,-25.0575473],[-49.7177542,-25.0587993],[-49.7151369,-25.0604379],[-49.7135647,-25.0606242],[-49.7129474,-25.0601279],[-49.7131458,-25.0555434],[-49.7125686,-25.0543238],[-49.7135472,-25.0542393],[-49.7158734,-25.0525861],[-49.716872,-25.0526391],[-49.716964,-25.0517614],[-49.7163672,-25.05099],[-49.7155877,-25.0511667],[-49.715667,-25.0500282],[-49.7131652,-25.045966],[-49.7117712,-25.0459385],[-49.7112176,-25.0454098],[-49.7089163,-25.0468925],[-49.7071564,-25.0474617],[-49.7058772,-25.0468986],[-49.7043777,-25.0483313],[-49.7020966,-25.0486637],[-49.700939,-25.0464091],[-49.7016164,-25.0445841],[-49.7052158,-25.0425551],[-49.7080953,-25.0430553],[-49.7087036,-25.0397405],[-49.7107998,-25.0393891],[-49.7117373,-25.0384889],[-49.7102014,-25.0368452],[-49.7115078,-25.0345471],[-49.7110413,-25.0340516],[-49.7095013,-25.0345164],[-49.7067023,-25.0342149],[-49.7031697,-25.0322955],[-49.7025377,-25.0307175],[-49.7042633,-25.0303014],[-49.7058557,-25.0274764],[-49.7101338,-25.0259227],[-49.7120202,-25.0232457],[-49.7121587,-25.0215466],[-49.7102669,-25.0203919],[-49.7061353,-25.0214191],[-49.7051635,-25.0197501],[-49.7035257,-25.018991],[-49.6986558,-25.0212907],[-49.6985153,-25.0193511],[-49.6975443,-25.0182327],[-49.689105,-25.0180608],[-49.6850431,-25.0157058],[-49.6841309,-25.0132221],[-49.6818505,-25.0109484],[-49.6805512,-25.0087391],[-49.6777462,-25.0109727],[-49.6766356,-25.0095717],[-49.6761324,-25.0066826],[-49.6710438,-25.0059483],[-49.6687086,-25.004682],[-49.6680186,-25.0034455],[-49.6689324,-25.0006238],[-49.6682385,-24.9991619],[-49.6668763,-24.9990331],[-49.6656593,-25.0006376],[-49.6614977,-25.0032288],[-49.6548254,-25.0046924],[-49.6538538,-25.0077638],[-49.6527115,-25.0086487],[-49.6518569,-25.0073352],[-49.651182,-25.0028381],[-49.6504028,-25.0019143],[-49.6492709,-25.001692],[-49.6475463,-25.0025356],[-49.6455448,-25.0044847],[-49.6401644,-25.0075262],[-49.6387118,-25.007681],[-49.6394382,-25.0033979],[-49.6388188,-25.0021075],[-49.63766,-25.0012986],[-49.632294,-24.9999882],[-49.6317962,-24.9986238],[-49.6291705,-24.9966474],[-49.6272828,-24.9919985],[-49.6237995,-24.9913764],[-49.6230934,-24.9897158],[-49.6234256,-24.988565],[-49.6207711,-24.9873229],[-49.6187355,-24.9847591],[-49.6167909,-24.9799391],[-49.6106519,-24.9786034],[-49.609727,-24.9792259],[-49.6078672,-24.9787765],[-49.6059551,-24.980852],[-49.6080026,-24.9828513],[-49.6054324,-24.9840938],[-49.6052728,-24.9856254],[-49.6042124,-24.9864614],[-49.6021386,-24.9869783],[-49.599934,-24.9850508],[-49.5983146,-24.9821657],[-49.5976676,-24.9783262],[-49.5957719,-24.9756068],[-49.595015,-24.9754349],[-49.5934685,-24.976648],[-49.5920265,-24.9763774],[-49.5917644,-24.9751145],[-49.586399,-24.9683406],[-49.5817256,-24.9650866],[-49.5792707,-24.9651292],[-49.5767625,-24.9637575],[-49.5763358,-24.9617851],[-49.5748781,-24.959411],[-49.5744741,-24.9602613],[-49.57585,-24.957199],[-49.5785062,-24.9546548],[-49.5786789,-24.9518218],[-49.5800744,-24.948814],[-49.5782012,-24.9472584],[-49.5759375,-24.9439909],[-49.5718696,-24.9440506],[-49.5716357,-24.9429759],[-49.5731233,-24.9411333],[-49.5728866,-24.9398289],[-49.5712191,-24.9386216],[-49.569355,-24.9381708],[-49.5683737,-24.9385742],[-49.5683916,-24.9398983],[-49.5673242,-24.9412676],[-49.5651846,-24.9409293],[-49.5643754,-24.9394898],[-49.5636357,-24.9392867],[-49.5618418,-24.9406093],[-49.5600432,-24.9409279],[-49.5553462,-24.9409936],[-49.5520618,-24.9400399],[-49.5494032,-24.9409977],[-49.5480908,-24.9392567],[-49.5481349,-24.9384453],[-49.5497848,-24.9373313],[-49.5492848,-24.9365785],[-49.5469466,-24.9355979],[-49.545156,-24.9326721],[-49.5451095,-24.9299479],[-49.5413856,-24.9260293],[-49.5405565,-24.9244909],[-49.5401858,-24.9213633],[-49.5382475,-24.9194098],[-49.538361,-24.9176626],[-49.5394542,-24.9165158],[-49.5349269,-24.9136056],[-49.5327275,-24.9114271],[-49.5309715,-24.9120845],[-49.5297097,-24.9115648],[-49.5292528,-24.9110232],[-49.5293676,-24.9091345],[-49.525996,-24.9083192],[-49.5216345,-24.9112438],[-49.5182401,-24.9117178],[-49.5160538,-24.9131505],[-49.5111019,-24.9122406],[-49.510804,-24.9112802],[-49.5121271,-24.9080035],[-49.509048,-24.904072],[-49.5099335,-24.9013354],[-49.5095518,-24.9009933],[-49.5073961,-24.9016682],[-49.5054806,-24.9032017],[-49.5027364,-24.9037724],[-49.5004403,-24.9054196],[-49.4979025,-24.9049955],[-49.4958948,-24.905763],[-49.4948825,-24.910503],[-49.4963083,-24.9109514],[-49.4980042,-24.9138837],[-49.495875,-24.9147475],[-49.4947782,-24.9164191],[-49.494012,-24.916705],[-49.4913191,-24.9165643],[-49.4900469,-24.915707],[-49.4863111,-24.9163249],[-49.4851346,-24.914856],[-49.4827077,-24.9157304],[-49.477526,-24.9100825],[-49.4767692,-24.9085406],[-49.4751021,-24.908465],[-49.47319,-24.9067214],[-49.4668775,-24.907823],[-49.4654266,-24.9117422],[-49.4612557,-24.9109651],[-49.458126,-24.9131773],[-49.4534694,-24.9136745],[-49.452108,-24.9154421],[-49.4510515,-24.9157028],[-49.4470802,-24.9095241],[-49.4445861,-24.9087202],[-49.4418346,-24.9045003],[-49.4402478,-24.9009303],[-49.4369366,-24.9002158],[-49.4324154,-24.9005462],[-49.4304143,-24.9037022],[-49.4281688,-24.9049696],[-49.4256611,-24.9050784],[-49.4239679,-24.9022294],[-49.4205517,-24.9007383],[-49.4180169,-24.897513],[-49.4094224,-24.8963755],[-49.4084909,-24.8951884],[-49.4107751,-24.8914595],[-49.4111018,-24.8891074],[-49.4100758,-24.8854211],[-49.408677,-24.8836196],[-49.406546,-24.8816948],[-49.4054731,-24.8816294],[-49.4024406,-24.8832164],[-49.4013401,-24.882933],[-49.4002851,-24.8809962],[-49.3986993,-24.8796222],[-49.3981976,-24.8767871],[-49.3966825,-24.8764161],[-49.3944101,-24.8769219],[-49.3917299,-24.8767042],[-49.3905521,-24.8778877],[-49.392316,-24.8796906],[-49.390784,-24.8806281],[-49.3903776,-24.8844452],[-49.3937556,-24.8859816],[-49.3926452,-24.8912652],[-49.3920695,-24.8919123],[-49.3906376,-24.8919376],[-49.3907638,-24.8937369],[-49.3898913,-24.8942974],[-49.3897321,-24.8951159],[-49.3910534,-24.8967052],[-49.3931589,-24.8975033],[-49.3954999,-24.8964944],[-49.3973174,-24.8965143],[-49.3981376,-24.897708],[-49.3980376,-24.8988535],[-49.39712,-24.9002009],[-49.3897658,-24.8993447],[-49.3885776,-24.9036205],[-49.3889116,-24.9055037],[-49.3844334,-24.9071114],[-49.3835174,-24.9080119],[-49.3833266,-24.9091717],[-49.3868302,-24.9117374],[-49.3890114,-24.9114119],[-49.389654,-24.9125073],[-49.3869327,-24.9131864],[-49.385385,-24.9150341],[-49.383985,-24.9150467],[-49.3827522,-24.9157545],[-49.3829497,-24.9179209],[-49.3822613,-24.9190095],[-49.3800275,-24.9188297],[-49.3781413,-24.9193668],[-49.3778315,-24.9202085],[-49.3785389,-24.9209205],[-49.3776601,-24.9215365],[-49.3762964,-24.9212646],[-49.3761467,-24.9235202],[-49.3743265,-24.9236666],[-49.373379,-24.9286865],[-49.3731868,-24.9310966],[-49.3736147,-24.9316549],[-49.3744018,-24.9315351],[-49.3761087,-24.9287773],[-49.3784729,-24.9282027],[-49.3814874,-24.9304535],[-49.3815957,-24.9311352],[-49.3751059,-24.9353288],[-49.3732669,-24.9390437],[-49.3738005,-24.9417799],[-49.3742389,-24.94198],[-49.3751467,-24.9419432],[-49.3794898,-24.9394291],[-49.3801725,-24.9419168],[-49.3844276,-24.9427636],[-49.3848029,-24.9437247],[-49.3841877,-24.9451561],[-49.3848967,-24.9459365],[-49.3890835,-24.9471045],[-49.3888706,-24.9498366],[-49.3919619,-24.9531274],[-49.3914585,-24.9537406],[-49.3893113,-24.9526032],[-49.3881407,-24.9534652],[-49.3897404,-24.9599017],[-49.3891121,-24.9611237],[-49.3898557,-24.9635268],[-49.3877079,-24.9653738],[-49.3878781,-24.9663349],[-49.3882215,-24.9670374],[-49.3932115,-24.9675717],[-49.3934053,-24.968247],[-49.3918666,-24.9698093],[-49.3914911,-24.9709499],[-49.394318,-24.9715381],[-49.3952921,-24.9732906],[-49.393326,-24.9754163],[-49.3871443,-24.9784684],[-49.3856722,-24.9800192],[-49.3837276,-24.9779322],[-49.3823054,-24.9773017],[-49.3777869,-24.9804913],[-49.3751483,-24.9814843],[-49.3742656,-24.9806317],[-49.3731877,-24.9807542],[-49.3728338,-24.9827115],[-49.3715472,-24.9829563],[-49.3698786,-24.9850882],[-49.3722996,-24.987074],[-49.3704236,-24.9889733],[-49.3692168,-24.9899403],[-49.3674949,-24.9892121],[-49.3659022,-24.9919282],[-49.3616673,-24.9944306],[-49.3593578,-24.9928535],[-49.3575201,-24.9964131],[-49.3555373,-24.9975063],[-49.3554612,-25.0008424],[-49.3563159,-25.0012275],[-49.3603552,-25.0006434],[-49.3608917,-25.0022933],[-49.3620945,-25.0032045],[-49.3676213,-25.0006486],[-49.3675024,-25.0021755],[-49.3649874,-25.0050313],[-49.3620012,-25.0064474],[-49.3601465,-25.0052915],[-49.3588311,-25.0078459],[-49.356232,-25.010136],[-49.3493968,-25.0133289],[-49.3460668,-25.0135997],[-49.3446923,-25.0120137],[-49.347877,-25.0092377],[-49.3483114,-25.0075234],[-49.3472844,-25.0058978],[-49.3452595,-25.0077579],[-49.3440037,-25.0070728],[-49.3403553,-25.0077191],[-49.3408191,-25.0098469],[-49.3306368,-25.0169123],[-49.3304942,-25.01785],[-49.3296048,-25.0181402],[-49.3279496,-25.0211384],[-49.3265689,-25.0222283],[-49.3229932,-25.0221486],[-49.3233676,-25.0246637],[-49.3218647,-25.0254714],[-49.3202641,-25.0273353],[-49.3179978,-25.027701],[-49.3171282,-25.0252523],[-49.3155578,-25.025175],[-49.3136548,-25.0274573],[-49.3123069,-25.033616],[-49.3117458,-25.0338487],[-49.3105898,-25.0332223],[-49.3084591,-25.0358252],[-49.306274,-25.0369418],[-49.3034658,-25.0399124],[-49.300373,-25.0403868],[-49.2989991,-25.0412857],[-49.2987572,-25.0421167],[-49.2977882,-25.0412411],[-49.2968957,-25.041503],[-49.2961344,-25.0432103],[-49.2971543,-25.0453467],[-49.2949565,-25.0488354],[-49.2949433,-25.0498799],[-49.2916684,-25.0494836],[-49.2906479,-25.0510421],[-49.2893047,-25.0483648],[-49.2901355,-25.0477462],[-49.2890604,-25.0471059],[-49.2862535,-25.0492717],[-49.2838297,-25.0493328],[-49.2822832,-25.0507962],[-49.2789777,-25.0492872],[-49.2704815,-25.0549653],[-49.2687263,-25.0542447],[-49.2673089,-25.0543312],[-49.2673814,-25.0573673],[-49.2637278,-25.0606703],[-49.2618704,-25.0606977],[-49.2608145,-25.0588905],[-49.2591509,-25.0581845],[-49.2593835,-25.0568849],[-49.2609267,-25.0567242],[-49.2619523,-25.0559461],[-49.2622994,-25.0547358],[-49.2617488,-25.0542805],[-49.2538676,-25.055967],[-49.2529151,-25.0571625],[-49.2509154,-25.0575599],[-49.2508211,-25.0588207],[-49.2480885,-25.0598621],[-49.2449653,-25.0636662],[-49.2449926,-25.0665998],[-49.2437194,-25.0684147],[-49.2432264,-25.0710561],[-49.2411281,-25.0729418],[-49.2401119,-25.0746991],[-49.2382376,-25.0748715],[-49.2301069,-25.0731825],[-49.2249178,-25.0745104],[-49.2224158,-25.0738392],[-49.219853,-25.0717736],[-49.2170547,-25.0722205],[-49.2139321,-25.0715698],[-49.2129771,-25.0717957],[-49.2105101,-25.0742483],[-49.2088551,-25.0742148],[-49.2064415,-25.0731103],[-49.205264,-25.075098],[-49.2027889,-25.0749345],[-49.1962279,-25.0779807],[-49.1936334,-25.0802819],[-49.1919393,-25.0795742],[-49.1897926,-25.0815313],[-49.1857363,-25.0791926],[-49.1839437,-25.0785185],[-49.1826279,-25.078711],[-49.1827693,-25.0802377],[-49.1793567,-25.08129],[-49.1788302,-25.0835579],[-49.1759696,-25.0872192],[-49.1749963,-25.0849026],[-49.1726548,-25.083708],[-49.1699883,-25.0832099],[-49.1686429,-25.0831941],[-49.1656925,-25.0852473],[-49.1634048,-25.0858358],[-49.1519006,-25.086036],[-49.1509444,-25.0896282],[-49.1455617,-25.0960328],[-49.1427959,-25.0978149],[-49.1386288,-25.094549],[-49.1350681,-25.0947866],[-49.1330823,-25.0913541],[-49.1314153,-25.0897667],[-49.1260234,-25.0884823],[-49.118751,-25.0843541],[-49.1138208,-25.0861322],[-49.1134237,-25.0828508],[-49.1108817,-25.0821981],[-49.1097051,-25.0814299],[-49.1089914,-25.0799997],[-49.1062096,-25.0795407],[-49.1048756,-25.0786935],[-49.1024591,-25.0791238],[-49.100297,-25.0767056],[-49.0961918,-25.0758589],[-49.0939106,-25.0741437],[-49.0900518,-25.0724467],[-49.077371,-25.0627499],[-49.0747938,-25.0595477],[-49.073457,-25.0589037],[-49.0671856,-25.0580314],[-49.0592304,-25.0523498],[-49.0534202,-25.0507962],[-49.0484929,-25.0485476],[-49.0441744,-25.048078],[-49.040876,-25.0464364],[-49.0374201,-25.043734],[-49.0334134,-25.0435518],[-49.0310162,-25.0416744],[-49.0284183,-25.0411077],[-49.025928,-25.039354],[-49.0233319,-25.0387441],[-49.0203548,-25.0394416],[-49.0180658,-25.0392075],[-49.0148165,-25.0371978],[-49.0122578,-25.0370392],[-49.010395,-25.0382043],[-49.0092696,-25.0382278],[-49.008819,-25.0411449],[-49.0074471,-25.0426235],[-48.9995704,-25.0459516],[-48.9984882,-25.0500793],[-48.9963919,-25.0506365],[-48.9929462,-25.0494852],[-48.9911247,-25.0498697],[-48.9884116,-25.0480908],[-48.9863985,-25.0482131],[-48.9857495,-25.0453537],[-48.9842188,-25.0460253],[-48.9816109,-25.0460717],[-48.9816023,-25.0452123],[-48.9800271,-25.0440336],[-48.9760763,-25.039134],[-48.9732059,-25.0391759],[-48.9724325,-25.0383511],[-48.9717774,-25.0385865],[-48.9704092,-25.0411284],[-48.9685879,-25.0420907],[-48.965399,-25.0424738],[-48.9646385,-25.0460816],[-48.9604634,-25.0456766],[-48.9588742,-25.0438524],[-48.9574422,-25.0434429],[-48.9549924,-25.0438174],[-48.9535542,-25.0433905],[-48.9521311,-25.0439015],[-48.9514237,-25.0431139],[-48.9462263,-25.0446396],[-48.9443116,-25.0467835],[-48.9410471,-25.0466376],[-48.9367032,-25.0476858],[-48.9343096,-25.0476531],[-48.9316074,-25.0411795],[-48.9306007,-25.0407761],[-48.9297695,-25.0389289],[-48.9284042,-25.0383484],[-48.9264232,-25.0334851],[-48.9253575,-25.033167],[-48.9243257,-25.0343835],[-48.9227213,-25.0349142],[-48.91985,-25.0318583],[-48.9148852,-25.0305409],[-48.9140426,-25.0296486],[-48.9126655,-25.0299582],[-48.9109654,-25.0294446],[-48.9090069,-25.0310327],[-48.9041462,-25.0313952],[-48.9027596,-25.031047],[-48.902091,-25.0293781],[-48.8996879,-25.0306142],[-48.8944095,-25.0303146],[-48.8884583,-25.0312929],[-48.8858952,-25.0293105],[-48.8832819,-25.0291109],[-48.8800564,-25.0297556],[-48.8786142,-25.0285535],[-48.8767428,-25.0287531],[-48.8738688,-25.0304083],[-48.8728814,-25.030214],[-48.871317,-25.0308733],[-48.8693218,-25.0292614],[-48.8655086,-25.0300863],[-48.8635041,-25.0290322],[-48.8613173,-25.0306811],[-48.8571849,-25.0306016],[-48.8540711,-25.0324831],[-48.8497116,-25.0326846],[-48.8484165,-25.0338248],[-48.8464347,-25.0334375],[-48.8457838,-25.0346792],[-48.8458973,-25.0373905],[-48.847131,-25.0399192],[-48.842405,-25.0401996],[-48.8403837,-25.0388385],[-48.8384231,-25.0388894],[-48.8358436,-25.0374792],[-48.8305275,-25.0368906],[-48.8291751,-25.0341966],[-48.8267713,-25.0331867],[-48.8269312,-25.0318381],[-48.8260046,-25.0307399],[-48.8215377,-25.0299842],[-48.8231842,-25.0274034],[-48.8231908,-25.0259018],[-48.8266982,-25.0271427],[-48.8263857,-25.0258038],[-48.8270633,-25.0242606],[-48.8263889,-25.0230389],[-48.8274216,-25.0218457],[-48.8270118,-25.0195652],[-48.8274187,-25.0190112],[-48.8263348,-25.0171774],[-48.8218609,-25.0172355],[-48.8214472,-25.0165341],[-48.8198872,-25.0168761],[-48.8199269,-25.0161203],[-48.8179227,-25.0162964],[-48.815857,-25.0133903],[-48.8146649,-25.0135406],[-48.8111224,-25.0118499],[-48.8104096,-25.0129073],[-48.8110141,-25.0143716],[-48.8097457,-25.014946],[-48.8073107,-25.0146641],[-48.8039548,-25.0131814],[-48.8022825,-25.0136462],[-48.8012294,-25.0122194],[-48.802083,-25.011021],[-48.8012697,-25.009924],[-48.7991521,-25.0090326],[-48.7995971,-25.0079326],[-48.7967773,-25.0048172],[-48.7929244,-25.0038203],[-48.7895131,-25.0051804],[-48.787407,-25.0048412],[-48.7856732,-25.0052839],[-48.7840602,-25.00367],[-48.7814724,-25.002437],[-48.7805768,-25.0009489],[-48.7684275,-25.0005639],[-48.7650673,-25.0013725],[-48.7600602,-25.0011121],[-48.7588709,-25.0034111],[-48.757002,-25.0038127],[-48.755673,-25.000145],[-48.7561403,-24.9977837],[-48.7559689,-24.9961742],[-48.7553526,-24.9954683],[-48.7544293,-24.9956186],[-48.7522942,-24.9981058],[-48.7510667,-24.9977169],[-48.751959,-24.9966652],[-48.7512431,-24.9955516],[-48.7510627,-24.9917361],[-48.7505424,-24.9906626],[-48.7475496,-24.9909454],[-48.7470031,-24.9903013],[-48.7474546,-24.9884752],[-48.7457694,-24.9874544],[-48.7443467,-24.9879507],[-48.7443486,-24.9890213],[-48.7436425,-24.9896554],[-48.7415424,-24.9889278],[-48.7407258,-24.9881563],[-48.7411005,-24.9845305],[-48.7390966,-24.984432],[-48.7366697,-24.9826539],[-48.7322417,-24.9817559],[-48.7280266,-24.9827181],[-48.7260426,-24.9816217],[-48.7244378,-24.9804882],[-48.7228022,-24.9773416],[-48.7218224,-24.976774],[-48.7213499,-24.9727835],[-48.7187059,-24.9702763],[-48.7122598,-24.9683575],[-48.7106513,-24.9686112],[-48.708092,-24.9703508],[-48.7068199,-24.9728795],[-48.7061811,-24.9730072],[-48.7037984,-24.9725464],[-48.7013621,-24.9706811],[-48.6991019,-24.9700445],[-48.6966005,-24.9712395],[-48.6951357,-24.9710308],[-48.6929587,-24.9696139],[-48.6898442,-24.969902],[-48.6879743,-24.968261],[-48.6846883,-24.9681117],[-48.6834103,-24.9675477],[-48.6783416,-24.9642902],[-48.6754337,-24.9617208],[-48.6715275,-24.9595515],[-48.668264,-24.9584736],[-48.6674344,-24.9576743],[-48.66741,-24.9560828],[-48.6656073,-24.9553036],[-48.6651014,-24.9537336],[-48.6628788,-24.9524686],[-48.6619288,-24.9512455],[-48.6603621,-24.9512003],[-48.6596876,-24.9500221],[-48.6576165,-24.9491289],[-48.6564849,-24.9472043],[-48.6534584,-24.9480791],[-48.6529769,-24.9474353],[-48.6539984,-24.9454239],[-48.6510923,-24.9438409],[-48.6497136,-24.9444649],[-48.6484539,-24.9439229],[-48.6454943,-24.9403052],[-48.643187,-24.9414369],[-48.642605,-24.9412162],[-48.6418665,-24.938138],[-48.6398397,-24.9373272],[-48.6386419,-24.9361599],[-48.6390565,-24.9324498],[-48.6363453,-24.931248],[-48.6360023,-24.9297909],[-48.6332757,-24.9279881],[-48.6306985,-24.9271691],[-48.6301884,-24.9247257],[-48.6294886,-24.9239363],[-48.6242475,-24.927193],[-48.6161142,-24.9253728],[-48.6145413,-24.9263622],[-48.6135965,-24.9253317],[-48.6110209,-24.9255261],[-48.6093378,-24.9241134],[-48.6079728,-24.9238562],[-48.6079366,-24.926595],[-48.6052801,-24.9278711],[-48.6029071,-24.9270545],[-48.602783,-24.9258348],[-48.6037762,-24.9242603],[-48.6035641,-24.9237845],[-48.6023848,-24.9244729],[-48.5997169,-24.9243307],[-48.5976495,-24.9258196],[-48.596319,-24.9246148],[-48.5952767,-24.9247293],[-48.594477,-24.9241441],[-48.5913748,-24.9253453],[-48.5914943,-24.9239958],[-48.5910869,-24.9239549],[-48.5885744,-24.9255383],[-48.5887351,-24.9277738],[-48.5876714,-24.9279667],[-48.5852707,-24.9238957],[-48.5790706,-24.9253166],[-48.5799745,-24.9245869],[-48.5798111,-24.9234333],[-48.5780318,-24.9216451],[-48.5758858,-24.9204952],[-48.5773342,-24.9171317],[-48.5784671,-24.9163059],[-48.5768276,-24.9149242],[-48.5752263,-24.9153396],[-48.5748629,-24.9168243],[-48.5730552,-24.9155759],[-48.571496,-24.9175131],[-48.5676805,-24.9164358],[-48.5652241,-24.9177292],[-48.5655109,-24.9186875],[-48.5676632,-24.9199412],[-48.5712626,-24.9200089],[-48.571891,-24.9232271],[-48.5715891,-24.9247315],[-48.5693631,-24.9282895],[-48.5701793,-24.9315417],[-48.5688976,-24.9320289],[-48.567371,-24.9314352],[-48.566424,-24.9326956],[-48.5668393,-24.9353935],[-48.5628676,-24.9394293],[-48.5640042,-24.9403303],[-48.5676991,-24.9415285],[-48.5696748,-24.9434816],[-48.569676,-24.9452459],[-48.5689359,-24.9468961],[-48.5640324,-24.9487853],[-48.5630582,-24.9495051],[-48.5629815,-24.9503259],[-48.5643226,-24.9514665],[-48.5704626,-24.951606],[-48.5725196,-24.9540589],[-48.5726711,-24.9549294],[-48.567946,-24.9600172],[-48.5678314,-24.9612471],[-48.568641,-24.9628001],[-48.5674733,-24.9665764],[-48.5673709,-24.9722669],[-48.5710618,-24.9779459],[-48.5747282,-24.9800855],[-48.5753924,-24.9831264],[-48.5762873,-24.9844367],[-48.5801343,-24.9869411],[-48.582958,-24.9869959],[-48.5865962,-24.9859191],[-48.5884602,-24.9864393],[-48.5904155,-24.9889127],[-48.5892327,-24.9948099],[-48.5898904,-24.9958374],[-48.59155,-24.9966717],[-48.5952033,-24.9961342],[-48.5967274,-24.9985812],[-48.5980558,-25.0032615],[-48.6027602,-25.0013101],[-48.5980704,-25.0032555],[-48.5988974,-25.0052277],[-48.6000277,-25.0061105],[-48.6008313,-25.0105057],[-48.5996631,-25.0110998],[-48.5987269,-25.0141337],[-48.5972112,-25.0154164],[-48.5977585,-25.0167495],[-48.5994194,-25.0177645],[-48.5992472,-25.019272],[-48.5981875,-25.0200084],[-48.5952665,-25.0187431],[-48.5918495,-25.0199434],[-48.5899871,-25.0192728],[-48.5888695,-25.0197057],[-48.5883168,-25.0239317],[-48.5906867,-25.0265237],[-48.5880042,-25.0277377],[-48.5895837,-25.0296891],[-48.5856951,-25.0303068],[-48.5843738,-25.0323453],[-48.5815386,-25.0348572],[-48.5833709,-25.0384101],[-48.5838052,-25.0415844],[-48.5823817,-25.042269],[-48.5806577,-25.0468223],[-48.5813924,-25.0493019],[-48.583029,-25.050004],[-48.5826617,-25.0516461],[-48.5796328,-25.0531274],[-48.5734753,-25.0509131],[-48.5690701,-25.0510623],[-48.5690178,-25.0543089],[-48.5670354,-25.0552682],[-48.5653143,-25.0583019],[-48.5619569,-25.058928],[-48.5616722,-25.0603647],[-48.5589032,-25.0615423],[-48.5579385,-25.0639725],[-48.5590558,-25.0670306],[-48.5577713,-25.0686191],[-48.5592411,-25.0703273],[-48.5585076,-25.0729157],[-48.5601132,-25.0751802],[-48.5598759,-25.077961],[-48.5584347,-25.0793224],[-48.557504,-25.0823482],[-48.5565085,-25.0831837],[-48.5563428,-25.0842992],[-48.5573099,-25.0862077],[-48.5565018,-25.0880972],[-48.5510823,-25.0941655],[-48.5495674,-25.0966196],[-48.5475607,-25.0976793],[-48.5453038,-25.1004598],[-48.5452165,-25.1022227],[-48.5437878,-25.1055853],[-48.5461068,-25.1074354],[-48.5499609,-25.1089709],[-48.5533298,-25.10716],[-48.5564521,-25.1077468],[-48.5577387,-25.1067713],[-48.5610542,-25.1058682],[-48.56116,-25.1005308],[-48.5633085,-25.0951302],[-48.5691259,-25.0894063],[-48.5715958,-25.0862991],[-48.5719904,-25.0847805],[-48.5729973,-25.0841755],[-48.5776629,-25.0837298],[-48.5809745,-25.0847829],[-48.5847154,-25.0869903],[-48.5925163,-25.0892137],[-48.5953467,-25.0909953],[-48.5989082,-25.0891298],[-48.6015356,-25.0886472],[-48.6060498,-25.0906517],[-48.6088819,-25.0929624],[-48.6124906,-25.0930688],[-48.6128251,-25.0946472],[-48.6122672,-25.0992152],[-48.6159449,-25.1038555],[-48.6197651,-25.1065862],[-48.6202269,-25.1097886],[-48.6221745,-25.1119177],[-48.6239699,-25.116525],[-48.6279563,-25.1187818],[-48.6330089,-25.1201029],[-48.6404291,-25.1180282],[-48.6417894,-25.1181448],[-48.6428967,-25.1194179],[-48.6440412,-25.1234749],[-48.6457766,-25.1258861],[-48.6455396,-25.1273125],[-48.6435451,-25.1301897],[-48.6435318,-25.1309463],[-48.6468011,-25.1296696],[-48.6512334,-25.1305979],[-48.6537742,-25.1291599],[-48.6553453,-25.1290903],[-48.662262,-25.1264788],[-48.6638466,-25.1280787],[-48.6666725,-25.128226],[-48.6689029,-25.1319294],[-48.6679551,-25.1349634],[-48.6710352,-25.1408785],[-48.6735678,-25.142731],[-48.6743676,-25.1446979],[-48.6797358,-25.1462127],[-48.6828654,-25.1440615],[-48.6836257,-25.1425988],[-48.6837399,-25.1391703],[-48.6844893,-25.1382761],[-48.6829982,-25.1346984],[-48.6840789,-25.1320246],[-48.6827596,-25.1272791],[-48.6829641,-25.1239627],[-48.6819686,-25.122069],[-48.6821023,-25.1204516],[-48.6843326,-25.1188146],[-48.6843194,-25.1167174],[-48.6849503,-25.1165383],[-48.6875224,-25.1190087],[-48.6878579,-25.120633],[-48.688481,-25.1210235],[-48.6914097,-25.1184048],[-48.6976198,-25.1164496],[-48.699878,-25.1133351],[-48.7018792,-25.1126979],[-48.703862,-25.1129674],[-48.7036861,-25.1112039],[-48.7017321,-25.1066888],[-48.7037003,-25.1048576],[-48.7065382,-25.104233],[-48.712799,-25.1054279],[-48.7135304,-25.1031906],[-48.7181733,-25.1006457],[-48.720167,-25.1001511],[-48.7260769,-25.1005741],[-48.7265671,-25.0995336],[-48.7256605,-25.0948003],[-48.7277942,-25.0924514],[-48.7276278,-25.0903443],[-48.7283261,-25.0892166],[-48.7306785,-25.0894881],[-48.7334476,-25.0925328],[-48.7353144,-25.0934199],[-48.7381214,-25.0916988],[-48.7401064,-25.0916096],[-48.7421718,-25.0905698],[-48.7471722,-25.0909553],[-48.7493727,-25.0889136],[-48.7527722,-25.0927014],[-48.7540373,-25.0927199],[-48.7569625,-25.0910341],[-48.7605257,-25.0916232],[-48.76337,-25.0945512],[-48.7696096,-25.0970791],[-48.7698619,-25.0982368],[-48.7693889,-25.0993005],[-48.7657493,-25.1031006],[-48.7659046,-25.1045052],[-48.7699959,-25.1059356],[-48.771321,-25.1069924],[-48.7730995,-25.1093543],[-48.7738264,-25.1117144],[-48.7776646,-25.1145745],[-48.7788983,-25.1164049],[-48.7801964,-25.1221541],[-48.7824147,-25.1246593],[-48.7848268,-25.1263438],[-48.7902674,-25.1281975],[-48.7965003,-25.1287849],[-48.8034335,-25.1332159],[-48.8115323,-25.1332891],[-48.8184326,-25.1319956],[-48.8196936,-25.132261],[-48.8230921,-25.1367066],[-48.8277031,-25.1398024],[-48.8284573,-25.1458656],[-48.8299598,-25.1480302],[-48.8361875,-25.1515431],[-48.8384079,-25.1539649],[-48.8400692,-25.1572874],[-48.8456211,-25.1632616],[-48.8449229,-25.1694887],[-48.8394253,-25.1759587],[-48.8392927,-25.1783464],[-48.8445766,-25.1866659],[-48.8451558,-25.189552],[-48.8435193,-25.1901938],[-48.8395572,-25.189478],[-48.838005,-25.1897004],[-48.8333283,-25.1932994],[-48.831375,-25.1963098],[-48.8297975,-25.2008305],[-48.829916,-25.216999],[-48.8293947,-25.2183782],[-48.8270937,-25.2204867],[-48.8206548,-25.2223489],[-48.8193647,-25.223567],[-48.8235591,-25.2283054],[-48.8244364,-25.2304519],[-48.8258744,-25.2319049],[-48.8302066,-25.2325873],[-48.8291072,-25.2375028],[-48.8296766,-25.2420632],[-48.8319379,-25.2448586],[-48.8348916,-25.2466723],[-48.8339567,-25.2496505],[-48.8311835,-25.252995],[-48.8323557,-25.2543054],[-48.8348819,-25.254796],[-48.836048,-25.2555957],[-48.8366006,-25.2579794],[-48.838401,-25.2593999],[-48.8401191,-25.263399],[-48.8374091,-25.269229],[-48.8382058,-25.2729078],[-48.8365765,-25.2769324],[-48.8344577,-25.2788879],[-48.8340283,-25.2813732],[-48.8315163,-25.2850022],[-48.8317568,-25.2867772],[-48.8328353,-25.2885444],[-48.833264,-25.2924634],[-48.8357845,-25.2945809],[-48.8351857,-25.2950642],[-48.8334769,-25.2944229],[-48.8324079,-25.2946746],[-48.8310314,-25.2958474],[-48.8308392,-25.2964655],[-48.8315419,-25.2970474],[-48.8320209,-25.2987055],[-48.8305654,-25.3029512],[-48.8315874,-25.3039926],[-48.8336744,-25.3041088],[-48.8378983,-25.3069079],[-48.8417418,-25.3074598],[-48.8439127,-25.3084557],[-48.8448849,-25.3099968],[-48.8557237,-25.305487],[-48.8593793,-25.3047713],[-48.8614521,-25.3054593],[-48.8669677,-25.3010561],[-48.8726413,-25.2975882],[-48.8739097,-25.2961861],[-48.879124,-25.293254],[-48.882142,-25.2928236],[-48.8844939,-25.2902766],[-48.8868564,-25.2913038],[-48.8888081,-25.2911335],[-48.8904147,-25.2926756],[-48.8934305,-25.2933839],[-48.894662,-25.2956262],[-48.8980609,-25.2953058],[-48.9045005,-25.3022901],[-48.9024927,-25.3063989],[-48.9056988,-25.3093332],[-48.9042746,-25.3105906],[-48.9028606,-25.3141157],[-48.9043802,-25.3148749],[-48.9053022,-25.3166581],[-48.9017138,-25.31982],[-48.9015407,-25.3220012],[-48.9027481,-25.3257238],[-48.905716,-25.3295153],[-48.906318402809134,-25.332751974967103],[-48.9028091,-25.3326521],[-48.8996169,-25.3358321],[-48.8992126,-25.3371517],[-48.8995754,-25.3381925],[-48.9012571,-25.339947],[-48.9008374,-25.3421286],[-48.8992066,-25.3449303],[-48.8989925,-25.3463104],[-48.8997067,-25.3489725],[-48.901763,-25.3505463],[-48.905872,-25.3515363],[-48.9077517,-25.3527735],[-48.9077854,-25.3545035],[-48.9066145,-25.3562721],[-48.9067369,-25.3570282],[-48.9087694,-25.359932],[-48.9113241,-25.3621676],[-48.9126104,-25.3686879],[-48.9133014,-25.369044],[-48.9138947,-25.3677255],[-48.915171,-25.3672841],[-48.9146408,-25.3685436],[-48.9147341,-25.370562],[-48.9173855,-25.3748629],[-48.9190192,-25.3794385],[-48.9224779,-25.3809271],[-48.9276214,-25.3841665],[-48.9295662,-25.3814896],[-48.9307229,-25.380583],[-48.9314186,-25.3807096],[-48.931849,-25.3815213],[-48.9363636,-25.3843506],[-48.9368881,-25.3871231],[-48.9424737,-25.3866268],[-48.944172,-25.3875125],[-48.9447834,-25.3887311],[-48.9431074,-25.3903819],[-48.9430182,-25.3919933],[-48.9463169,-25.3954958],[-48.9497018,-25.401535],[-48.949694,-25.4020561],[-48.9477842,-25.4024896],[-48.947173,-25.4049566],[-48.9484648,-25.4072224],[-48.9516878,-25.4079019],[-48.9535036,-25.4090788],[-48.9544165,-25.4113955],[-48.9538747,-25.4134633],[-48.9507769,-25.416237],[-48.9487404,-25.4170803],[-48.9487977,-25.4175424],[-48.956096,-25.4207549],[-48.9598878,-25.4253591],[-48.9642315,-25.4272068],[-48.9674789,-25.4265028],[-48.9689802,-25.4274528],[-48.9691312,-25.4300397],[-48.9667189,-25.4301806],[-48.9657552,-25.4309149],[-48.9652024,-25.4335578],[-48.9623615,-25.4403755],[-48.9628882,-25.4512182],[-48.9589398,-25.4531821],[-48.9566059,-25.4551031],[-48.953884,-25.4549261],[-48.9531486,-25.4558329],[-48.9537,-25.4568063],[-48.9558273,-25.458021],[-48.9561952,-25.4589323],[-48.9559117,-25.4598338],[-48.9507793,-25.4638766],[-48.9502149,-25.4653331],[-48.9512387,-25.4702101],[-48.9450841,-25.4736961],[-48.9434446,-25.4754164],[-48.9409814,-25.4757991],[-48.9434909,-25.4771595],[-48.9452667,-25.4787882],[-48.9456989,-25.4804671],[-48.9469982,-25.4807639],[-48.947523,-25.4815392],[-48.947491,-25.4857217],[-48.9488622,-25.4862992],[-48.9533585,-25.4837125],[-48.9551582,-25.4839444],[-48.9562089,-25.4854248],[-48.9555407,-25.4886219],[-48.9563237,-25.4898879],[-48.9611954,-25.4925348],[-48.9626298,-25.4915799],[-48.9641628,-25.4917404],[-48.9655152,-25.4980334],[-48.9670646,-25.4995209],[-48.9658104,-25.5011637],[-48.9658289,-25.5022458],[-48.9681548,-25.5043497],[-48.9751134,-25.5089127],[-48.972205,-25.5109339],[-48.9706556,-25.5130898],[-48.9712011,-25.515665],[-48.9735369,-25.5192793],[-48.9716647,-25.520629],[-48.9701638,-25.5226443],[-48.9653318,-25.5223735],[-48.9645323,-25.5229467],[-48.9646544,-25.5259279],[-48.9633335,-25.5280627],[-48.9632458,-25.5303487],[-48.9615565,-25.5324105],[-48.9625005,-25.5350237],[-48.9614121,-25.5383541],[-48.9669497,-25.5421927],[-48.9700148,-25.5434243],[-48.9728419,-25.5457525],[-48.9715645,-25.5500572],[-48.9719557,-25.5512268],[-48.9716334,-25.5529096],[-48.9726881,-25.5547629],[-48.9713105,-25.5573893],[-48.9697788,-25.5589135],[-48.9653904,-25.5583588],[-48.9655091,-25.5616118],[-48.9675851,-25.564379],[-48.9708481,-25.5656993],[-48.9705743,-25.5672199],[-48.9694198,-25.568414],[-48.9701471,-25.5706901],[-48.9729056,-25.5712214],[-48.9746003,-25.5730165],[-48.9727285,-25.5759267],[-48.9635447,-25.5769408],[-48.9589758,-25.5826397],[-48.956938,-25.5837745],[-48.9554727,-25.5838232],[-48.953776,-25.5819612],[-48.9488962,-25.5797645],[-48.9455296,-25.5801186],[-48.9422654,-25.5814478],[-48.9406035,-25.5836578],[-48.9395203,-25.5862903],[-48.9410312,-25.5932175],[-48.9368086,-25.5974624],[-48.9360912,-25.5989306],[-48.9360107,-25.6021811],[-48.9362497,-25.6026792],[-48.9396012,-25.6031695],[-48.9397651,-25.6008664],[-48.9409007,-25.5980592],[-48.9437977,-25.59437],[-48.9448796,-25.5937761],[-48.947406,-25.5947195],[-48.9518283,-25.5977173],[-48.9566439,-25.5977614],[-48.9585634,-25.6011078],[-48.9575929,-25.6045242],[-48.9582385,-25.6072244],[-48.9571306,-25.6098769],[-48.957895,-25.6114115],[-48.9596877,-25.6131075],[-48.9590952,-25.6149493],[-48.9580882,-25.6160547],[-48.9584327,-25.619021],[-48.9558568,-25.6207099],[-48.9563255,-25.6222856],[-48.9541805,-25.6248349],[-48.9560736,-25.6270144],[-48.9579375,-25.6277575],[-48.9583577,-25.6307003],[-48.9576211,-25.6303751],[-48.9557184,-25.6318296],[-48.9554373,-25.6331094],[-48.9575256,-25.6317423],[-48.9582605,-25.6344051],[-48.9558081,-25.6365124],[-48.9566127,-25.6374001],[-48.9563605,-25.637711],[-48.9540025,-25.6382845],[-48.9534068,-25.6412805],[-48.9513853,-25.6409848],[-48.9509004,-25.6418506],[-48.9546377,-25.642933],[-48.9543688,-25.6442762],[-48.9548704,-25.6454263],[-48.9625653,-25.6535379],[-48.9619146,-25.6555236],[-48.9627387,-25.6565227],[-48.9610896,-25.6575303],[-48.9606645,-25.6593175],[-48.9635665,-25.6616227],[-48.9636555,-25.6622065],[-48.962401,-25.6633106],[-48.964263,-25.6643247],[-48.9657598,-25.6620358],[-48.9666564,-25.6616893],[-48.969742,-25.664848],[-48.9694242,-25.6660996],[-48.9681286,-25.6666638],[-48.9678501,-25.6685443],[-48.9665314,-25.669042],[-48.9657691,-25.6732012],[-48.9639138,-25.6760225],[-48.9659725,-25.6800869],[-48.9656974,-25.6817424],[-48.964657,-25.6833203],[-48.9683889,-25.6849408],[-48.9678276,-25.6873312],[-48.9661518,-25.6898633],[-48.9665748,-25.6927189],[-48.9691112,-25.6947269],[-48.9684927,-25.6977888],[-48.965658,-25.6986458],[-48.9654316,-25.7003021],[-48.9657527,-25.7017431],[-48.9681929,-25.7051616],[-48.9720561,-25.7076826],[-48.9723511,-25.7093667],[-48.9710296,-25.7114572],[-48.9724085,-25.7147032],[-48.9735049,-25.7156828],[-48.9764612,-25.7163526],[-48.9779732,-25.7176725],[-48.9759858,-25.7196861],[-48.9765385,-25.7220716],[-48.9753274,-25.7248998],[-48.9713677,-25.7281323],[-48.9694401,-25.7279417],[-48.9665447,-25.7300976],[-48.9646638,-25.7302886],[-48.963643,-25.7339381],[-48.962334,-25.7360037],[-48.9613912,-25.7361747],[-48.9581293,-25.7349645],[-48.954159,-25.732605],[-48.9490955,-25.726912],[-48.948296,-25.7271167],[-48.9449688,-25.7314778],[-48.9426802,-25.7378423],[-48.9386713,-25.7426235],[-48.9319213,-25.7474436],[-48.9265611,-25.7473025],[-48.9236951,-25.7497224],[-48.9194767,-25.7519006],[-48.9146526,-25.751929],[-48.9134226,-25.7528901],[-48.9111235,-25.7569736],[-48.9091052,-25.7575857],[-48.9026088,-25.757785],[-48.9013602,-25.7585698],[-48.9004989,-25.7606512],[-48.8953095,-25.7614206],[-48.8901666,-25.7595254],[-48.8841408,-25.7591667],[-48.8828304,-25.7597853],[-48.8805667,-25.7634327],[-48.8754791,-25.7601865],[-48.8743654,-25.7561407],[-48.8728098,-25.7562895],[-48.871569,-25.75828],[-48.8715809,-25.7594851],[-48.8733007,-25.7630516],[-48.8687961,-25.7665589],[-48.8699971,-25.7699632],[-48.8688712,-25.7720827],[-48.8704339,-25.7749199],[-48.8692856,-25.7773034],[-48.8658721,-25.7795991],[-48.8619962,-25.7874238],[-48.858873,-25.7910711],[-48.8562787,-25.792639],[-48.8522281,-25.7968396],[-48.8459221,-25.7979089],[-48.8429213,-25.7974066],[-48.8425611,-25.7979107],[-48.8496414,-25.8043051],[-48.8522922,-25.8047156],[-48.8553504,-25.806501],[-48.8577783,-25.8087412],[-48.8628801,-25.8059903],[-48.8638261,-25.8043985],[-48.8688072,-25.808387],[-48.8785581,-25.8122603],[-48.8805127,-25.8109982],[-48.8825206,-25.8111839],[-48.8841843,-25.8103482],[-48.885627,-25.8107041],[-48.8866105,-25.8127348],[-48.8847007,-25.814185],[-48.8845592,-25.8150138],[-48.8883252,-25.8161174],[-48.891073,-25.8192679],[-48.8942712,-25.8205109],[-48.9003415,-25.8209972],[-48.9016926,-25.8197245],[-48.9043962,-25.8191005],[-48.9061982,-25.8175517],[-48.9066021,-25.813441],[-48.9071201,-25.8129044],[-48.9085492,-25.813626],[-48.9097159,-25.8120658],[-48.9122829,-25.8120141],[-48.9129808,-25.8108427],[-48.9146616,-25.8126094],[-48.9163772,-25.8124919],[-48.9207038,-25.8105006],[-48.9232105,-25.8129344],[-48.9223468,-25.8154418],[-48.9232822,-25.8179335],[-48.9275842,-25.8187406],[-48.930714,-25.8204712],[-48.9318275,-25.8202001],[-48.9334735,-25.8184168],[-48.9344603,-25.8182576],[-48.9350954,-25.8189991],[-48.934645,-25.82123],[-48.9391834,-25.8230274],[-48.9409735,-25.8225682],[-48.9428311,-25.8228929],[-48.9462073,-25.8219601],[-48.9478734,-25.8237126],[-48.9483222,-25.8263719],[-48.9514963,-25.8278236],[-48.9529099,-25.8294349],[-48.9554016,-25.8301308],[-48.9578444,-25.8317434],[-48.9627503,-25.830919],[-48.9643432,-25.8296531],[-48.9643873,-25.8289657],[-48.9629905,-25.8273299],[-48.9625171,-25.8243726],[-48.9642152,-25.8230689],[-48.9684682,-25.8242658],[-48.9713934,-25.8229017],[-48.9733466,-25.8247169],[-48.9753734,-25.8247715],[-48.9765994,-25.8271694],[-48.9806549,-25.8262673],[-48.981672,-25.8278953],[-48.9837244,-25.8272726],[-48.9849494,-25.8279748],[-48.9897668,-25.8217164],[-48.9932479,-25.8206303],[-48.9936592,-25.8224725],[-48.9951891,-25.8218614],[-48.9943358,-25.8189955],[-48.9926097,-25.8161896],[-48.9902425,-25.8147927],[-48.9904113,-25.8140799],[-48.9921666,-25.8133009],[-48.9915744,-25.8118425],[-48.9924587,-25.8111309],[-48.9899715,-25.8091246],[-48.9910781,-25.8083477],[-48.9942037,-25.8089386],[-48.9959429,-25.8044166],[-48.9994319,-25.8023679],[-48.9992063,-25.8016353],[-48.9976052,-25.8007222],[-48.9978951,-25.7985754],[-49.0004483,-25.7983946],[-49.0027723,-25.7954738],[-49.0028341,-25.7930778],[-49.001748,-25.7934918],[-49.0008372,-25.7931067],[-49.0016213,-25.7914271],[-49.0018722,-25.7889467],[-49.0021691,-25.7882923],[-49.0052556,-25.7864538],[-49.0099286,-25.7867956],[-49.0115223,-25.7877876],[-49.0121834,-25.7897481],[-49.0136923,-25.7905994],[-49.0143245,-25.7904652],[-49.0140909,-25.789373],[-49.014651,-25.7890787],[-49.0148598,-25.7900008],[-49.0171261,-25.7916596],[-49.0182571,-25.7961027],[-49.0211658,-25.7973168],[-49.0219901,-25.7966696],[-49.0219706,-25.7936792],[-49.0231741,-25.7935348],[-49.0275281,-25.7943776],[-49.0305823,-25.796697],[-49.0314173,-25.7979421],[-49.0329938,-25.7984217],[-49.0335778,-25.7974835],[-49.0321464,-25.7950843],[-49.0328871,-25.7939776],[-49.0342863,-25.7939217],[-49.0338976,-25.7925982],[-49.0362368,-25.790032],[-49.0407593,-25.7912836],[-49.0431888,-25.7909286],[-49.04397,-25.7915981],[-49.0458522,-25.7906787],[-49.0469818,-25.7921381],[-49.0481554,-25.7917024],[-49.0473852,-25.7910297],[-49.0479999,-25.7904031],[-49.0503204,-25.7914175],[-49.0501751,-25.7936631],[-49.0495395,-25.793854],[-49.0483174,-25.7930345],[-49.0485271,-25.7941321],[-49.0497455,-25.7957369],[-49.0518526,-25.796654],[-49.0532816,-25.7933659],[-49.0553704,-25.7936439],[-49.056566,-25.7921976],[-49.0568627,-25.7905813],[-49.0585783,-25.7918921],[-49.0592297,-25.791101],[-49.0597965,-25.7911958],[-49.0615762,-25.7959372],[-49.0630191,-25.796729],[-49.065285,-25.7963464],[-49.0665794,-25.7968225],[-49.0675067,-25.7962604],[-49.0700124,-25.797026],[-49.0719115,-25.7949738],[-49.0743363,-25.7952836],[-49.0750783,-25.7942082],[-49.075434,-25.7920273],[-49.0736502,-25.7909161],[-49.0721145,-25.7885587],[-49.0739083,-25.7860572],[-49.0778265,-25.7850395],[-49.0791372,-25.7839634],[-49.0796301,-25.7800526],[-49.0807193,-25.777719],[-49.0794427,-25.7757542],[-49.0788412,-25.7718938],[-49.0800264,-25.7711926],[-49.0803632,-25.7698738],[-49.0796842,-25.7658353],[-49.0798377,-25.7620481],[-49.0777433,-25.7600818],[-49.0787727,-25.7553038],[-49.0783621,-25.7536537],[-49.0795802,-25.7507733],[-49.0836481,-25.7495567],[-49.0852422,-25.7467691],[-49.0847297,-25.7450002],[-49.0821893,-25.7411358],[-49.08053,-25.7404757],[-49.0813966,-25.7403319],[-49.0841246,-25.7414144],[-49.087688,-25.7443703],[-49.0892836,-25.7450273],[-49.0930371,-25.7461325],[-49.0961071,-25.7457664],[-49.1051178,-25.7495694],[-49.1073198,-25.7478753],[-49.1087795,-25.7452882],[-49.1096233,-25.7459684],[-49.1128283,-25.7467116],[-49.1173114,-25.745644],[-49.1191183,-25.7468445],[-49.1189011,-25.7479099],[-49.1197865,-25.7489878],[-49.1212686,-25.7489419],[-49.1215414,-25.7500011],[-49.1249193,-25.7489341],[-49.125578,-25.750144],[-49.1252332,-25.7509161],[-49.1256191,-25.7518215],[-49.1287914,-25.7522966],[-49.1302191,-25.7546543],[-49.1329076,-25.7547179],[-49.1330678,-25.7537019],[-49.1339288,-25.7532821],[-49.1336412,-25.7513857],[-49.1352237,-25.7511755],[-49.1356848,-25.7496283],[-49.1378887,-25.7478536],[-49.1372254,-25.7471939],[-49.1381828,-25.7457532],[-49.1371785,-25.7450686],[-49.1373874,-25.7437868],[-49.1406781,-25.7429426],[-49.1421812,-25.7457296],[-49.1412975,-25.7478347],[-49.1423918,-25.7504253],[-49.1442827,-25.7509178],[-49.144665,-25.7518401],[-49.1451948,-25.7513462],[-49.1455797,-25.7521092],[-49.1470458,-25.752502],[-49.1479463,-25.7537802],[-49.1477966,-25.7556188],[-49.1485023,-25.7576138],[-49.1533084,-25.7617254],[-49.1551195,-25.7647973],[-49.1547735,-25.7675886],[-49.1553819,-25.7694308],[-49.1545505,-25.772994],[-49.1536405,-25.773515],[-49.1534395,-25.7742864],[-49.1537304,-25.7758398],[-49.1547611,-25.7767423],[-49.1561157,-25.7762297],[-49.1592351,-25.777387],[-49.1618751,-25.7797613],[-49.1621266,-25.7819168],[-49.1611586,-25.7830528],[-49.1609198,-25.7852686],[-49.1612454,-25.7874932],[-49.162126,-25.7874765],[-49.1623074,-25.7894189],[-49.1632024,-25.7902528],[-49.1627768,-25.7910511],[-49.1640609,-25.7921312],[-49.1639852,-25.793894],[-49.1631156,-25.7948883],[-49.1639704,-25.7967377],[-49.1634185,-25.7983352],[-49.1662816,-25.7991596],[-49.1659916,-25.8011612],[-49.1669271,-25.8024],[-49.1661708,-25.8030612],[-49.1638715,-25.8035091],[-49.1629444,-25.8054732],[-49.1636395,-25.8085729],[-49.1647682,-25.8087671],[-49.1644072,-25.8097431],[-49.1651198,-25.8106719],[-49.1645058,-25.8116107],[-49.1652974,-25.8116775],[-49.1649831,-25.8124632],[-49.1656472,-25.8125006],[-49.1656366,-25.8132748],[-49.1670579,-25.813638],[-49.1674429,-25.8149676],[-49.1695196,-25.8136899],[-49.1702513,-25.8139321],[-49.1710843,-25.8134455],[-49.1710345,-25.8144264],[-49.1715051,-25.8145105],[-49.172248,-25.8137641],[-49.1733917,-25.8138597],[-49.1752899,-25.8119627],[-49.1756382,-25.8130694],[-49.1756634,-25.8114644],[-49.1764588,-25.8112421],[-49.1769257,-25.8096715],[-49.1794477,-25.8093443],[-49.1802292,-25.808184],[-49.1819803,-25.8077951],[-49.1841567,-25.805084],[-49.1847273,-25.8052128],[-49.1849605,-25.8066714],[-49.1863454,-25.8071189],[-49.1869196,-25.8058508],[-49.1879558,-25.8064083],[-49.1882888,-25.805379],[-49.1879184,-25.8047435],[-49.1908503,-25.8047646],[-49.1917421,-25.8043752],[-49.1920125,-25.8033151],[-49.192899,-25.8041189],[-49.1934198,-25.8037749],[-49.1934333,-25.8046265],[-49.1950672,-25.8050343],[-49.1967016,-25.8065175],[-49.19679,-25.8080831],[-49.1994573,-25.8077143],[-49.1995705,-25.8085179],[-49.2009693,-25.8082766],[-49.2023578,-25.8093527],[-49.2027039,-25.8119292],[-49.2011928,-25.8123559],[-49.2019989,-25.8135714],[-49.2013255,-25.8140842],[-49.2020798,-25.8145819],[-49.2014626,-25.8154595],[-49.2024249,-25.8157731],[-49.2027613,-25.8174027],[-49.2045327,-25.8168314],[-49.2033698,-25.8213371],[-49.2048758,-25.822227],[-49.2043582,-25.8228359],[-49.2052114,-25.8236782],[-49.204524,-25.8244887],[-49.205186,-25.824678],[-49.2063433,-25.8238731],[-49.2062313,-25.8249898],[-49.2072222,-25.8245478],[-49.2084745,-25.8254185],[-49.2078033,-25.825137],[-49.2073576,-25.8261149],[-49.2065275,-25.8258858],[-49.2061077,-25.8264467],[-49.2072583,-25.8272402],[-49.2052382,-25.8269945],[-49.2066334,-25.8279843],[-49.2067572,-25.8291449],[-49.2077955,-25.8290637],[-49.2077944,-25.8303769],[-49.2066243,-25.8314741],[-49.2074515,-25.8322949],[-49.2057134,-25.8323061],[-49.2065564,-25.8334021],[-49.2085348,-25.8341643],[-49.2070904,-25.8355281],[-49.2068853,-25.8372462],[-49.2089914,-25.8371191],[-49.2080094,-25.8380803],[-49.2082256,-25.8392042],[-49.2076261,-25.8398123],[-49.2089859,-25.8401984],[-49.2077959,-25.8410698],[-49.2071467,-25.8436748],[-49.2090547,-25.8437367],[-49.2117741,-25.845904],[-49.212434,-25.8454051],[-49.2122642,-25.846547],[-49.213568,-25.8468889],[-49.2128547,-25.8478688],[-49.213075,-25.8491379],[-49.2145801,-25.8499359],[-49.2162029,-25.8499171],[-49.2176911,-25.8510865],[-49.2163241,-25.8513928],[-49.215975,-25.8525487],[-49.2144197,-25.8524012],[-49.2145376,-25.8533147],[-49.2135552,-25.8537373],[-49.2132049,-25.8519793],[-49.2124299,-25.8529041],[-49.2122148,-25.8543741],[-49.2116886,-25.8542298],[-49.2117051,-25.8533008],[-49.2110934,-25.8547038],[-49.2100328,-25.8548148],[-49.2099204,-25.8558181],[-49.2107984,-25.8558803],[-49.2104643,-25.8566367],[-49.2119996,-25.8570105],[-49.2106916,-25.8575601],[-49.2093164,-25.8608357],[-49.2084341,-25.8610525],[-49.2090776,-25.8618528],[-49.2079729,-25.8625838],[-49.2077379,-25.8650628],[-49.2099801,-25.8659797],[-49.2098337,-25.8668359],[-49.2105666,-25.8670059],[-49.2089704,-25.868236],[-49.2083504,-25.8694702],[-49.2095041,-25.8702963],[-49.2101775,-25.8701122],[-49.2099278,-25.8695221],[-49.2104207,-25.8690097],[-49.2112404,-25.8691826],[-49.2109599,-25.8697507],[-49.212222,-25.8706361],[-49.2118033,-25.871759],[-49.2123806,-25.8726427],[-49.2140259,-25.8723464],[-49.2152985,-25.8731719],[-49.2161723,-25.8723513],[-49.2170399,-25.8732436],[-49.2175617,-25.8730545],[-49.2169159,-25.8748553],[-49.2180911,-25.8758207],[-49.2175156,-25.8767439],[-49.2189304,-25.876794],[-49.2177982,-25.8778809],[-49.2193327,-25.8780079],[-49.2203982,-25.8798866],[-49.2213738,-25.8799583],[-49.2213369,-25.8811703],[-49.2233057,-25.8814223],[-49.2257411,-25.880924],[-49.2260031,-25.8825503],[-49.2276083,-25.8819391],[-49.2300811,-25.8823986],[-49.2311292,-25.8818592],[-49.232178,-25.8824709],[-49.232823,-25.8837116],[-49.2348416,-25.8828284],[-49.2364582,-25.8832489],[-49.2369894,-25.885037],[-49.2379085,-25.8853986],[-49.2384001,-25.8850913],[-49.238056,-25.8838893],[-49.2402229,-25.8838369],[-49.2399105,-25.8849273],[-49.2410771,-25.8847448],[-49.2415649,-25.8856759],[-49.2431403,-25.8858562],[-49.2443249,-25.8869416],[-49.2441481,-25.8879617],[-49.2459609,-25.8884488],[-49.2469486,-25.8893656],[-49.248366,-25.8892543],[-49.2528812,-25.892548],[-49.254162,-25.8941003],[-49.2552377,-25.8936715],[-49.2532036,-25.8918785],[-49.2554478,-25.8921409],[-49.2552114,-25.8929339],[-49.2564092,-25.8935926],[-49.2563052,-25.894744],[-49.2575554,-25.8950676],[-49.2564961,-25.8959608],[-49.2574566,-25.8963128],[-49.2563873,-25.8983261],[-49.2566217,-25.8994804],[-49.2558659,-25.9003222],[-49.2563793,-25.9006695],[-49.2552451,-25.9010621],[-49.2568471,-25.9016305],[-49.2558759,-25.9020915],[-49.2554174,-25.9033898],[-49.2575424,-25.9034177],[-49.2579586,-25.904795],[-49.2622383,-25.904486],[-49.2637714,-25.9037091],[-49.266085,-25.9054643],[-49.26643,-25.9063285],[-49.2648801,-25.9069256],[-49.2628584,-25.9062112],[-49.2625575,-25.9070661],[-49.2604801,-25.9069948],[-49.2592559,-25.9085834],[-49.2597291,-25.908887],[-49.2608628,-25.9083854],[-49.260017,-25.9099791],[-49.2611843,-25.910581],[-49.2574303,-25.9130679],[-49.2590685,-25.9189913],[-49.2586107,-25.920296],[-49.261485,-25.9251879],[-49.2620944,-25.9252104],[-49.2628497,-25.9237597],[-49.2638859,-25.923326],[-49.2683019,-25.9238959],[-49.2696116,-25.9235909],[-49.2719524,-25.9211793],[-49.2722869,-25.9236312],[-49.2717741,-25.9246638],[-49.2798412,-25.9275284],[-49.2834473,-25.92775],[-49.2840426,-25.9273487],[-49.2841215,-25.9263721],[-49.2854789,-25.9265982],[-49.2896763,-25.9252886],[-49.2906123,-25.9241075],[-49.2938581,-25.9235668],[-49.2947076,-25.9251842],[-49.2970139,-25.9254867],[-49.2958465,-25.9275891],[-49.2962317,-25.9292067],[-49.2999204,-25.9276507],[-49.2970012,-25.9315303],[-49.3001657,-25.9324101],[-49.2991794,-25.9338762],[-49.2994658,-25.935568],[-49.3022997,-25.9365974],[-49.3037113,-25.9379266],[-49.302897,-25.9404701],[-49.3039102,-25.9422999],[-49.3039606,-25.9438698],[-49.3056423,-25.945269],[-49.3092317,-25.9426025],[-49.3113246,-25.9448914],[-49.3126098,-25.9452329],[-49.3143132,-25.9486288],[-49.3156719,-25.9484276],[-49.3167679,-25.9473685],[-49.3181045,-25.9472702],[-49.3192449,-25.9480123],[-49.3179081,-25.9492996],[-49.3185887,-25.9504025],[-49.3205631,-25.9493879],[-49.3216367,-25.9495721],[-49.3225829,-25.9513113],[-49.3244395,-25.9519836],[-49.3248637,-25.9500237],[-49.3254217,-25.9501615],[-49.3252114,-25.9511095],[-49.3271834,-25.9508352],[-49.3266395,-25.9514005],[-49.327334,-25.9522786],[-49.3270835,-25.9531065],[-49.3246584,-25.9539985],[-49.3245183,-25.9551911],[-49.3282051,-25.9561701],[-49.3298376,-25.9549084],[-49.3332748,-25.9551252],[-49.3337281,-25.9553623],[-49.3335723,-25.956068],[-49.335531,-25.9558022],[-49.3373327,-25.9571608],[-49.3383634,-25.9551437],[-49.3405262,-25.9540359],[-49.3399299,-25.9536258],[-49.3425225,-25.9533217],[-49.3431346,-25.9539881],[-49.3439494,-25.9531386],[-49.3444412,-25.9538165],[-49.3441413,-25.9525539],[-49.3447895,-25.9515442],[-49.3452017,-25.9517078],[-49.3451619,-25.9529199],[-49.3456995,-25.9520553],[-49.3465105,-25.9519606],[-49.3471031,-25.9527678],[-49.3469433,-25.9540345],[-49.3476978,-25.954129],[-49.3476332,-25.955034],[-49.3492048,-25.9556402],[-49.3492681,-25.9563691],[-49.3520419,-25.9544051],[-49.3526509,-25.9546948],[-49.3519366,-25.9551521],[-49.3521028,-25.9555736],[-49.3533033,-25.9552544],[-49.353519,-25.9540371],[-49.3545111,-25.9535789],[-49.3545014,-25.9543091],[-49.3565805,-25.9541549],[-49.3567489,-25.9534036],[-49.3571648,-25.954515],[-49.3578598,-25.9544463]],[[-49.5984834,-25.6063733],[-49.5990601,-25.6058311],[-49.5999134,-25.6058387],[-49.5984834,-25.6063733]],[[-49.2251121,-25.2307327],[-49.2261208,-25.2313993],[-49.2236491155398,-25.23061831544971],[-49.2251121,-25.2307327]],[[-49.250311592706744,-25.234191143208427],[-49.2495176,-25.2342482],[-49.2452408,-25.2335754],[-49.250311592706744,-25.234191143208427]],[[-49.2683093,-25.2555085],[-49.2529155,-25.2826319],[-49.268091274403055,-25.25521464919545],[-49.2683093,-25.2555085]],[[-49.2554526,-25.2936291],[-49.254623137378346,-25.293560001982915],[-49.2564617,-25.2929797],[-49.2554526,-25.2936291]],[[-49.25372916909169,-25.29413291314825],[-49.2538203,-25.2938134],[-49.25411848866119,-25.293719283286578],[-49.25372916909169,-25.29413291314825]],[[-49.2535011,-25.2961927],[-49.2527201,-25.2976708],[-49.253448488806086,-25.295117003435195],[-49.2535011,-25.2961927]],[[-49.2598309,-25.3043844],[-49.259010314188934,-25.309767280375848],[-49.259631217589515,-25.304205089890175],[-49.2598309,-25.3043844]],[[-49.258902,-25.3104778],[-49.2571437,-25.3141843],[-49.25890678952205,-25.31044638168409],[-49.258902,-25.3104778]],[[-49.2526423,-25.3220908],[-49.253498,-25.3195736],[-49.2553485,-25.3171185],[-49.2526423,-25.3220908]],[[-49.2322328,-25.3464678],[-49.230778,-25.347579],[-49.23222224800445,-25.34634940101549],[-49.2322328,-25.3464678]],[[-49.2419381,-25.3495473],[-49.24131,-25.3511768],[-49.24119427454199,-25.35117461991721],[-49.2419381,-25.3495473]],[[-49.31555789176562,-25.378644937334215],[-49.3152005,-25.379335],[-49.31332253195908,-25.380994027682146],[-49.31555789176562,-25.378644937334215]],[[-49.326109385855524,-25.368167010152234],[-49.3258831,-25.368395],[-49.3233509,-25.369255],[-49.326109385855524,-25.368167010152234]],[[-49.326956305653354,-25.367258260087546],[-49.3269322,-25.367338],[-49.326693589092024,-25.367578407711115],[-49.326956305653354,-25.367258260087546]],[[-49.3292509,-25.360073],[-49.3326659,-25.357682],[-49.329189376065386,-25.360274635973145],[-49.3292509,-25.360073]],[[-49.333815,-25.35569],[-49.33408371409686,-25.355540121080754],[-49.3326659,-25.357682],[-49.333815,-25.35569]],[[-49.3398147,-25.3488614],[-49.3413388,-25.3507949],[-49.34013569329712,-25.34957866629597],[-49.3398147,-25.3488614]],[[-49.34927234045725,-25.37740563361954],[-49.3482227,-25.3765987],[-49.34785,-25.3759483],[-49.34927234045725,-25.37740563361954]],[[-49.3782749,-25.4089501],[-49.37813911515931,-25.409196763272664],[-49.3754575,-25.408923],[-49.3782749,-25.4089501]],[[-49.3862399,-25.462633],[-49.386304421429664,-25.463197080452886],[-49.3856964,-25.4623259],[-49.3862399,-25.462633]],[[-49.3863704,-25.4637739],[-49.38574295552977,-25.463771756169074],[-49.386335262239086,-25.463466707115497],[-49.3863704,-25.4637739]],[[-49.3752313,-25.5132193],[-49.367337,-25.5180089],[-49.374463,-25.5134239],[-49.3752313,-25.5132193]],[[-49.3658508,-25.6336657],[-49.365751532534,-25.633732718864234],[-49.365763635852375,-25.63357523388967],[-49.3658508,-25.6336657]],[[-49.3599164,-25.6431647],[-49.3576144,-25.6437361],[-49.365837,-25.641296],[-49.3599164,-25.6431647]],[[-49.3557718,-25.6453585],[-49.35542807369435,-25.645282459638644],[-49.3576144,-25.6437361],[-49.3557718,-25.6453585]],[[-49.356061,-25.6731098],[-49.3559157082528,-25.67324020877764],[-49.3557072,-25.6722888],[-49.356061,-25.6731098]],[[-49.35512201292976,-25.673952601868724],[-49.3551731,-25.6734915],[-49.3538527,-25.6736657],[-49.355767019618064,-25.673373666482423],[-49.35512201292976,-25.673952601868724]],[[-49.3394343,-25.6964682],[-49.3392566,-25.6956581],[-49.3397817,-25.6946687],[-49.3394343,-25.6964682]],[[-49.3226223,-25.7196865],[-49.32217306850551,-25.719626947102228],[-49.323638,-25.7188047],[-49.3226223,-25.7196865]],[[-49.3141982,-25.7220639],[-49.3129567,-25.7229275],[-49.3142395,-25.7219549],[-49.3146914,-25.7207763],[-49.3141982,-25.7220639]],[[-49.246011,-25.7557912],[-49.245038,-25.752453],[-49.2455214,-25.7540378],[-49.246011,-25.7557912]],[[-49.24892263861429,-25.767572400506126],[-49.2500296,-25.7695958],[-49.2498866201399,-25.770179767876627],[-49.24892263861429,-25.767572400506126]],[[-49.736051,-25.3627459],[-49.7368983,-25.3621973],[-49.7355011,-25.3638555],[-49.736051,-25.3627459]],[[-49.736309964067665,-25.366506054100732],[-49.7359404,-25.3659488],[-49.7355011,-25.3638555],[-49.736309964067665,-25.366506054100732]],[[-49.6403774,-25.4611703],[-49.64128422516951,-25.46189632774792],[-49.6380504,-25.4603427],[-49.6403774,-25.4611703]],[[-49.6216207,-25.4589031],[-49.6230297,-25.4598569],[-49.6210842,-25.4589683],[-49.6216207,-25.4589031]],[[-49.5638147,-25.5463465],[-49.5645694,-25.5456413],[-49.5634321,-25.5470539],[-49.5638147,-25.5463465]],[[-49.56374650495537,-25.548240280021215],[-49.5644676,-25.5479438],[-49.56374758461842,-25.548240857469725],[-49.56374650495537,-25.548240280021215]],[[-49.3848739,-25.50159],[-49.38513824431258,-25.50142528753414],[-49.38345766002626,-25.50417800570944],[-49.3848739,-25.50159]],[[-49.3824895,-25.5059472],[-49.382783295562675,-25.505410324464982],[-49.3828309,-25.5069345],[-49.3824895,-25.5059472]],[[-49.36641008210361,-25.786333835893224],[-49.3656179,-25.7860034],[-49.3654183553123,-25.785570424406533],[-49.36641008210361,-25.786333835893224]],[[-49.36545203864443,-25.78225964640261],[-49.36522030264633,-25.785140686228214],[-49.3650255,-25.784718],[-49.36545203864443,-25.78225964640261]],[[-49.36621162978064,-25.781165913787977],[-49.3669394,-25.780118],[-49.3691035,-25.7777762],[-49.36621162978064,-25.781165913787977]],[[-49.3666712,-25.7758613],[-49.3652379,-25.7754969],[-49.364851968158945,-25.77495366098967],[-49.3666712,-25.7758613]],[[-49.364171818148165,-25.773996279453794],[-49.363878,-25.7735827],[-49.36390736681618,-25.77304211826142],[-49.364171818148165,-25.773996279453794]],[[-49.3547003,-25.6777589],[-49.35502718644654,-25.674808487093976],[-49.3552201,-25.6753856],[-49.3547003,-25.6777589]],[[-49.58460994329089,-25.59969074567068],[-49.58456436492927,-25.599830268793635],[-49.5844572,-25.5996705],[-49.58460994329089,-25.59969074567068]],[[-49.4790201,-25.6828272],[-49.4793578,-25.6844404],[-49.47922623206098,-25.684597170011237],[-49.4790201,-25.6828272]],[[-49.5856284,-25.5993219],[-49.5864428,-25.599087],[-49.58627840386012,-25.599313235101267],[-49.5856284,-25.5993219]],[[-49.5842348,-25.5959427],[-49.58411623786302,-25.595689115863937],[-49.5854374,-25.5947662],[-49.5842348,-25.5959427]],[[-49.5641461,-25.548454],[-49.5693457,-25.5479542],[-49.569443468797175,-25.54803515990702],[-49.5641461,-25.548454]],[[-49.5714224,-25.1953315],[-49.57304019048192,-25.1933135888027],[-49.5729284,-25.1936844],[-49.5714224,-25.1953315]],[[-49.573382,-25.1921798],[-49.5725837,-25.1912513],[-49.57262867562272,-25.19058714017405],[-49.573382,-25.1921798]],[[-49.56774999408884,-25.183724698951824],[-49.5676455,-25.183111],[-49.5684391,-25.1816743],[-49.56774999408884,-25.183724698951824]],[[-49.567708095927486,-25.180537614719494],[-49.5681111,-25.1808085],[-49.5684391,-25.1816743],[-49.567708095927486,-25.180537614719494]],[[-49.56723326349118,-25.180218448918268],[-49.5652701,-25.1810894],[-49.5669047,-25.1799976],[-49.56723326349118,-25.180218448918268]],[[-49.5625997,-25.1754342],[-49.5603414,-25.1749503],[-49.5612817,-25.1749118],[-49.5625997,-25.1754342]],[[-49.5578224,-25.1765877],[-49.556314,-25.1783571],[-49.5556363,-25.1785963],[-49.5578224,-25.1765877]],[[-49.5552825,-25.1781181],[-49.5539434,-25.1759633],[-49.5556363,-25.1785963],[-49.5552825,-25.1781181]],[[-49.5541585,-25.1750435],[-49.55457439699148,-25.17493743334158],[-49.5539434,-25.1759633],[-49.5541585,-25.1750435]],[[-49.54897104309198,-25.17857587673416],[-49.5484717,-25.178494],[-49.54552863729552,-25.176507436080325],[-49.54897104309198,-25.17857587673416]],[[-49.54404369804642,-25.175615179648947],[-49.54342701721454,-25.175830954580416],[-49.5439279,-25.1755456],[-49.54404369804642,-25.175615179648947]],[[-49.5380193,-25.1777231],[-49.5368536,-25.1789035],[-49.536439643432615,-25.178783843008063],[-49.5380193,-25.1777231]],[[-49.49053176669742,-25.197409986652684],[-49.4902433,-25.1974339],[-49.4900211,-25.196892],[-49.49053176669742,-25.197409986652684]],[[-49.49127988415074,-25.195883440092754],[-49.49108,-25.196308],[-49.4900211,-25.196892],[-49.49127988415074,-25.195883440092754]],[[-49.491596722731295,-25.195210465482873],[-49.4908855,-25.1935353],[-49.4917629,-25.1948575],[-49.491596722731295,-25.195210465482873]],[[-49.4655616,-25.1874314],[-49.4647836,-25.1875058],[-49.464250488726044,-25.186991963687433],[-49.4655616,-25.1874314]],[[-49.46398385935286,-25.186902599320806],[-49.4635973492099,-25.1869792346368],[-49.4638311,-25.1868514],[-49.46398385935286,-25.186902599320806]],[[-49.46289141340263,-25.187365299845354],[-49.4615551,-25.1894413],[-49.4626548,-25.1874947],[-49.46289141340263,-25.187365299845354]],[[-49.4506011,-25.1998605],[-49.449638577096394,-25.20149628836701],[-49.4495047,-25.2013368],[-49.4506011,-25.1998605]],[[-49.4483551,-25.2074105],[-49.44888331410269,-25.209627441495314],[-49.4485832,-25.2091499],[-49.4483551,-25.2074105]],[[-49.44982693378559,-25.211128928930755],[-49.4519605,-25.2135293],[-49.4508036,-25.212683],[-49.44982693378559,-25.211128928930755]],[[-49.4524492,-25.2436065],[-49.45194334853354,-25.24371895778949],[-49.4499184,-25.2427891],[-49.4524492,-25.2436065]],[[-49.3907990865062,-25.263210036629854],[-49.3905502,-25.2633239],[-49.39042719348084,-25.26310186207414],[-49.3907990865062,-25.263210036629854]],[[-49.3382539,-25.2412916],[-49.337148,-25.2413211],[-49.33614892127879,-25.2410067416665],[-49.3382539,-25.2412916]],[[-49.335124780978276,-25.24068449775187],[-49.3349805,-25.2406391],[-49.3310141,-25.2373178],[-49.335124780978276,-25.24068449775187]],[[-49.32220304214583,-25.232114198464345],[-49.32177193315119,-25.23155992293],[-49.3221672,-25.2318511],[-49.32220304214583,-25.232114198464345]],[[-49.32139084461277,-25.230807160260746],[-49.321128210944714,-25.231085718866243],[-49.3192329,-25.2306715],[-49.32139084461277,-25.230807160260746]],[[-49.30133359180043,-25.224654859723667],[-49.2977058,-25.2261052],[-49.3011832,-25.224603],[-49.30133359180043,-25.224654859723667]],[[-49.396721832794526,-25.324760422227072],[-49.3966226,-25.3257805],[-49.39630772525343,-25.325976722382524],[-49.396721832794526,-25.324760422227072]],[[-49.4493303,-25.2440178],[-49.45111099765926,-25.243904000920942],[-49.4465076,-25.2449274],[-49.4493303,-25.2440178]],[[-49.56363258466114,-25.036281520426165],[-49.5641901,-25.0364311],[-49.56441970031952,-25.036752492919977],[-49.56363258466114,-25.036281520426165]],[[-49.56291852261808,-25.03608993987465],[-49.5609854,-25.0363077],[-49.56022082704703,-25.0359685966039],[-49.562407,-25.0359527],[-49.56291852261808,-25.03608993987465]],[[-49.55831158193888,-25.03639110020407],[-49.5587626,-25.0359792],[-49.55923883390264,-25.035975737098447],[-49.55831158193888,-25.03639110020407]],[[-49.5611436,-24.9724281],[-49.5628131,-24.9684611],[-49.56126552665002,-24.972808418900907],[-49.5611436,-24.9724281]],[[-49.560614421248715,-24.9738765640988],[-49.56101155437557,-24.973521857439405],[-49.560892,-24.9738577],[-49.560614421248715,-24.9738765640988]],[[-49.55881794461294,-24.973693253112412],[-49.5595746245449,-24.973947228109143],[-49.5591954,-24.973973],[-49.55881794461294,-24.973693253112412]],[[-49.5459907,-24.9803106],[-49.546312996868984,-24.980000541347348],[-49.5451229,-24.9820047],[-49.5459907,-24.9803106]],[[-49.52546721153536,-24.996307654820164],[-49.5362561,-24.9879618],[-49.5295403,-24.9935314],[-49.52546721153536,-24.996307654820164]],[[-49.5208233,-24.9999],[-49.52187689816828,-24.999084978380303],[-49.520741629086814,-25.000393284147705],[-49.5208233,-24.9999]],[[-49.5198634,-25.0056977],[-49.520366154072036,-25.002661115685537],[-49.5203195,-25.0048744],[-49.5198634,-25.0056977]],[[-49.36845327477742,-25.192620815292045],[-49.36977127260439,-25.192691990699053],[-49.3695656,-25.1928091],[-49.36845327477742,-25.192620815292045]],[[-49.229397,-25.3500178],[-49.229493502948756,-25.349847379006928],[-49.22938556114807,-25.350092507516795],[-49.229397,-25.3500178]],[[-49.22241248352158,-25.3632687419347],[-49.2227141,-25.3597164],[-49.2225055,-25.3631232],[-49.22241248352158,-25.3632687419347]],[[-49.22149450815363,-25.364013844124706],[-49.222080440842724,-25.36378828572635],[-49.2219204,-25.3640387],[-49.22149450815363,-25.364013844124706]],[[-49.2129191,-25.361528],[-49.2167522,-25.3615241],[-49.21276362212991,-25.361730195579963],[-49.2129191,-25.361528]],[[-49.2075094,-25.3659335],[-49.211518,-25.3633501],[-49.20750091117624,-25.365995351567577],[-49.2075094,-25.3659335]],[[-49.1951445,-25.3781386],[-49.1959838,-25.3773136],[-49.195146300626725,-25.37829806383619],[-49.1951445,-25.3781386]],[[-49.1934846,-25.3903485],[-49.1946707,-25.3871691],[-49.193480347842566,-25.39042745852212],[-49.1934846,-25.3903485]],[[-49.1932384,-25.3949202],[-49.19329651958061,-25.39384097462756],[-49.19360581288729,-25.39677736903427],[-49.1932384,-25.3949202]],[[-49.1979256,-25.424899],[-49.1982328,-25.4190314],[-49.19803357757174,-25.425137368881654],[-49.1979256,-25.424899]],[[-49.1985432,-25.4262624],[-49.19821291922353,-25.42553327951645],[-49.2030502,-25.4306715],[-49.1985432,-25.4262624]],[[-49.17557042395522,-25.462603209503776],[-49.175538602312,-25.462526903114174],[-49.1817719,-25.466659],[-49.17557042395522,-25.462603209503776]],[[-49.1635065,-25.4479726],[-49.1625288,-25.448678],[-49.16332660100121,-25.44766037063148],[-49.1635065,-25.4479726]],[[-49.1631892,-25.4474219],[-49.163261453736084,-25.447547302245383],[-49.1608558,-25.4473006],[-49.1631892,-25.4474219]],[[-49.156987298708444,-25.447288595180282],[-49.1583219,-25.447337],[-49.1573935,-25.4474599],[-49.156987298708444,-25.447288595180282]],[[-49.15644555596542,-25.44698964544718],[-49.156507542288054,-25.447086270399904],[-49.15639,-25.4470367],[-49.15644555596542,-25.44698964544718]],[[-49.1569703,-25.4464428],[-49.15692694316775,-25.44647841400068],[-49.1564651,-25.445767],[-49.1569703,-25.4464428]],[[-49.153878,-25.4445451],[-49.15408624952692,-25.444606354552537],[-49.15384018365993,-25.44458090032001],[-49.153878,-25.4445451]],[[-49.1417752,-25.443629],[-49.142894,-25.444759],[-49.14155730337038,-25.443704195336327],[-49.1417752,-25.443629]],[[-49.1400841,-25.4435407],[-49.140117059204435,-25.443608443588104],[-49.140001504389005,-25.443616721393262],[-49.1400841,-25.4435407]],[[-49.1069417,-25.3862441],[-49.10401805512332,-25.39470462985228],[-49.1039617,-25.3942347],[-49.1069417,-25.3862441]],[[-49.0603019,-25.3956278],[-49.061777373366375,-25.395462735138135],[-49.05962153767118,-25.39604938003579],[-49.0603019,-25.3956278]],[[-49.35508915567211,-25.645207482982922],[-49.3547927,-25.6451419],[-49.354780944365906,-25.644920959027292],[-49.35508915567211,-25.645207482982922]],[[-49.324304276389974,-25.632818945789282],[-49.3239321,-25.6329663],[-49.32346380381413,-25.632841676916655],[-49.324304276389974,-25.632818945789282]],[[-49.32300203632497,-25.632718791251506],[-49.3226511,-25.6326254],[-49.3223954,-25.631902],[-49.32300203632497,-25.632718791251506]],[[-49.274029663514575,-25.612226852678063],[-49.27359196664102,-25.611944309714545],[-49.2738721,-25.6118952],[-49.274029663514575,-25.612226852678063]],[[-49.23740460300584,-25.5637316641954],[-49.2245412,-25.5618215],[-49.2372783,-25.56355],[-49.23740460300584,-25.5637316641954]],[[-49.22590121128233,-25.538308208571536],[-49.225268125272635,-25.536801817368268],[-49.2259284,-25.5382615],[-49.22590121128233,-25.538308208571536]],[[-49.224005427771594,-25.53401034658343],[-49.22150409582138,-25.53176509075251],[-49.2237288,-25.5333988],[-49.224005427771594,-25.53401034658343]],[[-49.22076850460863,-25.531104806355053],[-49.2204706,-25.5308374],[-49.2187748,-25.527903],[-49.22076850460863,-25.531104806355053]],[[-49.2172948,-25.5239569],[-49.216972186333166,-25.521387048957966],[-49.2170968,-25.5214727],[-49.2172948,-25.5239569]],[[-49.20828699610691,-25.515182106340227],[-49.2080272,-25.5149993],[-49.207702944549204,-25.513506909561812],[-49.20828699610691,-25.515182106340227]],[[-49.202093002293964,-25.512372790820557],[-49.2015967,-25.5133955],[-49.20136080129887,-25.513305638081757],[-49.202093002293964,-25.512372790820557]],[[-49.20094916357714,-25.51314883113404],[-49.199484,-25.5125907],[-49.19909981790078,-25.51205740658016],[-49.20094916357714,-25.51314883113404]],[[-49.19779257841433,-25.510242792578893],[-49.1963863,-25.5082907],[-49.1945934,-25.5052502],[-49.19779257841433,-25.510242792578893]],[[-49.184881946281045,-25.478446731162613],[-49.1846413,-25.4781882],[-49.18464332369334,-25.47775235565293],[-49.184881946281045,-25.478446731162613]],[[-49.13313240226179,-25.49481162958903],[-49.133133,-25.494827],[-49.13302183001692,-25.494945176139947],[-49.13313240226179,-25.49481162958903]],[[-49.13107156223673,-25.49701835373469],[-49.130499,-25.497627],[-49.129782,-25.497857],[-49.13107156223673,-25.49701835373469]],[[-49.10761009489289,-25.515709133282886],[-49.1075914,-25.515747],[-49.1030586,-25.5161264],[-49.10761009489289,-25.515709133282886]],[[-49.092477154616454,-25.524013210362266],[-49.0920679,-25.5244739],[-49.0872365,-25.5269695],[-49.092477154616454,-25.524013210362266]],[[-49.0683036,-25.5408431],[-49.0665383,-25.5411323],[-49.066397059490534,-25.54101320826442],[-49.0683036,-25.5408431]],[[-49.0262692,-25.5489244],[-49.025052,-25.5505456],[-49.02482263600263,-25.550578791431764],[-49.0262692,-25.5489244]],[[-49.02463722007894,-25.550605623105657],[-49.0243969,-25.5506404],[-49.0230017,-25.5479735],[-49.02463722007894,-25.550605623105657]],[[-48.996558395722694,-25.541386609334147],[-48.9962455,-25.5416188],[-48.99529889327002,-25.541438126817187],[-48.996558395722694,-25.541386609334147]],[[-48.994344940595084,-25.541256051557664],[-48.993925,-25.5411759],[-48.9918705,-25.5391518],[-48.994344940595084,-25.541256051557664]],[[-49.24264173736368,-25.747241228928633],[-49.2423518,-25.746963],[-49.2419988,-25.7449627],[-49.24264173736368,-25.747241228928633]],[[-49.1199475,-25.3784417],[-49.118799,-25.3797229],[-49.120003765528566,-25.37829962441602],[-49.1199475,-25.3784417]],[[-49.1221435,-25.3728966],[-49.123854233475825,-25.370627188249127],[-49.1238014,-25.3709046],[-49.1221435,-25.3728966]],[[-49.047001225836084,-25.346786360179483],[-49.0465425,-25.3466276],[-49.04607175211679,-25.34625683934941],[-49.047001225836084,-25.346786360179483]],[[-49.043775546442106,-25.34444834962445],[-49.0427492,-25.34364],[-49.0366099,-25.3373011],[-49.043775546442106,-25.34444834962445]],[[-49.0193757,-25.3182914],[-49.01657009420237,-25.312638290259194],[-49.0165793,-25.312644],[-49.0193757,-25.3182914]],[[-49.01089707103615,-25.310341988162524],[-49.0028617,-25.3108045],[-49.0090438,-25.3101913],[-49.01089707103615,-25.310341988162524]],[[-49.2200416,-25.2312678],[-49.21984961733003,-25.231280901362112],[-49.2208290308144,-25.230915190444176],[-49.2200416,-25.2312678]],[[-49.20284345075676,-25.23139390713603],[-49.2037632,-25.2312088],[-49.2101035,-25.231946],[-49.20284345075676,-25.23139390713603]],[[-49.2019938,-25.2318576],[-49.1990742,-25.2321525],[-49.202234516529245,-25.231516460181563],[-49.2019938,-25.2318576]],[[-49.19149025748323,-25.233376785233805],[-49.191805,-25.2331846],[-49.1924685,-25.2338924],[-49.19149025748323,-25.233376785233805]],[[-49.1842629,-25.237527],[-49.1837321,-25.237527],[-49.18430853342211,-25.237489023614163],[-49.1842629,-25.237527]],[[-49.0938758,-25.2751082],[-49.0936417099635,-25.275409781512536],[-49.0940015,-25.2740872],[-49.0938758,-25.2751082]],[[-49.1353781,-25.33956],[-49.1354755,-25.340825],[-49.13511067016477,-25.339140051345844],[-49.1353781,-25.33956]],[[-49.0819962,-25.2713758],[-49.0838071,-25.2712401],[-49.081996119675125,-25.271375848584295],[-49.0819962,-25.2713758]],[[-48.690884503510176,-25.051932465331728],[-48.6950168,-25.0534131],[-48.692617,-25.05281],[-48.690884503510176,-25.051932465331728]]]}}]}