{"type":"FeatureCollection","features":[{"type":"Feature","properties":{"geometry_key":"area|area_rgint_redencao","type":"area_estudo","area_col":"area_rgint_redencao","area_label":"Redenção - RGInt","label":"Redenção - RGInt"},"geometry":{"type":"Polygon","coordinates":[[[-51.3042873,-9.77286],[-52.0003209,-9.7258355],[-53.0004717,-9.6552689],[-53.1333882,-9.6453296],[-53.1332474,-9.6351519],[-53.1295809,-9.6296091],[-53.1268012,-9.6196751],[-53.1271106,-9.6162316],[-53.1262436,-9.6129297],[-53.124274,-9.6104378],[-53.1244193,-9.6074097],[-53.1226145,-9.6042872],[-53.1206915,-9.5968133],[-53.1224939,-9.5870382],[-53.1221951,-9.5796145],[-53.1228606,-9.5758736],[-53.1241342,-9.5726124],[-53.1215524,-9.5634924],[-53.1165523,-9.5593303],[-53.1136652,-9.5560143],[-53.1125277,-9.5524305],[-53.1093846,-9.5519425],[-53.1062488,-9.552513],[-53.1024162,-9.5524064],[-53.100053,-9.5504648],[-53.0996606,-9.5472988],[-53.0970256,-9.5444896],[-53.0931088,-9.5445427],[-53.0893587,-9.5435565],[-53.0801319,-9.5370758],[-53.0768274,-9.5361016],[-53.0704434,-9.5357502],[-53.0673351,-9.5336364],[-53.063778,-9.5320964],[-53.0602184,-9.5317885],[-53.0567226,-9.5305053],[-53.0544712,-9.5278324],[-53.0537816,-9.5242136],[-53.0552202,-9.5141125],[-53.0537784,-9.5111679],[-53.0470818,-9.5031682],[-53.0466599,-9.5002923],[-53.048138,-9.4963359],[-53.0501667,-9.4941718],[-53.0511935,-9.4913731],[-53.0464667,-9.4878165],[-53.0424989,-9.4772994],[-53.0396887,-9.4759266],[-53.0352179,-9.4750917],[-53.0327453,-9.4770647],[-53.0258052,-9.4809164],[-53.0217983,-9.4808935],[-53.0086924,-9.4752971],[-53.0036939,-9.4749123],[-53.0005503,-9.475537],[-52.995078,-9.4752954],[-52.9923591,-9.4739226],[-52.9856872,-9.467221],[-52.9798279,-9.4642209],[-52.9771959,-9.4618348],[-52.9753296,-9.4589113],[-52.9747204,-9.4548877],[-52.9730557,-9.4518707],[-52.9700533,-9.4503975],[-52.9663599,-9.4494727],[-52.9625243,-9.449842],[-52.9597154,-9.451243],[-52.9572704,-9.4530889],[-52.9528313,-9.4578686],[-52.9500232,-9.4586738],[-52.9435573,-9.4579448],[-52.9299104,-9.4548246],[-52.9272466,-9.4534343],[-52.9258821,-9.4503557],[-52.9279099,-9.4480296],[-52.9311366,-9.4469908],[-52.9338861,-9.4441697],[-52.9347515,-9.4378535],[-52.9372745,-9.4289832],[-52.9367743,-9.4258087],[-52.9393827,-9.4244154],[-52.9396094,-9.4214239],[-52.9347521,-9.417458],[-52.9330477,-9.4144597],[-52.9316379,-9.4113105],[-52.929965,-9.4046242],[-52.9283255,-9.3932652],[-52.9273044,-9.3904679],[-52.9247182,-9.3876939],[-52.9218267,-9.3865099],[-52.9216353,-9.3836157],[-52.926664,-9.3710377],[-52.9314978,-9.3622403],[-52.9340013,-9.3562707],[-52.9346939,-9.3470594],[-52.9359143,-9.3435755],[-52.9383588,-9.3416573],[-52.9402167,-9.3386869],[-52.9419728,-9.3356267],[-52.944226,-9.3295035],[-52.9484086,-9.3149364],[-52.9503291,-9.3055234],[-52.9551057,-9.2921285],[-52.9559117,-9.2860922],[-52.9576964,-9.2830762],[-52.9638297,-9.2800856],[-52.9658836,-9.2780214],[-52.9717418,-9.2606454],[-52.9752209,-9.2440552],[-52.9745566,-9.240591],[-52.9669446,-9.2388154],[-52.9645561,-9.2371271],[-52.9628285,-9.2338406],[-52.9651117,-9.2276268],[-52.9645209,-9.2245515],[-52.9701652,-9.2169018],[-52.9704662,-9.21382],[-52.9722146,-9.2102524],[-52.9787448,-9.2079477],[-52.9869684,-9.2027548],[-52.9921327,-9.1978334],[-52.9952708,-9.1921198],[-53.0026115,-9.1861737],[-53.0048033,-9.1832851],[-53.0056914,-9.1751433],[-53.0092451,-9.1732718],[-53.0142774,-9.1693992],[-53.0147513,-9.1661469],[-53.0164957,-9.1634378],[-53.0229914,-9.1566934],[-53.026188,-9.1558974],[-53.0354688,-9.1554069],[-53.0416608,-9.1568879],[-53.045967,-9.1555523],[-53.0482477,-9.1535784],[-53.0568318,-9.148466],[-53.0599375,-9.1472166],[-53.0704118,-9.1477236],[-53.0812742,-9.1434382],[-53.0825758,-9.1396518],[-53.0819371,-9.1364788],[-53.082247,-9.1326736],[-53.08469,-9.1197503],[-53.0848002,-9.1161263],[-53.0823591,-9.1133981],[-53.0744419,-9.1111822],[-53.0708861,-9.1107112],[-53.0631584,-9.1081339],[-53.0558056,-9.1069207],[-53.0527996,-9.1042722],[-53.0559146,-9.1028438],[-53.0588986,-9.1027521],[-53.0628719,-9.0986671],[-53.0501666,-9.0888698],[-53.0471653,-9.0883105],[-53.0414148,-9.0922641],[-53.0381374,-9.0897966],[-53.0366074,-9.0870723],[-53.0369946,-9.0817396],[-53.0378319,-9.0784864],[-53.034135,-9.0727623],[-53.0320499,-9.0704868],[-53.0286877,-9.0719153],[-53.0255805,-9.0742475],[-53.0208564,-9.0687032],[-53.0160844,-9.0644244],[-53.0237806,-9.0539665],[-53.0303535,-9.0514707],[-53.033272,-9.0488658],[-53.034935,-9.0453445],[-53.0382459,-9.0421891],[-53.0406366,-9.0358663],[-53.0441911,-9.0330821],[-53.0465845,-9.0291097],[-53.0476043,-9.0252251],[-53.0459422,-9.0170764],[-53.0463281,-9.0120925],[-53.0483613,-9.0070461],[-53.052,-9.0028879],[-53.0501931,-8.9989679],[-53.0461105,-8.9948621],[-53.0458818,-8.9919044],[-53.046834,-8.9887346],[-53.045246,-8.9846353],[-53.0416398,-8.9796167],[-53.0400503,-8.9750653],[-53.0403057,-8.9716587],[-53.0421625,-8.9644032],[-53.0460454,-8.9637434],[-53.0499715,-8.9614925],[-53.0545581,-8.9569741],[-53.0552458,-8.9540306],[-53.0523038,-8.9492488],[-53.0486861,-8.9455873],[-53.0418585,-8.9412294],[-53.0389132,-8.9371275],[-53.036162,-8.9359813],[-53.0300285,-8.9309461],[-53.0245786,-8.9250114],[-53.0175205,-8.9224696],[-53.015937,-8.9199613],[-53.0157497,-8.9151957],[-53.0139377,-8.9097315],[-53.0137462,-8.9024617],[-53.0110472,-8.8958651],[-53.0106103,-8.8926809],[-53.0079138,-8.8878905],[-53.0045661,-8.8751538],[-53.0052748,-8.8685726],[-53.0041645,-8.8656144],[-52.9996064,-8.8635483],[-52.9968838,-8.8614798],[-52.993502,-8.8551073],[-52.9926037,-8.8507828],[-52.9917742,-8.8355658],[-52.9980224,-8.8206119],[-52.9981069,-8.8094818],[-52.9990572,-8.8042581],[-53.0029669,-8.7970191],[-53.0043588,-8.7931617],[-53.0064415,-8.7899941],[-53.0094142,-8.789106],[-53.0123567,-8.7900277],[-53.0176078,-8.7937018],[-53.0205806,-8.7934845],[-53.0233303,-8.7916817],[-53.024496,-8.7880614],[-53.0240574,-8.7851022],[-53.0199346,-8.7837192],[-53.0169945,-8.7818827],[-53.0156308,-8.7789248],[-53.0151944,-8.7755164],[-53.0170478,-8.7716682],[-53.0227741,-8.7680669],[-53.0259939,-8.763998],[-53.0271655,-8.760827],[-53.0315271,-8.7544927],[-53.0351867,-8.75178],[-53.037303,-8.7452131],[-53.0384954,-8.7338604],[-53.0369366,-8.7286293],[-53.0324153,-8.7233753],[-53.0237756,-8.7153787],[-53.0217465,-8.7128702],[-53.0160504,-8.7087512],[-53.0062746,-8.7048285],[-53.0021367,-8.7057126],[-52.9902216,-8.7138193],[-52.986358,-8.7140251],[-52.9738025,-8.7128071],[-52.9712728,-8.7143823],[-52.9692183,-8.7173239],[-52.9669154,-8.7193535],[-52.9634638,-8.7213763],[-52.9566394,-8.7215646],[-52.9534124,-8.7222256],[-52.9495261,-8.7240139],[-52.9458602,-8.7285338],[-52.9424102,-8.7305582],[-52.9319162,-8.7300397],[-52.9294139,-8.7273035],[-52.9296602,-8.7241193],[-52.929025,-8.7202601],[-52.9299337,-8.7170887],[-52.9283603,-8.714346],[-52.9251657,-8.7131971],[-52.9238228,-8.7093232],[-52.9240829,-8.7047858],[-52.9261588,-8.7027486],[-52.9291571,-8.6961849],[-52.9319084,-8.6936975],[-52.934882,-8.6932629],[-52.9403819,-8.6892092],[-52.9436036,-8.6874092],[-52.9465762,-8.6869745],[-52.9493343,-8.684949],[-52.946834,-8.6822128],[-52.9438558,-8.6817336],[-52.942048,-8.6783196],[-52.9420751,-8.6751375],[-52.9407095,-8.6721821],[-52.9332176,-8.6680435],[-52.9314181,-8.6653074],[-52.9316628,-8.661674],[-52.9334974,-8.658732],[-52.9373846,-8.6567088],[-52.9417462,-8.6562869],[-52.9472435,-8.652912],[-52.9481631,-8.6492813],[-52.9456903,-8.6465426],[-52.9429427,-8.6449358],[-52.9370288,-8.6394194],[-52.9288829,-8.629636],[-52.9216087,-8.6259535],[-52.9181911,-8.6261609],[-52.9124326,-8.6313436],[-52.9088045,-8.6326893],[-52.9058239,-8.6328977],[-52.8992166,-8.6308087],[-52.8967174,-8.6276095],[-52.8979085,-8.6210299],[-52.9004636,-8.6140059],[-52.8988862,-8.6096802],[-52.897806,-8.6030968],[-52.8992143,-8.5967357],[-52.8980773,-8.5937836],[-52.8953521,-8.5905847],[-52.8899146,-8.5866827],[-52.8883257,-8.5832682],[-52.8893018,-8.5762388],[-52.8879391,-8.5728168],[-52.8916583,-8.5648912],[-52.8948537,-8.5621865],[-52.8980845,-8.5603886],[-52.9001339,-8.5581335],[-52.901524,-8.5535912],[-52.9079898,-8.5436554],[-52.9123275,-8.5409438],[-52.9148522,-8.5382389],[-52.9146882,-8.5316499],[-52.912636,-8.528227],[-52.9067425,-8.5245565],[-52.9049376,-8.5204571],[-52.9051916,-8.5170488],[-52.9074932,-8.5132042],[-52.9148505,-8.5059827],[-52.9155512,-8.5025855],[-52.9176328,-8.4987312],[-52.9206018,-8.4958013],[-52.9249349,-8.4951443],[-52.9272484,-8.4931167],[-52.9455493,-8.4866395],[-52.9487435,-8.4839442],[-52.9496876,-8.4807655],[-52.9502895,-8.4741379],[-52.9499715,-8.4698628],[-52.9484148,-8.4648593],[-52.9489153,-8.4571375],[-52.9496359,-8.4532811],[-52.951491,-8.4482949],[-52.9551886,-8.4412796],[-52.9536081,-8.438085],[-52.951552,-8.4358014],[-52.9483802,-8.4337389],[-52.9433814,-8.4323442],[-52.9328845,-8.4318303],[-52.9239725,-8.4329044],[-52.9198564,-8.4344669],[-52.9175784,-8.4369549],[-52.9136585,-8.4394238],[-52.9088744,-8.4398498],[-52.9000295,-8.4357064],[-52.8979651,-8.4329669],[-52.8993561,-8.4297986],[-52.907132,-8.4284824],[-52.9128518,-8.425571],[-52.9172202,-8.4224091],[-52.9174363,-8.4194626],[-52.9165819,-8.4135561],[-52.9181867,-8.4108394],[-52.9220767,-8.409503],[-52.9243821,-8.4065622],[-52.9284972,-8.4059036],[-52.9310168,-8.4036513],[-52.9308019,-8.3995636],[-52.932886,-8.394805],[-52.9395203,-8.3925719],[-52.9420494,-8.3907715],[-52.9431914,-8.3878247],[-52.9432732,-8.3780614],[-52.9417687,-8.3598864],[-52.9399898,-8.3532822],[-52.9411878,-8.3467014],[-52.9439366,-8.3444504],[-52.9510233,-8.3424541],[-52.9624093,-8.3450244],[-52.964665,-8.3468556],[-52.9694691,-8.3459731],[-52.9722147,-8.3448601],[-52.9777178,-8.3408053],[-52.9795503,-8.3378619],[-52.9805226,-8.3269707],[-52.9826109,-8.3233418],[-52.9887743,-8.3204284],[-52.9910759,-8.3181732],[-52.9902143,-8.3111285],[-52.9906847,-8.3074945],[-52.9993845,-8.3030053],[-53.0057718,-8.3007792],[-53.0082995,-8.2987505],[-53.0081093,-8.2953445],[-53.0019696,-8.2930311],[-52.985355,-8.2838375],[-52.9760787,-8.2758329],[-52.9729121,-8.2721797],[-52.9713252,-8.2680803],[-52.9706638,-8.2644452],[-52.9706884,-8.261264],[-52.9725489,-8.2546846],[-52.9728046,-8.250599],[-52.9707999,-8.2430912],[-52.9680859,-8.240354],[-52.9631068,-8.2364646],[-52.9594678,-8.2348433],[-52.9549141,-8.2339094],[-52.9414915,-8.2263255],[-52.9296567,-8.2228399],[-52.9278888,-8.2187498],[-52.9290234,-8.2153429],[-52.9377464,-8.2083606],[-52.9395763,-8.2058703],[-52.9403053,-8.201333],[-52.9344418,-8.1917637],[-52.9318339,-8.172207],[-52.930029,-8.1687859],[-52.9252703,-8.162625],[-52.9257432,-8.15854],[-52.9308256,-8.1517551],[-52.9324402,-8.1485862],[-52.9361012,-8.1470209],[-52.9390533,-8.1465866],[-52.9422711,-8.1441098],[-52.9448026,-8.1407145],[-52.9507491,-8.1364366],[-52.955137,-8.1305635],[-52.960162,-8.1274221],[-52.9629105,-8.1249313],[-52.9654407,-8.1215493],[-52.9666077,-8.116552],[-52.9648297,-8.108591],[-52.962578,-8.1056299],[-52.9587178,-8.103331],[-52.9591905,-8.1001599],[-52.9619334,-8.0983579],[-52.9637725,-8.0958683],[-52.9633557,-8.0924572],[-52.9569643,-8.0901446],[-52.9547116,-8.0876356],[-52.9538574,-8.0814949],[-52.9561886,-8.0710673],[-52.9587212,-8.0669974],[-52.9653882,-8.060675],[-52.968387,-8.0547882],[-52.9752756,-8.0464249],[-52.9762199,-8.042123],[-52.9787431,-8.0387301],[-52.9842444,-8.0335363],[-52.9856303,-8.0303656],[-52.9854114,-8.0271927],[-52.9815526,-8.0248941],[-52.9779137,-8.0257702],[-52.971085,-8.0252758],[-52.9678869,-8.0261619],[-52.9656082,-8.0236529],[-52.9699946,-8.0148222],[-52.9734447,-8.0132578],[-52.9775272,-8.0130591],[-52.9807421,-8.0119361],[-52.983943,-8.0087789],[-52.9858025,-8.00516],[-52.9838553,-7.9958335],[-52.9822704,-7.9915353],[-52.9838558,-7.9890431],[-52.9868009,-7.9894842],[-52.9933873,-7.9930994],[-52.9999929,-7.9914981],[-53.0042982,-7.9928456],[-53.0097758,-7.997813],[-53.0147725,-7.9980238],[-53.0161401,-7.9950789],[-53.0142962,-7.9923623],[-53.0154371,-7.9894178],[-53.0186046,-7.9882781],[-53.0204074,-7.9857862],[-53.0199418,-7.9794385],[-53.0294351,-7.9612981],[-53.0292172,-7.9579073],[-53.0253306,-7.9517957],[-53.0214649,-7.9484136],[-53.0187405,-7.9468232],[-53.0182707,-7.9418416],[-53.0209958,-7.9404838],[-53.0312151,-7.9413657],[-53.0350792,-7.9372792],[-53.0355255,-7.9329759],[-53.037552,-7.9304763],[-53.0411858,-7.9286494],[-53.0464119,-7.9272872],[-53.050719,-7.9272699],[-53.058207,-7.9258973],[-53.0647991,-7.922031],[-53.0670541,-7.9186276],[-53.0672703,-7.9152278],[-53.0661366,-7.912061],[-53.0627137,-7.9093501],[-53.0597499,-7.904598],[-53.0586053,-7.9014293],[-53.0572162,-7.8937324],[-53.0538301,-7.8916987],[-53.0488237,-7.8919396],[-53.0404111,-7.8910525],[-53.0347139,-7.887669],[-53.0322195,-7.8840551],[-53.0274377,-7.8813517],[-53.0238031,-7.8813505],[-53.020861,-7.8822658],[-53.0176615,-7.8815983],[-53.0160809,-7.8788824],[-53.01561,-7.8748039],[-53.0171887,-7.8709463],[-53.020354,-7.8668682],[-53.0242139,-7.86391],[-53.0282969,-7.8620942],[-53.0305795,-7.8600463],[-53.0298897,-7.8564293],[-53.0262455,-7.8516745],[-53.0198574,-7.8462515],[-53.0182673,-7.8437715],[-53.0155517,-7.8421921],[-53.0078254,-7.8455986],[-53.0044116,-7.8440292],[-53.0032681,-7.8406362],[-53.0030252,-7.8356542],[-53.000965,-7.8322582],[-52.9989417,-7.8297672],[-52.9955257,-7.8295493],[-52.9921099,-7.8277421],[-52.9916391,-7.8202743],[-52.9922999,-7.8139284],[-52.9932206,-7.8107573],[-52.9963839,-7.8073474],[-52.9970573,-7.8032726],[-52.9959131,-7.7998769],[-52.9959125,-7.7967027],[-52.9990797,-7.7946589],[-53.017688,-7.7855532],[-53.0201603,-7.7828286],[-53.0244949,-7.7828196],[-53.0281331,-7.7844019],[-53.0328794,-7.7823515],[-53.0360512,-7.7794014],[-53.0346899,-7.7760089],[-53.0285506,-7.7723976],[-53.0249101,-7.7710413],[-53.0226318,-7.768332],[-53.0226315,-7.7649335],[-53.0294364,-7.7581233],[-53.0314659,-7.7547186],[-53.0319159,-7.7517724],[-53.0289388,-7.7454361],[-53.028721,-7.7415842],[-53.0296111,-7.7372819],[-53.0296089,-7.7338835],[-53.0275523,-7.7298086],[-53.0272961,-7.7268698],[-53.0284365,-7.7236918],[-53.0318536,-7.7234627],[-53.037298,-7.7214146],[-53.040685,-7.7184559],[-53.0442973,-7.7127872],[-53.0456592,-7.7037205],[-53.0481313,-7.7007787],[-53.057883,-7.6932773],[-53.0581044,-7.6878342],[-53.0660218,-7.6817037],[-53.0689963,-7.6805619],[-53.0721606,-7.6801086],[-53.0787443,-7.682807],[-53.082156,-7.6827962],[-53.086019,-7.6803001],[-53.0969169,-7.6827651],[-53.1001098,-7.6820748],[-53.1023547,-7.6748195],[-53.106662,-7.6739072],[-53.1084709,-7.6714147],[-53.1077729,-7.6671098],[-53.1107232,-7.6652896],[-53.1114173,-7.6623445],[-53.1113809,-7.65804],[-53.1127678,-7.6553315],[-53.1204681,-7.6553002],[-53.1236398,-7.6559766],[-53.1247684,-7.6523435],[-53.1202192,-7.6480587],[-53.1181584,-7.6453404],[-53.1129095,-7.6288207],[-53.1129093,-7.6245162],[-53.1149359,-7.6213379],[-53.1181021,-7.6197432],[-53.1206075,-7.6177059],[-53.1242141,-7.6133925],[-53.1246583,-7.6088629],[-53.1262421,-7.6059078],[-53.1305477,-7.6045431],[-53.1328291,-7.6065729],[-53.1353299,-7.6108742],[-53.1408019,-7.6158378],[-53.1432982,-7.6142524],[-53.1419115,-7.6101812],[-53.1419079,-7.6065548],[-53.1450752,-7.6047338],[-53.1480494,-7.6038184],[-53.1464426,-7.601102],[-53.1462209,-7.5981659],[-53.1491625,-7.5954385],[-53.153244,-7.593612],[-53.1518591,-7.5881846],[-53.1493547,-7.5856925],[-53.1486618,-7.5827519],[-53.1466028,-7.5791323],[-53.1475238,-7.5761948],[-53.1545739,-7.575252],[-53.161582,-7.5707151],[-53.1606629,-7.5675507],[-53.1611049,-7.5634731],[-53.1669941,-7.5591536],[-53.16902,-7.5568872],[-53.1681104,-7.5539471],[-53.1631094,-7.5530515],[-53.1531324,-7.5533035],[-53.1454157,-7.5515065],[-53.1383587,-7.5465381],[-53.1333541,-7.5383993],[-53.1310752,-7.5316067],[-53.1306112,-7.5284413],[-53.1289952,-7.5250459],[-53.1194354,-7.5164631],[-53.1160504,-7.51511],[-53.1130817,-7.5130806],[-53.1117182,-7.5103647],[-53.1092163,-7.5074221],[-53.1073835,-7.5042595],[-53.1073841,-7.4999586],[-53.1082704,-7.4954209],[-53.1057753,-7.4927107],[-53.0980489,-7.4913668],[-53.0955525,-7.4897876],[-53.0926099,-7.4893395],[-53.0910228,-7.4857198],[-53.0926063,-7.4818625],[-53.0923534,-7.4775666],[-53.0941609,-7.4752919],[-53.1002679,-7.4700687],[-53.1075258,-7.460998],[-53.1124972,-7.4575896],[-53.1174912,-7.4550861],[-53.1211049,-7.4523629],[-53.1233855,-7.4494119],[-53.1242697,-7.4457881],[-53.1236065,-7.4421586],[-53.1215496,-7.4374079],[-53.1213045,-7.4335559],[-53.1235455,-7.4267614],[-53.1237706,-7.4233614],[-53.1233248,-7.4197359],[-53.1196583,-7.414087],[-53.1194408,-7.410009],[-53.1203271,-7.4061502],[-53.1189628,-7.3993639],[-53.1200747,-7.3955064],[-53.1241571,-7.3927849],[-53.1284696,-7.3923223],[-53.1307489,-7.3893703],[-53.1343513,-7.3902633],[-53.1400495,-7.395012],[-53.1475513,-7.3988427],[-53.15141,-7.3983799],[-53.1570774,-7.3956484],[-53.159996,-7.3927291],[-53.1606914,-7.3861275],[-53.1627169,-7.383636],[-53.1686019,-7.384524],[-53.172913,-7.3842878],[-53.1761056,-7.3824656],[-53.1783548,-7.3804264],[-53.1783584,-7.3740803],[-53.1765251,-7.3711466],[-53.1733553,-7.3704726],[-53.1690236,-7.3677604],[-53.1672153,-7.3650537],[-53.1656025,-7.360068],[-53.1653833,-7.3571301],[-53.1685203,-7.3501018],[-53.1710255,-7.347149],[-53.1737441,-7.3419372],[-53.1773526,-7.3403435],[-53.18097,-7.3378375],[-53.1884654,-7.3348756],[-53.1963812,-7.3246631],[-53.198856,-7.3228502],[-53.2081378,-7.313771],[-53.2160765,-7.3096701],[-53.2224102,-7.3035428],[-53.2321596,-7.3001229],[-53.2348873,-7.2985254],[-53.2346353,-7.293317],[-53.2400526,-7.2874022],[-53.2543303,-7.2774188],[-53.2570524,-7.2746928],[-53.2590828,-7.2674357],[-53.2586104,-7.2633654],[-53.2628864,-7.2561029],[-53.2663046,-7.253377],[-53.2712792,-7.2468028],[-53.2717195,-7.2427248],[-53.2757753,-7.2404384],[-53.279853,-7.2356772],[-53.2814413,-7.2327312],[-53.2877767,-7.2288714],[-53.2909471,-7.2286331],[-53.2997973,-7.2308701],[-53.3029708,-7.2285956],[-53.3034103,-7.2254326],[-53.3013617,-7.2215868],[-53.3006596,-7.217734],[-53.3040771,-7.2156858],[-53.3108862,-7.2149882],[-53.313578,-7.2138539],[-53.3144963,-7.2106835],[-53.3153871,-7.2029822],[-53.3151371,-7.2000325],[-53.3130791,-7.1964127],[-53.3103879,-7.1984611],[-53.3069693,-7.1953004],[-53.3051365,-7.191907],[-53.3044365,-7.1878273],[-53.3008058,-7.1819537],[-53.2935535,-7.1815195],[-53.2890243,-7.1783561],[-53.2865203,-7.1758739],[-53.2867226,-7.1674926],[-53.2835265,-7.1670437],[-53.2830797,-7.1638775],[-53.2812475,-7.1602589],[-53.2785246,-7.1589075],[-53.2717158,-7.1593741],[-53.2707992,-7.1550797],[-53.2692197,-7.1514588],[-53.2669352,-7.1482915],[-53.2662434,-7.1444396],[-53.2632971,-7.1412776],[-53.2560269,-7.1372252],[-53.2585006,-7.1290638],[-53.2569156,-7.1245305],[-53.2530465,-7.1211445],[-53.2530239,-7.1177521],[-53.2537189,-7.1145805],[-53.2559692,-7.1107225],[-53.258915,-7.1088999],[-53.2618545,-7.1048187],[-53.2704657,-7.1032139],[-53.2729385,-7.1016156],[-53.2761334,-7.1013864],[-53.2808853,-7.102279],[-53.2856283,-7.0954852],[-53.2888072,-7.0961528],[-53.2906035,-7.0929738],[-53.2914995,-7.0877654],[-53.2935484,-7.085037],[-53.30055,-7.0820819],[-53.3057697,-7.0775327],[-53.3075772,-7.0745896],[-53.3014443,-7.0712061],[-53.2993843,-7.0687156],[-53.3009641,-7.0655444],[-53.3052712,-7.0610038],[-53.3093568,-7.0580532],[-53.3118331,-7.0550993],[-53.3127155,-7.0514758],[-53.317247,-7.0412734],[-53.3179124,-7.0380998],[-53.3181365,-7.0333442],[-53.3174382,-7.0274561],[-53.3153888,-7.0251936],[-53.3140256,-7.0222612],[-53.3110849,-7.0199142],[-53.3036403,-7.0062204],[-53.3021413,-6.9960534],[-53.3009912,-6.9940815],[-53.2858423,-6.9761536],[-53.2820148,-6.9710763],[-53.2787942,-6.96564],[-53.2774749,-6.9602456],[-53.2771207,-6.9497938],[-53.2777837,-6.9453047],[-53.2800436,-6.9402791],[-53.2826122,-6.9369991],[-53.2880653,-6.9326401],[-53.2991287,-6.926982],[-53.2997461,-6.9237604],[-53.3028584,-6.9228427],[-53.3058315,-6.9199175],[-53.3116373,-6.9160751],[-53.3106092,-6.9068049],[-53.3088304,-6.9042263],[-53.3120562,-6.9023069],[-53.319441,-6.9007587],[-53.3195556,-6.8965011],[-53.3188813,-6.8934874],[-53.3158623,-6.891332],[-53.3094689,-6.8894602],[-53.3028331,-6.8906622],[-53.2995507,-6.8904947],[-53.296441,-6.8879665],[-53.2924671,-6.8830709],[-53.2915578,-6.8799619],[-53.2903524,-6.8691489],[-53.2888286,-6.8650345],[-53.2854397,-6.862958],[-53.2832163,-6.860819],[-53.2818285,-6.8577003],[-53.274247,-6.8521716],[-53.2653861,-6.8479727],[-53.2561014,-6.8376871],[-53.2480075,-6.8314909],[-53.2462413,-6.8247576],[-53.2438574,-6.822431],[-53.2406926,-6.8219921],[-53.237218,-6.8229992],[-53.2354656,-6.8201475],[-53.2405836,-6.8160063],[-53.2432752,-6.8129897],[-53.2465831,-6.8033655],[-53.249913,-6.7970144],[-53.2474358,-6.7902455],[-53.247252,-6.7868827],[-53.2512227,-6.7808128],[-53.2568582,-6.7756026],[-53.2631653,-6.7742116],[-53.2740811,-6.7674919],[-53.2816454,-6.7661415],[-53.287612,-6.7642831],[-53.2907683,-6.7647217],[-53.297609,-6.763256],[-53.3001087,-6.7611366],[-53.3056106,-6.7590007],[-53.311577,-6.7552478],[-53.3178863,-6.7533135],[-53.3247732,-6.7503122],[-53.3280287,-6.7509315],[-53.3312481,-6.7528248],[-53.3340211,-6.7537075],[-53.3441941,-6.7494164],[-53.3466033,-6.7471131],[-53.3477755,-6.7437863],[-53.3568001,-6.7375675],[-53.3630274,-6.7281088],[-53.3684969,-6.7232522],[-53.3726947,-6.7225343],[-53.3758591,-6.7228819],[-53.3790848,-6.724066],[-53.3820824,-6.7233048],[-53.3880846,-6.7197327],[-53.3909713,-6.7193474],[-53.3949152,-6.7176253],[-53.3959135,-6.7141174],[-53.3995751,-6.7087681],[-53.404834,-6.6972921],[-53.4053549,-6.6943992],[-53.407329,-6.6916339],[-53.4101071,-6.6896208],[-53.4121358,-6.6873076],[-53.4127737,-6.6840632],[-53.4186851,-6.6785808],[-53.4218362,-6.6770211],[-53.4240552,-6.6749884],[-53.4278913,-6.6738165],[-53.4313876,-6.6755313],[-53.4406934,-6.6839149],[-53.4432682,-6.6855996],[-53.4460799,-6.6865784],[-53.4496068,-6.6861122],[-53.4524676,-6.6843711],[-53.4563858,-6.6833809],[-53.4598865,-6.6811956],[-53.4629093,-6.6801772],[-53.4645238,-6.6767692],[-53.4613554,-6.6695329],[-53.4589443,-6.6678476],[-53.4571915,-6.6654486],[-53.4614132,-6.6588434],[-53.4621316,-6.6551378],[-53.4637717,-6.6513682],[-53.4629915,-6.6461853],[-53.4629722,-6.6397482],[-53.4685203,-6.6347168],[-53.4673306,-6.6318754],[-53.4645745,-6.6282746],[-53.4587724,-6.6256913],[-53.4565517,-6.6229211],[-53.4559317,-6.6193505],[-53.4614989,-6.6140661],[-53.4643307,-6.6127743],[-53.4669097,-6.6102914],[-53.4669152,-6.6068463],[-53.468997,-6.6033682],[-53.4696963,-6.6004827],[-53.4664421,-6.6002252],[-53.4631039,-6.5990561],[-53.4614439,-6.5962973],[-53.4589659,-6.5899823],[-53.4565258,-6.5870229],[-53.4535539,-6.5850467],[-53.451721,-6.582559],[-53.4526102,-6.5797651],[-53.4496667,-6.5775185],[-53.4472202,-6.573927],[-53.441881,-6.5615695],[-53.4400573,-6.559071],[-53.4367209,-6.5573673],[-53.4346889,-6.5551425],[-53.4283271,-6.5527183],[-53.4250531,-6.5534587],[-53.4210814,-6.5562654],[-53.4173018,-6.5625172],[-53.4134682,-6.5631556],[-53.4072488,-6.5618273],[-53.4035464,-6.5646358],[-53.4018628,-6.5675897],[-53.3998008,-6.5739727],[-53.3933616,-6.5816136],[-53.3863579,-6.5870673],[-53.3804677,-6.5899182],[-53.3738615,-6.5940232],[-53.3706639,-6.5913165],[-53.3687422,-6.587823],[-53.366602,-6.5855969],[-53.3652483,-6.582756],[-53.3645231,-6.5784773],[-53.3614965,-6.5757789],[-53.3517189,-6.564029],[-53.3481316,-6.5622159],[-53.3423848,-6.55302],[-53.3415749,-6.5493669],[-53.3425459,-6.5459503],[-53.3419091,-6.5426682],[-53.3391626,-6.5403399],[-53.3376952,-6.536855],[-53.3373267,-6.5338625],[-53.3315799,-6.5310881],[-53.3291596,-6.5222419],[-53.327077,-6.5191097],[-53.3243086,-6.517048],[-53.3223825,-6.5139124],[-53.3222149,-6.5101064],[-53.3204658,-6.5071637],[-53.317883,-6.505652],[-53.3142731,-6.4995447],[-53.3195522,-6.4947759],[-53.322352,-6.4820106],[-53.3255775,-6.4766901],[-53.3242446,-6.4735038],[-53.3213551,-6.4716744],[-53.3137163,-6.4633645],[-53.3106351,-6.4628884],[-53.3088298,-6.4601562],[-53.3032492,-6.4569459],[-53.2996126,-6.458101],[-53.2967194,-6.4583493],[-53.2946082,-6.4611484],[-53.2911112,-6.4678337],[-53.288269,-6.4697122],[-53.2843013,-6.4689652],[-53.2812488,-6.4673976],[-53.2783801,-6.4611266],[-53.2750288,-6.4611951],[-53.2675764,-6.4634892],[-53.2600537,-6.4637134],[-53.257411,-6.465055],[-53.2578046,-6.4747601],[-53.255964,-6.4778325],[-53.2524085,-6.4801601],[-53.2486013,-6.4809484],[-53.2453284,-6.4926164],[-53.2418816,-6.4947732],[-53.2373526,-6.5004446],[-53.2314636,-6.502632],[-53.227498,-6.5004396],[-53.2267409,-6.4942087],[-53.2309617,-6.4872602],[-53.2285249,-6.4850684],[-53.2152981,-6.484153],[-53.215414,-6.4805283],[-53.21819,-6.4742947],[-53.216857,-6.4716507],[-53.2145813,-6.4694582],[-53.2045742,-6.4748333],[-53.2005774,-6.4754337],[-53.1973308,-6.4766845],[-53.1930459,-6.4764706],[-53.1885792,-6.4707193],[-53.1856095,-6.4678041],[-53.1855251,-6.4646538],[-53.1831871,-6.462519],[-53.1817739,-6.4587101],[-53.1827717,-6.4554477],[-53.1924151,-6.441566],[-53.1957401,-6.4414899],[-53.1993824,-6.4425074],[-53.2022144,-6.4403599],[-53.2040572,-6.4360128],[-53.2108808,-6.4304455],[-53.213104,-6.4243901],[-53.211582,-6.4218371],[-53.2084402,-6.4192761],[-53.2061856,-6.4152753],[-53.2060206,-6.4120905],[-53.2049667,-6.4085536],[-53.2023595,-6.4058108],[-53.1997506,-6.4041593],[-53.1965788,-6.4029618],[-53.1934989,-6.402579],[-53.1911582,-6.4005653],[-53.1913823,-6.3965702],[-53.1924923,-6.3925022],[-53.192244,-6.3888752],[-53.1948312,-6.3811848],[-53.1951353,-6.3774691],[-53.1938849,-6.374836],[-53.1943583,-6.3714814],[-53.197022,-6.3679692],[-53.2046627,-6.3653942],[-53.2082191,-6.3626057],[-53.2104922,-6.3590829],[-53.2116,-6.3563712],[-53.2064651,-6.3511652],[-53.206137,-6.3476294],[-53.2086909,-6.3448394],[-53.2111039,-6.3378692],[-53.2140253,-6.3364468],[-53.2171877,-6.3364688],[-53.2341041,-6.3395872],[-53.2368528,-6.3376111],[-53.2350494,-6.3353299],[-53.2340804,-6.3311503],[-53.2349672,-6.3236288],[-53.2320801,-6.320261],[-53.2293525,-6.3190544],[-53.2254096,-6.3152247],[-53.2233613,-6.3123997],[-53.2257137,-6.3100515],[-53.2288857,-6.3108066],[-53.2321301,-6.3108295],[-53.2312743,-6.307735],[-53.2293819,-6.3052738],[-53.2263836,-6.3038046],[-53.2245164,-6.3014328],[-53.2239157,-6.2981679],[-53.2264689,-6.295007],[-53.2291902,-6.293671],[-53.2327172,-6.2932431],[-53.2396102,-6.294925],[-53.2427722,-6.2950381],[-53.246992,-6.289177],[-53.2569388,-6.2914236],[-53.2602124,-6.2892691],[-53.2613289,-6.2864668],[-53.2618865,-6.2819376],[-53.2613041,-6.2784005],[-53.2587779,-6.2754764],[-53.2557998,-6.2731945],[-53.2538241,-6.2701889],[-53.254941,-6.2670168],[-53.2584663,-6.266406],[-53.2657227,-6.2664623],[-53.2685524,-6.2650286],[-53.2692178,-6.2608712],[-53.2671575,-6.2543192],[-53.2715766,-6.2476443],[-53.2751328,-6.24414],[-53.2817703,-6.2392945],[-53.2861624,-6.2343355],[-53.2867175,-6.2308],[-53.2851301,-6.2278863],[-53.2856061,-6.2247232],[-53.2890476,-6.224292],[-53.2893334,-6.2207561],[-53.2877716,-6.213675],[-53.2876857,-6.2096865],[-53.2896336,-6.2064349],[-53.2900258,-6.20308],[-53.2947228,-6.1926708],[-53.2990776,-6.1771315],[-53.3069351,-6.1656757],[-53.3105844,-6.1657003],[-53.3163539,-6.1694602],[-53.3197185,-6.1681163],[-53.3224387,-6.166239],[-53.3254087,-6.1668025],[-53.3283875,-6.1690053],[-53.3301919,-6.1718178],[-53.3373259,-6.1741415],[-53.3405766,-6.1757921],[-53.3454414,-6.1807251],[-53.3482721,-6.1778451],[-53.3513794,-6.1718811],[-53.3504991,-6.1683446],[-53.3483612,-6.1656013],[-53.347217,-6.1614315],[-53.3483568,-6.1529143],[-53.3483817,-6.1480226],[-53.3468589,-6.1446471],[-53.3434374,-6.1424557],[-53.3407487,-6.1395309],[-53.3401302,-6.1355344],[-53.3408845,-6.1319167],[-53.3438043,-6.1298487],[-53.3506107,-6.1285378],[-53.3536023,-6.1267519],[-53.353666,-6.1195907],[-53.3544102,-6.1167804],[-53.3578512,-6.1169002],[-53.3615533,-6.1185603],[-53.3646338,-6.1187637],[-53.3711668,-6.1177216],[-53.3729126,-6.1150987],[-53.3737493,-6.111123],[-53.3740685,-6.1038399],[-53.3754693,-6.1002662],[-53.3789939,-6.0991012],[-53.3880539,-6.10007],[-53.388248,-6.0961739],[-53.3827449,-6.0816269],[-53.3777204,-6.0752464],[-53.374103,-6.0716878],[-53.3718831,-6.0681317],[-53.3707458,-6.0603278],[-53.3689698,-6.0579558],[-53.3545709,-6.0524937],[-53.3511627,-6.0510257],[-53.348105,-6.0487425],[-53.3451333,-6.0478176],[-53.342023,-6.0501467],[-53.3379672,-6.0493904],[-53.3347185,-6.0474704],[-53.3257153,-6.0524785],[-53.3227979,-6.0521846],[-53.3207417,-6.0495409],[-53.3199693,-6.0459954],[-53.3150508,-6.0366235],[-53.3118833,-6.0341492],[-53.2998799,-6.029621],[-53.2935526,-6.0287538],[-53.2858565,-6.0288803],[-53.2824165,-6.0277727],[-53.2771101,-6.0240132],[-53.2736617,-6.0224444],[-53.2709654,-6.0197978],[-53.2721615,-6.0169078],[-53.2763823,-6.0129431],[-53.2768602,-6.0087762],[-53.2740251,-6.0004348],[-53.2741662,-5.9968905],[-53.2762456,-5.9892085],[-53.2792432,-5.9817672],[-53.2697485,-5.9716864],[-53.2636233,-5.9681473],[-53.259239,-5.9670383],[-53.255804,-5.9684886],[-53.2523541,-5.9689658],[-53.2483539,-5.9682994],[-53.2453857,-5.9659363],[-53.2426677,-5.9595752],[-53.2436641,-5.9561316],[-53.2438584,-5.9527763],[-53.241858,-5.950052],[-53.2356891,-5.9509459],[-53.2341566,-5.9482248],[-53.2274676,-5.9458537],[-53.2215436,-5.9428553],[-53.2183049,-5.9428489],[-53.2157729,-5.9451148],[-53.2084093,-5.9541724],[-53.202415,-5.9586142],[-53.1921947,-5.957423],[-53.1856658,-5.9555047],[-53.1829312,-5.9529535],[-53.1740962,-5.9476943],[-53.170884,-5.9469481],[-53.1673554,-5.9451335],[-53.16475,-5.9425897],[-53.1637443,-5.9387726],[-53.1606601,-5.935776],[-53.1581337,-5.9342242],[-53.1548538,-5.9346713],[-53.1516919,-5.9358518],[-53.1490789,-5.9377556],[-53.14074,-5.9280219],[-53.1387434,-5.9221227],[-53.1411315,-5.9143234],[-53.141773,-5.9082393],[-53.1405208,-5.900985],[-53.1338,-5.9022404],[-53.1309097,-5.9019646],[-53.1279954,-5.9008651],[-53.1238584,-5.8956913],[-53.1227704,-5.8926931],[-53.1173318,-5.8877821],[-53.1150783,-5.8845977],[-53.1124369,-5.8823313],[-53.1118008,-5.8791485],[-53.1129877,-5.8760681],[-53.1121081,-5.8732529],[-53.1093803,-5.8719827],[-53.1019342,-5.8712375],[-53.0971287,-5.8721349],[-53.0941571,-5.8719483],[-53.0903508,-5.8692215],[-53.0886331,-5.8654122],[-53.0850249,-5.8630464],[-53.0817458,-5.864306],[-53.0774928,-5.8691101],[-53.0783011,-5.8723754],[-53.0779916,-5.8793641],[-53.0751067,-5.8824515],[-53.06858,-5.8854353],[-53.0591331,-5.8860532],[-53.0566001,-5.8838672],[-53.0547995,-5.880592],[-53.0539929,-5.8769641],[-53.050075,-5.8762079],[-53.0465755,-5.8747725],[-53.043384,-5.8753999],[-53.040303,-5.8769417],[-53.0363203,-5.8765732],[-53.0329645,-5.8751099],[-53.0295158,-5.8745623],[-53.026637,-5.8682907],[-53.0210194,-5.8635612],[-53.0195103,-5.8569493],[-53.0129061,-5.8542081],[-53.0097974,-5.8519232],[-53.0070723,-5.8508316],[-53.0041012,-5.8504665],[-53.000525,-5.8511654],[-52.992573,-5.8493339],[-52.9843007,-5.8448073],[-52.9808583,-5.8459322],[-52.9758564,-5.8450813],[-52.9714672,-5.8410472],[-52.9635432,-5.8294254],[-52.9629349,-5.815997],[-52.9584994,-5.8077965],[-52.952241,-5.798608],[-52.9426857,-5.7956238],[-52.9318591,-5.7912086],[-52.9297402,-5.7796146],[-52.9313273,-5.7753312],[-52.9287418,-5.7732739],[-52.927686,-5.7676573],[-52.9311007,-5.7570041],[-52.9401273,-5.752635],[-52.9393767,-5.7440264],[-52.9302091,-5.7413141],[-52.9267391,-5.7381793],[-52.9216584,-5.7370504],[-52.9179633,-5.7240214],[-52.8962142,-5.7056617],[-52.8885456,-5.7026633],[-52.8829648,-5.7035386],[-52.8759989,-5.6980705],[-52.8705814,-5.6981341],[-52.8708816,-5.7024952],[-52.8651833,-5.7025554],[-52.8587988,-5.7081573],[-52.8569661,-5.7127184],[-52.8545782,-5.7104796],[-52.8514095,-5.7100592],[-52.8495169,-5.7039067],[-52.8361864,-5.7036005],[-52.8382186,-5.6977623],[-52.8321588,-5.6899387],[-52.821661,-5.6992196],[-52.8163224,-5.7003677],[-52.8144952,-5.7065551],[-52.8086055,-5.7083439],[-52.8022709,-5.715671],[-52.7965486,-5.7154611],[-52.7914582,-5.7144288],[-52.784383,-5.722226],[-52.7764338,-5.7243961],[-52.7715181,-5.72227],[-52.7680206,-5.7155905],[-52.7643508,-5.7126362],[-52.7592119,-5.7140527],[-52.753188,-5.7114015],[-52.7497938,-5.7067192],[-52.7474383,-5.6984753],[-52.7407154,-5.6960116],[-52.7395717,-5.6918504],[-52.7450729,-5.6902441],[-52.7462708,-5.6823361],[-52.742658,-5.6840089],[-52.7376254,-5.6810678],[-52.733107,-5.6803898],[-52.7235762,-5.6708771],[-52.720211,-5.67],[-52.7148846,-5.6697812],[-52.7096304,-5.6703842],[-52.7025232,-5.6676454],[-52.6987023,-5.663894],[-52.6966525,-5.6609973],[-52.6916346,-5.6565101],[-52.6902417,-5.6537143],[-52.6938243,-5.6420592],[-52.6945702,-5.6355056],[-52.6992373,-5.6231215],[-52.7007909,-5.6153238],[-52.7006606,-5.6122118],[-52.6968563,-5.6100698],[-52.6882381,-5.5930986],[-52.6842719,-5.5871483],[-52.6827661,-5.581991],[-52.6827676,-5.5736475],[-52.6855473,-5.5615394],[-52.6853228,-5.5488361],[-52.6868786,-5.5431883],[-52.6855179,-5.52505],[-52.6889898,-5.5184843],[-52.6918554,-5.5162757],[-52.691829,-5.5122806],[-52.6901591,-5.5082982],[-52.685688,-5.5059921],[-52.6823218,-5.5052062],[-52.6822177,-5.5004236],[-52.6847121,-5.4979429],[-52.6838249,-5.4951194],[-52.6763423,-5.4851005],[-52.6736338,-5.479502],[-52.6726862,-5.4758657],[-52.6722135,-5.4651408],[-52.6715178,-5.4618684],[-52.6664072,-5.4464783],[-52.6688242,-5.4388788],[-52.6726818,-5.4331014],[-52.6730757,-5.4300185],[-52.6704623,-5.4284497],[-52.6668513,-5.4287853],[-52.66413,-5.4274874],[-52.6623821,-5.4221921],[-52.6622776,-5.4176011],[-52.6614637,-5.4131144],[-52.6549643,-5.4102423],[-52.653518,-5.4073272],[-52.6510967,-5.4046738],[-52.6459898,-5.4005382],[-52.644212,-5.3966225],[-52.6417108,-5.3811659],[-52.6506033,-5.3710767],[-52.6502695,-5.3665367],[-52.6485703,-5.3637946],[-52.6431052,-5.3585644],[-52.6422103,-5.3556523],[-52.6428845,-5.3526705],[-52.645355,-5.3476874],[-52.6537959,-5.3378754],[-52.6551836,-5.3345253],[-52.6543219,-5.3283479],[-52.6544046,-5.3201746],[-52.6560772,-5.3135597],[-52.6598514,-5.3083335],[-52.6580428,-5.2977802],[-52.6560746,-5.2943125],[-52.6495202,-5.2886299],[-52.6445694,-5.282769],[-52.6427119,-5.2786697],[-52.6354372,-5.2720633],[-52.6310772,-5.2654904],[-52.62896,-5.2555774],[-52.6270175,-5.2528321],[-52.6176268,-5.2487532],[-52.614133,-5.2459059],[-52.6122458,-5.2430721],[-52.6097687,-5.2451458],[-52.6068802,-5.246387],[-52.603073,-5.2461706],[-52.6004638,-5.2435159],[-52.5942668,-5.2390099],[-52.5851227,-5.2357511],[-52.5769126,-5.2351268],[-52.572606,-5.2284635],[-52.5719094,-5.2253701],[-52.5660705,-5.2217742],[-52.5608554,-5.2171943],[-52.5583724,-5.2194351],[-52.557825,-5.2229703],[-52.5560774,-5.2258582],[-52.5507946,-5.2288112],[-52.5473273,-5.2294993],[-52.5369297,-5.2285892],[-52.5304046,-5.2299833],[-52.5273118,-5.2298676],[-52.5144934,-5.2257531],[-52.5074898,-5.2196969],[-52.504327,-5.2186679],[-52.4973256,-5.2193472],[-52.4943508,-5.2181559],[-52.4928258,-5.2149783],[-52.4909616,-5.2012712],[-52.4886001,-5.1982698],[-52.4855421,-5.1983537],[-52.4775443,-5.2042285],[-52.4745754,-5.2047646],[-52.471575,-5.2033914],[-52.4673463,-5.1948476],[-52.4620172,-5.1907487],[-52.4527097,-5.1870007],[-52.4500988,-5.1849956],[-52.4451534,-5.1671934],[-52.4425437,-5.1647372],[-52.4393728,-5.1630924],[-52.4314326,-5.1569891],[-52.42638,-5.1539845],[-52.423214,-5.1547903],[-52.420573,-5.1570518],[-52.4181296,-5.1603108],[-52.4152119,-5.1617507],[-52.4104852,-5.1662759],[-52.4092934,-5.1699872],[-52.4079876,-5.1836002],[-52.4059881,-5.1860449],[-52.3994064,-5.1849327],[-52.3975685,-5.1876507],[-52.3965681,-5.1909205],[-52.3934855,-5.1968064],[-52.3831592,-5.2000441],[-52.3780728,-5.2032039],[-52.3747959,-5.2045613],[-52.3711803,-5.2036381],[-52.3702058,-5.2002729],[-52.3681291,-5.1979074],[-52.3599072,-5.1927165],[-52.3461849,-5.1803304],[-52.3433806,-5.1793206],[-52.3395753,-5.1795818],[-52.3363159,-5.1804772],[-52.3330465,-5.1821047],[-52.3275157,-5.1861677],[-52.3235437,-5.1870692],[-52.3168236,-5.190225],[-52.3135699,-5.1899361],[-52.3086512,-5.1947317],[-52.3052101,-5.1960775],[-52.2953476,-5.1944149],[-52.2918218,-5.1970375],[-52.288909,-5.2034744],[-52.2879081,-5.2070059],[-52.2855388,-5.2089076],[-52.2824606,-5.2100716],[-52.2802661,-5.2173338],[-52.2782621,-5.2205028],[-52.2751813,-5.2229439],[-52.2737116,-5.2260212],[-52.2739603,-5.2293925],[-52.277525,-5.2413309],[-52.2821237,-5.250914],[-52.2840168,-5.2576342],[-52.2829346,-5.2608121],[-52.280212,-5.2637974],[-52.2786573,-5.2678796],[-52.2792696,-5.2748683],[-52.273103,-5.2770287],[-52.2705435,-5.2793726],[-52.26701,-5.2783685],[-52.2616236,-5.2718184],[-52.2586277,-5.2695413],[-52.2548199,-5.2698921],[-52.2500159,-5.2744975],[-52.2468464,-5.2755831],[-52.238879,-5.2761924],[-52.2360682,-5.2777202],[-52.2328783,-5.2802519],[-52.2282399,-5.2871361],[-52.2257983,-5.2888555],[-52.2229004,-5.2895712],[-52.2196283,-5.2886462],[-52.2134883,-5.2911684],[-52.2110169,-5.2935221],[-52.2068478,-5.3002258],[-52.2046496,-5.3025793],[-52.2017681,-5.3038373],[-52.195514,-5.3014582],[-52.191264,-5.3014458],[-52.1837368,-5.2997878],[-52.1795669,-5.3001371],[-52.1729586,-5.3047462],[-52.1668756,-5.311986],[-52.1621478,-5.3148733],[-52.155541,-5.3158478],[-52.1482958,-5.3160981],[-52.1450185,-5.3171738],[-52.1423949,-5.3190007],[-52.1369275,-5.3259508],[-52.1364616,-5.3335786],[-52.1230444,-5.3399757],[-52.11921,-5.3429528],[-52.1122094,-5.3512844],[-52.1092369,-5.3526309],[-52.1073513,-5.349995],[-52.1064312,-5.3469906],[-52.1073454,-5.3430972],[-52.1148269,-5.3341372],[-52.1167381,-5.3310602],[-52.1171803,-5.3280609],[-52.1164865,-5.3245149],[-52.1166885,-5.3209834],[-52.118852,-5.3182687],[-52.119514,-5.3141854],[-52.1181515,-5.310999],[-52.1137325,-5.3048224],[-52.1132099,-5.3019097],[-52.1142322,-5.2950149],[-52.113791,-5.2914715],[-52.1086509,-5.284831],[-52.1068773,-5.2747481],[-52.1052645,-5.2713883],[-52.1027355,-5.2688418],[-52.0999269,-5.2674676],[-52.0942313,-5.2626329],[-52.0907909,-5.2608058],[-52.0879061,-5.2598931],[-52.0818452,-5.2595049],[-52.078126,-5.2574039],[-52.0747073,-5.2520429],[-52.0700134,-5.2465777],[-52.0685178,-5.2430302],[-52.067486,-5.2238758],[-52.0748252,-5.2190901],[-52.0760165,-5.2156485],[-52.0708739,-5.2071028],[-52.0699013,-5.2039185],[-52.0684035,-5.1919278],[-52.0655112,-5.1888389],[-52.0594612,-5.1871809],[-52.0581249,-5.1843588],[-52.0569596,-5.1796366],[-52.0583515,-5.1724729],[-52.0508688,-5.1559289],[-52.0510747,-5.1514007],[-52.0094807,-5.1518568],[-51.5004566,-5.150155],[-50.9301963,-5.1505729],[-50.9272346,-5.1514518],[-50.9248996,-5.1491748],[-50.9217235,-5.1492417],[-50.9190838,-5.1506719],[-50.9149796,-5.1561685],[-50.9123355,-5.1583229],[-50.9094471,-5.1587532],[-50.9095954,-5.1618431],[-50.9075925,-5.1640086],[-50.899146,-5.1572312],[-50.8969519,-5.1595683],[-50.896035,-5.1628344],[-50.8937588,-5.1651702],[-50.8900367,-5.1664062],[-50.8872016,-5.1688385],[-50.8839438,-5.1689968],[-50.8792777,-5.1640617],[-50.8757503,-5.1642151],[-50.8721912,-5.1693508],[-50.8692843,-5.1715144],[-50.8674508,-5.1740337],[-50.8645583,-5.1752853],[-50.8606696,-5.1757059],[-50.8573942,-5.1775868],[-50.8545909,-5.1755692],[-50.8541768,-5.1715851],[-50.8526772,-5.1683993],[-50.8499799,-5.1666514],[-50.846501,-5.1651913],[-50.8417529,-5.1650494],[-50.8388414,-5.1662981],[-50.8356739,-5.166816],[-50.8282807,-5.164223],[-50.8246428,-5.1651899],[-50.8221453,-5.1628109],[-50.8193945,-5.1557173],[-50.8170617,-5.1534393],[-50.8131704,-5.1522299],[-50.8105368,-5.1542022],[-50.8076438,-5.1553624],[-50.8051712,-5.1577869],[-50.8022814,-5.1564993],[-50.7985061,-5.1557409],[-50.795669,-5.1567189],[-50.7896694,-5.1642017],[-50.7866776,-5.1652682],[-50.7842254,-5.1632532],[-50.7813428,-5.1641325],[-50.7795076,-5.1669303],[-50.7771745,-5.1647335],[-50.7708635,-5.162056],[-50.7674171,-5.1624006],[-50.7653903,-5.1688178],[-50.7614773,-5.1722396],[-50.7582005,-5.1727547],[-50.7553894,-5.1739141],[-50.7532164,-5.1758856],[-50.750131,-5.1756595],[-50.7443019,-5.176453],[-50.7288049,-5.1769845],[-50.7245252,-5.1753662],[-50.7202039,-5.1746578],[-50.7215337,-5.178452],[-50.7198942,-5.1817037],[-50.7200309,-5.1863269],[-50.7208077,-5.1897815],[-50.7196136,-5.1937659],[-50.7213935,-5.1966813],[-50.7242818,-5.198241],[-50.7260673,-5.2021614],[-50.7268921,-5.2097748],[-50.7261418,-5.2132206],[-50.7235038,-5.2178204],[-50.7249158,-5.2203728],[-50.7287223,-5.2204017],[-50.7356125,-5.2173678],[-50.7543096,-5.2209585],[-50.7608126,-5.2211004],[-50.7641719,-5.2221289],[-50.7670591,-5.2237789],[-50.7687277,-5.227147],[-50.7713645,-5.2373261],[-50.769895,-5.2406691],[-50.7675327,-5.2423733],[-50.7656164,-5.2447108],[-50.7653067,-5.2487893],[-50.7660926,-5.2524238],[-50.7652508,-5.2563099],[-50.7631733,-5.2583857],[-50.7633084,-5.2619266],[-50.7609489,-5.2648035],[-50.7619546,-5.2740622],[-50.7620897,-5.2812245],[-50.7605092,-5.2850263],[-50.7606694,-5.288747],[-50.7588079,-5.2947161],[-50.7569827,-5.2973248],[-50.7550343,-5.3038414],[-50.7542817,-5.3080096],[-50.7546165,-5.3114512],[-50.7570337,-5.3132868],[-50.7621407,-5.309703],[-50.7706673,-5.3058634],[-50.773557,-5.3053467],[-50.7917588,-5.3150038],[-50.7925606,-5.318187],[-50.7946184,-5.3202825],[-50.7959467,-5.3231967],[-50.7986438,-5.3250265],[-50.8006145,-5.3277643],[-50.7997799,-5.330568],[-50.7958633,-5.3356211],[-50.7945572,-5.3388737],[-50.7951912,-5.3496666],[-50.7948373,-5.3528348],[-50.7956128,-5.3560162],[-50.798035,-5.3588477],[-50.7987317,-5.3621198],[-50.794895,-5.3675261],[-50.7898696,-5.3726553],[-50.7894787,-5.3768246],[-50.7907808,-5.3829991],[-50.7899526,-5.3860727],[-50.7856697,-5.3906657],[-50.7869993,-5.3933091],[-50.7868684,-5.3996548],[-50.7905667,-5.4031243],[-50.8009946,-5.4086436],[-50.8093883,-5.411336],[-50.8187254,-5.408781],[-50.8238067,-5.4085547],[-50.8272311,-5.4093943],[-50.8327295,-5.4120586],[-50.8356154,-5.4123554],[-50.8389761,-5.411749],[-50.8416184,-5.4101365],[-50.8452512,-5.4092525],[-50.8474637,-5.4151656],[-50.8573965,-5.4179702],[-50.8635693,-5.4225268],[-50.8617813,-5.4250684],[-50.8635676,-5.4287996],[-50.8662538,-5.4309075],[-50.8714747,-5.4332109],[-50.8754521,-5.4336008],[-50.8785295,-5.4331751],[-50.8833103,-5.4340287],[-50.8856718,-5.435947],[-50.8877322,-5.438867],[-50.8881448,-5.4430391],[-50.8808927,-5.4459724],[-50.8793153,-5.448954],[-50.8816449,-5.4523251],[-50.8818959,-5.4563184],[-50.8791598,-5.4593057],[-50.8789785,-5.4704184],[-50.8782286,-5.4742431],[-50.8786425,-5.4779646],[-50.8764248,-5.4843],[-50.8743095,-5.4884525],[-50.8743115,-5.4915334],[-50.8783648,-5.4928359],[-50.8809827,-5.4947548],[-50.8889206,-5.4954562],[-50.891893,-5.4965633],[-50.8937871,-5.5004117],[-50.8964476,-5.5026532],[-50.910705,-5.5113363],[-50.915747,-5.5136235],[-50.9272868,-5.5159451],[-50.9308959,-5.5178609],[-50.9352285,-5.5212334],[-50.9402011,-5.5212608],[-50.9454243,-5.5232815],[-50.9473976,-5.5258282],[-50.9487322,-5.5330782],[-50.9517801,-5.5353523],[-50.9551132,-5.5365524],[-50.9563653,-5.5405402],[-50.9533698,-5.5475965],[-50.9467812,-5.5600513],[-50.9458724,-5.5645807],[-50.9466424,-5.5689291],[-50.9508659,-5.5761932],[-50.951649,-5.580278],[-50.9451136,-5.5872163],[-50.9452886,-5.591931],[-50.9462541,-5.5952871],[-50.9460317,-5.6033427],[-50.9476485,-5.6083349],[-50.9528345,-5.6143417],[-50.9501135,-5.6166754],[-50.9458707,-5.6169314],[-50.9421701,-5.6184481],[-50.9378666,-5.6251259],[-50.9339714,-5.6267273],[-50.9299235,-5.626818],[-50.9267576,-5.628247],[-50.9244773,-5.6306822],[-50.9200302,-5.630116],[-50.9169779,-5.628647],[-50.9127126,-5.6281838],[-50.9042265,-5.6299512],[-50.8984248,-5.632902],[-50.8953373,-5.632984],[-50.8920086,-5.6308795],[-50.8879504,-5.6318611],[-50.8850353,-5.6334709],[-50.8819744,-5.633636],[-50.8781711,-5.6325304],[-50.8771439,-5.6374207],[-50.874696,-5.6409373],[-50.8706195,-5.6422788],[-50.8696769,-5.6510505],[-50.8662854,-5.6606405],[-50.8653432,-5.6666139],[-50.8654272,-5.6709575],[-50.8634209,-5.673213],[-50.860703,-5.6748327],[-50.858615,-5.6769974],[-50.8565097,-5.6806971],[-50.8562859,-5.6886598],[-50.8513651,-5.6974285],[-50.8471437,-5.7063716],[-50.8483892,-5.7097283],[-50.8526472,-5.7102952],[-50.858614,-5.7102357],[-50.8648719,-5.7084557],[-50.8706737,-5.7056782],[-50.8736445,-5.7072285],[-50.8768103,-5.7076086],[-50.8825358,-5.7025668],[-50.8935933,-5.6976394],[-50.8990358,-5.6943132],[-50.9065329,-5.6935362],[-50.9068622,-5.6977928],[-50.9029508,-5.7031175],[-50.9005934,-5.7051898],[-50.8985042,-5.709251],[-50.8987526,-5.7132453],[-50.9040616,-5.7183396],[-50.9031444,-5.722687],[-50.9042829,-5.7260333],[-50.910893,-5.7272536],[-50.9111227,-5.7365818],[-50.9156407,-5.7355135],[-50.9179747,-5.7383352],[-50.9205907,-5.7404262],[-50.9211988,-5.744874],[-50.9202903,-5.7477677],[-50.9173692,-5.7501982],[-50.9152827,-5.7537167],[-50.9177901,-5.7575318],[-50.9279495,-5.7670067],[-50.9286747,-5.7699914],[-50.9259535,-5.7723326],[-50.921506,-5.7733109],[-50.9178938,-5.7751073],[-50.9150655,-5.7773585],[-50.91378,-5.7811531],[-50.9175387,-5.7894964],[-50.9203087,-5.7926836],[-50.9242816,-5.7943314],[-50.928448,-5.795266],[-50.9329483,-5.79791],[-50.935562,-5.8004616],[-50.9392803,-5.8022859],[-50.9461554,-5.8037497],[-50.9521745,-5.7922957],[-50.9543379,-5.7897689],[-50.9573403,-5.7887032],[-50.9603117,-5.7885367],[-50.9624368,-5.7842208],[-50.967561,-5.7885664],[-50.9697039,-5.791566],[-50.9728714,-5.7934007],[-50.9769183,-5.7930529],[-50.9829803,-5.794447],[-50.9861495,-5.7942742],[-50.9944198,-5.7873465],[-51.0004517,-5.7838194],[-51.0060334,-5.7852052],[-51.0124508,-5.7837399],[-51.0219791,-5.7869949],[-51.0247815,-5.7861697],[-51.0266191,-5.7837139],[-51.0295959,-5.7823478],[-51.0322334,-5.7836972],[-51.0341417,-5.7815235],[-51.0360321,-5.7774225],[-51.0305969,-5.7723586],[-51.0315601,-5.7694421],[-51.0377957,-5.7657204],[-51.0408025,-5.7658571],[-51.0433411,-5.7643386],[-51.0494238,-5.7665908],[-51.0517853,-5.7638675],[-51.0551497,-5.7646796],[-51.0597822,-5.7701177],[-51.062589,-5.7717442],[-51.0635883,-5.7754702],[-51.0623422,-5.7807397],[-51.0650619,-5.7820958],[-51.0689554,-5.7809996],[-51.0800451,-5.7826994],[-51.0864491,-5.7809712],[-51.0878134,-5.784327],[-51.0880052,-5.7874103],[-51.0892032,-5.7914986],[-51.0912898,-5.7950387],[-51.0935617,-5.7972992],[-51.0975632,-5.7987484],[-51.1010879,-5.8012907],[-51.1110066,-5.8147134],[-51.1141197,-5.8237897],[-51.1164855,-5.8276844],[-51.1173134,-5.8315893],[-51.1168438,-5.8353188],[-51.1133539,-5.8409428],[-51.1118971,-5.8450474],[-51.1058145,-5.8501451],[-51.1070975,-5.8535033],[-51.1134516,-5.861303],[-51.117172,-5.864475],[-51.1187295,-5.8689175],[-51.1154734,-5.8697407],[-51.1118379,-5.8692063],[-51.1098496,-5.8721421],[-51.1098758,-5.8752942],[-51.1131483,-5.890185],[-51.1147023,-5.8933649],[-51.1232559,-5.9051509],[-51.123977,-5.9125966],[-51.1258956,-5.915316],[-51.1260945,-5.9187671],[-51.1370603,-5.9182014],[-51.1397005,-5.9212849],[-51.1409779,-5.9240109],[-51.1439806,-5.9249115],[-51.1531188,-5.9199006],[-51.1550403,-5.9220772],[-51.1581202,-5.9239815],[-51.1613953,-5.9244228],[-51.1642844,-5.9279582],[-51.1636721,-5.931136],[-51.1616807,-5.9339618],[-51.1612296,-5.9372291],[-51.1627838,-5.9407694],[-51.162786,-5.9438583],[-51.1612638,-5.946588],[-51.1611729,-5.9502174],[-51.1628156,-5.9539388],[-51.1700651,-5.9562891],[-51.1748143,-5.9636284],[-51.1776211,-5.9658095],[-51.1807855,-5.9651655],[-51.1839815,-5.9657851],[-51.1885088,-5.9614232],[-51.1913974,-5.9599639],[-51.1957593,-5.9600511],[-51.1976783,-5.9625889],[-51.1986786,-5.967129],[-51.2016506,-5.9666645],[-51.2052008,-5.9647496],[-51.2108165,-5.9633772],[-51.2140866,-5.9632754],[-51.2182538,-5.964355],[-51.2219791,-5.9635338],[-51.2242618,-5.9658034],[-51.2247014,-5.9699803],[-51.2263473,-5.9733378],[-51.2292623,-5.9752321],[-51.2359866,-5.976133],[-51.2376981,-5.9786707],[-51.2378185,-5.9818516],[-51.2327348,-5.9887638],[-51.2301167,-5.9903113],[-51.2317549,-5.9932109],[-51.2351149,-5.9950252],[-51.2384532,-5.995565],[-51.2419243,-5.9971903],[-51.2463692,-5.9969949],[-51.2491501,-5.9916273],[-51.2517072,-5.989625],[-51.2548717,-5.9907979],[-51.2573636,-5.9929818],[-51.2636737,-5.9949607],[-51.2701197,-5.9904945],[-51.2745627,-5.9904958],[-51.2780904,-5.9914735],[-51.2811735,-5.9908393],[-51.2831723,-5.9884718],[-51.2843437,-5.9853803],[-51.292151,-5.979366],[-51.2946779,-5.9814469],[-51.3016778,-5.9814361],[-51.3062887,-5.9805184],[-51.3062862,-5.9773316],[-51.3116216,-5.9725061],[-51.314616,-5.9711387],[-51.319598,-5.9664938],[-51.3226751,-5.9652152],[-51.3298454,-5.9635599],[-51.3326455,-5.9651913],[-51.3363666,-5.9653719],[-51.3391822,-5.9639944],[-51.3455402,-5.9638895],[-51.3503441,-5.9657915],[-51.3574209,-5.9668553],[-51.3597876,-5.9686733],[-51.3594575,-5.9755578],[-51.3614501,-5.9817434],[-51.3630972,-5.9848335],[-51.3659015,-5.9860041],[-51.3687321,-5.9850863],[-51.3720654,-5.9851727],[-51.3785324,-5.9908784],[-51.380263,-5.9933257],[-51.3829292,-6.0003583],[-51.387368,-6.0050525],[-51.389781,-6.0106539],[-51.391982,-6.0133546],[-51.3932856,-6.0161549],[-51.3925109,-6.0197005],[-51.3940951,-6.0233124],[-51.3962049,-6.0256531],[-51.3979572,-6.0294456],[-51.3974543,-6.0326248],[-51.3950152,-6.0345572],[-51.3945909,-6.0380945],[-51.3996021,-6.0425205],[-51.401645,-6.0458248],[-51.3997043,-6.0491119],[-51.3946539,-6.0532359],[-51.3915935,-6.0549114],[-51.3847359,-6.0570645],[-51.3801786,-6.0559296],[-51.376081,-6.0535196],[-51.3704288,-6.0490442],[-51.3685923,-6.0460625],[-51.365709,-6.0482734],[-51.3634859,-6.0522003],[-51.3622285,-6.0561056],[-51.3582576,-6.0556979],[-51.3548765,-6.05419],[-51.3480959,-6.0553412],[-51.3386248,-6.0600635],[-51.3361527,-6.0668],[-51.3338112,-6.0690034],[-51.3302866,-6.0693094],[-51.3240609,-6.0730906],[-51.3162853,-6.0747946],[-51.3111703,-6.0786543],[-51.3143693,-6.0820756],[-51.312871,-6.0856289],[-51.3105325,-6.0873706],[-51.3002212,-6.0872017],[-51.3005974,-6.0901935],[-51.2993655,-6.0944671],[-51.2972039,-6.0967596],[-51.2908729,-6.0981849],[-51.2883725,-6.1011956],[-51.2848412,-6.102959],[-51.2809487,-6.1027226],[-51.2731713,-6.1132344],[-51.2720087,-6.1162363],[-51.2699525,-6.1190712],[-51.2686732,-6.1272482],[-51.2647009,-6.1284645],[-51.2620058,-6.1309456],[-51.2594533,-6.1387719],[-51.2599588,-6.142578],[-51.2596245,-6.1459364],[-51.2535071,-6.1513526],[-51.2509296,-6.1551862],[-51.2522315,-6.1587075],[-51.2544298,-6.1620427],[-51.2502002,-6.1671703],[-51.2484224,-6.1702674],[-51.245728,-6.172377],[-51.2348417,-6.1702143],[-51.2278449,-6.1696568],[-51.2239301,-6.1682347],[-51.2202019,-6.1762539],[-51.2209838,-6.1805131],[-51.2192851,-6.1841632],[-51.2123954,-6.1831408],[-51.2097317,-6.181259],[-51.2039274,-6.1714278],[-51.2002342,-6.1725474],[-51.1981768,-6.1754711],[-51.1943712,-6.1761501],[-51.1867044,-6.1787642],[-51.1830899,-6.1807032],[-51.1811239,-6.1828966],[-51.1774799,-6.1903747],[-51.1735683,-6.1900468],[-51.167003,-6.1878451],[-51.164225,-6.1903113],[-51.1639802,-6.1938514],[-51.161261,-6.2005023],[-51.1585328,-6.2020683],[-51.1527589,-6.2037633],[-51.1504215,-6.2064142],[-51.1470688,-6.2069931],[-51.1459273,-6.2107252],[-51.1487768,-6.2166843],[-51.1488407,-6.2217613],[-51.1467838,-6.2243233],[-51.1471718,-6.2277674],[-51.1482054,-6.2304752],[-51.1484283,-6.2343772],[-51.1531786,-6.246937],[-51.1559245,-6.2501789],[-51.1574817,-6.2531578],[-51.1574541,-6.2596072],[-51.1586731,-6.263128],[-51.16051,-6.2661898],[-51.1642289,-6.2671591],[-51.16751,-6.2668517],[-51.1740939,-6.2642489],[-51.1759495,-6.2704006],[-51.1773447,-6.2731086],[-51.187761,-6.2703836],[-51.1909234,-6.2688019],[-51.1936467,-6.2715884],[-51.1948997,-6.2789308],[-51.1970933,-6.2809007],[-51.1988424,-6.2835221],[-51.1989777,-6.2867834],[-51.1955961,-6.2941643],[-51.1947362,-6.2976181],[-51.1919203,-6.3002764],[-51.1885095,-6.3009436],[-51.186623,-6.3038688],[-51.1821422,-6.3202402],[-51.1795647,-6.3237108],[-51.1764037,-6.3252859],[-51.1736252,-6.3274918],[-51.1717982,-6.3312228],[-51.1689347,-6.3327661],[-51.1606826,-6.329346],[-51.1572347,-6.3298221],[-51.155065,-6.3317529],[-51.1517588,-6.3378583],[-51.1512636,-6.3409552],[-51.1522658,-6.3501992],[-51.1544771,-6.3565245],[-51.1593541,-6.365098],[-51.1607868,-6.3713449],[-51.16045,-6.3748853],[-51.1583922,-6.3774471],[-51.1554307,-6.3788316],[-51.1517,-6.3798659],[-51.1467279,-6.3800019],[-51.1432071,-6.3808477],[-51.1413128,-6.3832324],[-51.1450962,-6.3889974],[-51.1444816,-6.3920918],[-51.1457023,-6.3954331],[-51.1462828,-6.3997895],[-51.1455388,-6.4069655],[-51.1428733,-6.4132466],[-51.1422142,-6.4196011],[-51.1432047,-6.4298484],[-51.1453626,-6.4333783],[-51.1519799,-6.436923],[-51.154369,-6.4397199],[-51.1558696,-6.4429688],[-51.1576713,-6.4538367],[-51.1597832,-6.4560901],[-51.1626982,-6.4585991],[-51.1672857,-6.461279],[-51.1834804,-6.4672033],[-51.1720237,-6.4681194],[-51.1662618,-6.4717519],[-51.162504,-6.4710003],[-51.1605489,-6.4720561],[-51.1512307,-6.48052],[-51.1468466,-6.4830252],[-51.1375774,-6.4826494],[-51.1324418,-6.4787664],[-51.1297848,-6.4796029],[-51.1241747,-6.483401],[-51.1154066,-6.487785],[-51.1053858,-6.4897892],[-51.0986219,-6.4894134],[-51.0873485,-6.490666],[-51.0833402,-6.4925449],[-51.0796734,-6.4920449],[-51.0760752,-6.4907913],[-51.0695617,-6.490666],[-51.0643635,-6.4873466],[-51.0520732,-6.4809296],[-51.0468272,-6.4774512],[-51.037141355489844,-6.475196386330999],[-51.0363649,-6.4735488],[-51.0368706,-6.4705445],[-51.0354212,-6.4689914],[-51.0339787,-6.4686574],[-51.0337278,-6.4651701],[-51.032651,-6.4637902],[-51.0287856,-6.4631274],[-51.0262,-6.4614245],[-51.0264792,-6.45867],[-51.0258738,-6.4572306],[-51.0219203,-6.4575597],[-51.0189226,-6.4567755],[-51.0165372,-6.4550277],[-51.0156507,-6.452196],[-51.0094059,-6.4518542],[-51.0085322,-6.4514571],[-51.0061484,-6.4475962],[-51.0046974,-6.4469926],[-51.0032315,-6.4473723],[-51.0018684,-6.4470392],[-50.9995386,-6.4452375],[-50.9978922,-6.4451113],[-50.9940643,-6.4430127],[-50.9921206,-6.442874],[-50.9917019,-6.4418321],[-50.9896788,-6.4415105],[-50.9890595,-6.440751],[-50.9870638,-6.4360967],[-50.982617,-6.4356551],[-50.9790893,-6.4344794],[-50.9754249,-6.4319816],[-50.9736488,-6.4325409],[-50.9635869,-6.4314149],[-50.9613699,-6.4301204],[-50.9594562,-6.4281495],[-50.9606478,-6.4252308],[-50.9606744,-6.4239342],[-50.9596462,-6.4220291],[-50.9565325,-6.4211871],[-50.9552297,-6.419554],[-50.9525903,-6.4211827],[-50.9493931,-6.4208657],[-50.9445907,-6.4151933],[-50.9431165,-6.4124295],[-50.9421169,-6.4116488],[-50.9396702,-6.4111547],[-50.9388101,-6.4069859],[-50.9362037,-6.405978],[-50.9387842,-6.3990385],[-50.942784,-6.3981412],[-50.9427826,-6.3968671],[-50.942145,-6.3961608],[-50.9386724,-6.3950466],[-50.9382084,-6.3941941],[-50.9391766,-6.3923406],[-50.9413455,-6.3924258],[-50.9418386,-6.3915889],[-50.9418374,-6.3887526],[-50.9410931,-6.3863913],[-50.9388106,-6.3886786],[-50.9363426,-6.3855495],[-50.9346152,-6.3843482],[-50.9346157,-6.3824429],[-50.9352545,-6.3815618],[-50.938698,-6.381473],[-50.9424217,-6.3801586],[-50.9429237,-6.3793498],[-50.9425136,-6.3785347],[-50.940476,-6.3776657],[-50.9400563,-6.3764884],[-50.9407819,-6.3759238],[-50.9432328,-6.3775267],[-50.9442032,-6.3769825],[-50.9442059,-6.3749959],[-50.9448427,-6.3741599],[-50.9466192,-6.3734742],[-50.9475944,-6.3705939],[-50.9476762,-6.3659313],[-50.9460288,-6.3647928],[-50.9435647,-6.3642094],[-50.9433899,-6.363197],[-50.94406,-6.3593271],[-50.9453722,-6.356457],[-50.9451991,-6.3554591],[-50.9422854,-6.3544937],[-50.9383974,-6.3544256],[-50.9372613,-6.3541209],[-50.9369771,-6.3532704],[-50.9391742,-6.3502313],[-50.9389512,-6.3480537],[-50.9397805,-6.3438416],[-50.9374269,-6.3384902],[-50.9378394,-6.3373548],[-50.939587,-6.336184],[-50.9391219,-6.3330677],[-50.943253,-6.3312553],[-50.9437561,-6.3303977],[-50.9435861,-6.3284047],[-50.9424532,-6.3274039],[-50.9413697,-6.3272259],[-50.9390903,-6.3292181],[-50.9378417,-6.3277641],[-50.9364259,-6.3243154],[-50.9347007,-6.3224541],[-50.9325609,-6.3205443],[-50.929727,-6.3198694],[-50.9239841,-6.314553],[-50.9205106,-6.316427],[-50.9193366,-6.3162774],[-50.9119029,-6.3135443],[-50.9077258,-6.3127593],[-50.9057538,-6.3115367],[-50.9048986,-6.3095911],[-50.9029773,-6.3088204],[-50.9022023,-6.3069096],[-50.9012303,-6.3062266],[-50.8971758,-6.3071786],[-50.8960843,-6.3066854],[-50.896314,-6.3046813],[-50.8931762,-6.3004188],[-50.8863688,-6.299413],[-50.8816482,-6.2967293],[-50.879561,-6.2968162],[-50.8754215,-6.2998786],[-50.8744817,-6.2997105],[-50.8727833,-6.2981021],[-50.8688077,-6.2982498],[-50.8673958,-6.2954242],[-50.8656498,-6.2942138],[-50.8646747,-6.2910377],[-50.862063,-6.2896758],[-50.8607046,-6.2869778],[-50.8592819,-6.2906271],[-50.859506,-6.293934],[-50.8590019,-6.2947969],[-50.8570038,-6.2952454],[-50.8533714,-6.3011197],[-50.8512231,-6.3035275],[-50.8493649,-6.3030901],[-50.8488637,-6.3021309],[-50.8489213,-6.2987362],[-50.8475309,-6.2970123],[-50.8501156,-6.2940112],[-50.8498124,-6.2918424],[-50.8437579,-6.2917418],[-50.8425624,-6.2876814],[-50.8415658,-6.2865919],[-50.8366756,-6.2852703],[-50.8355285,-6.2844101],[-50.8333391,-6.2809171],[-50.8278388,-6.2803674],[-50.8271726,-6.2772646],[-50.8258081,-6.2755977],[-50.8216725,-6.2765297],[-50.8207802,-6.2759907],[-50.8203898,-6.2719713],[-50.8196432,-6.2713998],[-50.8165621,-6.2720466],[-50.809921,-6.2772078],[-50.8069003,-6.28054],[-50.8024748,-6.2814249],[-50.7991191,-6.2849979],[-50.7991206,-6.2860814],[-50.8015388,-6.289509],[-50.7998407,-6.2924601],[-50.7997342,-6.2937686],[-50.8021153,-6.2957253],[-50.8025579,-6.3003507],[-50.7990366,-6.3027489],[-50.8002591,-6.3067652],[-50.8068658,-6.3096958],[-50.8108111,-6.3133314],[-50.8161436,-6.3206774],[-50.8174141,-6.324853],[-50.8192556,-6.3246322],[-50.8211749,-6.3211407],[-50.8220599,-6.3214178],[-50.823386,-6.3244723],[-50.8233646,-6.3310787],[-50.8250942,-6.3321637],[-50.8256741,-6.3332579],[-50.8261466,-6.3371261],[-50.8255638,-6.3409427],[-50.8221406,-6.344695],[-50.8205683,-6.3437491],[-50.8169217,-6.3456038],[-50.815288,-6.3481842],[-50.8115622,-6.3515833],[-50.8092806,-6.3564728],[-50.8086235,-6.3635049],[-50.8091177,-6.365721],[-50.8105088,-6.367036],[-50.8167008,-6.3681405],[-50.8189197,-6.369039],[-50.8241756,-6.3727271],[-50.826642,-6.3758627],[-50.826232,-6.3778592],[-50.8246968,-6.3805693],[-50.8245893,-6.3818679],[-50.826086,-6.3839537],[-50.8254821,-6.3882117],[-50.8245026,-6.3900647],[-50.8185071,-6.3948691],[-50.8157544,-6.4001529],[-50.8104766,-6.4070987],[-50.8083439,-6.4070042],[-50.8057052,-6.4039631],[-50.8019779,-6.4044636],[-50.7989511,-6.4056808],[-50.7980029,-6.4055404],[-50.7954586,-6.4035996],[-50.7929753,-6.4029079],[-50.7916403,-6.4054917],[-50.7883086,-6.4161437],[-50.7835874,-6.4210076],[-50.7822577,-6.4212972],[-50.7807555,-6.4228416],[-50.780479,-6.4238331],[-50.781696,-6.4255191],[-50.7865089,-6.4264973],[-50.7897304,-6.4259586],[-50.7916973,-6.4267104],[-50.7921702,-6.4289976],[-50.7912543,-6.4352135],[-50.7893952,-6.436158],[-50.7832238,-6.4371314],[-50.7785884,-6.4370932],[-50.7765022,-6.4379107],[-50.775145,-6.4395363],[-50.7741762,-6.4424933],[-50.7690631,-6.4519184],[-50.7680032,-6.4566742],[-50.7662018,-6.4586202],[-50.7636989,-6.4599829],[-50.764091,-6.4665545],[-50.7650866,-6.4716285],[-50.7647008,-6.47854],[-50.7664509,-6.4836775],[-50.7668389,-6.4877545],[-50.7661506,-6.4896497],[-50.7625037,-6.4941443],[-50.7578708,-6.4975825],[-50.75112,-6.4985405],[-50.7384517,-6.4946069],[-50.7285308,-6.4936564],[-50.7257528,-6.4926373],[-50.7241172,-6.4939078],[-50.7236195,-6.4997006],[-50.7284257,-6.5043189],[-50.7303104,-6.507861],[-50.7291141,-6.5124937],[-50.7244495,-6.5165542],[-50.718755,-6.5191002],[-50.7161194,-6.5265853],[-50.7173369,-6.5355301],[-50.7159752,-6.5418878],[-50.7050303,-6.5411654],[-50.6996381,-6.5415183],[-50.6942841,-6.5390908],[-50.6871194,-6.5410199],[-50.6814,-6.5403964],[-50.6753918,-6.54107],[-50.6677246,-6.5437528],[-50.6620896,-6.5438979],[-50.6549736,-6.5426852],[-50.6471722,-6.5425512],[-50.643811,-6.5396328],[-50.6408684,-6.5349452],[-50.6361745,-6.5362229],[-50.6311726,-6.5364883],[-50.6280843,-6.5426242],[-50.6250583,-6.5396249],[-50.6229538,-6.5339048],[-50.6196199,-6.5280049],[-50.6118423,-6.5309606],[-50.6027308,-6.5359535],[-50.5969506,-6.5323218],[-50.5935883,-6.5280023],[-50.590004,-6.5220204],[-50.5863692,-6.5206942],[-50.5789212,-6.5217008],[-50.5775088,-6.5246529],[-50.5742816,-6.5284133],[-50.5687828,-6.5247842],[-50.5635075,-6.5240614],[-50.5572588,-6.5243258],[-50.5469752,-6.5312782],[-50.5425065,-6.5315906],[-50.5291495,-6.5138272],[-50.522422,-6.5084158],[-50.5172257,-6.5083259],[-50.511562,-6.5126835],[-50.5033373,-6.5083475],[-50.5000605,-6.5129372],[-50.4987516,-6.516423],[-50.494892,-6.5137878],[-50.4917761,-6.5104437],[-50.4845862,-6.5147633],[-50.4797765,-6.5121205],[-50.4746701,-6.5078247],[-50.4683034,-6.5067686],[-50.4631702,-6.5067066],[-50.4573696,-6.5047418],[-50.4466692,-6.5053997],[-50.4362238,-6.5070683],[-50.4316681,-6.5069189],[-50.4240854,-6.5103311],[-50.4207827,-6.5107058],[-50.4196395,-6.510251],[-50.4170627,-6.5075739],[-50.4147521,-6.5017886],[-50.4156715,-6.4972112],[-50.4128087,-6.4928038],[-50.4114998,-6.4913695],[-50.4105335,-6.4912183],[-50.4101419,-6.4903491],[-50.4127549,-6.4839407],[-50.4127263,-6.4815849],[-50.4117829,-6.4807651],[-50.4048398,-6.4781719],[-50.4009759,-6.4786752],[-50.3981115,-6.4797217],[-50.3918417,-6.479217],[-50.3883423,-6.4842651],[-50.3859744,-6.4852942],[-50.3824515,-6.4843495],[-50.3768617,-6.4816826],[-50.3749184,-6.4814792],[-50.3708614,-6.479889],[-50.3681405,-6.4798425],[-50.3638935,-6.4807958],[-50.3618952,-6.4821073],[-50.3571744,-6.4886001],[-50.3539749,-6.4909696],[-50.3536145,-6.4920491],[-50.3533365,-6.4955035],[-50.3539207,-6.500002],[-50.356278,-6.5012183],[-50.3582772,-6.5034428],[-50.3610252,-6.5050265],[-50.3576967,-6.516482],[-50.3567578,-6.5175392],[-50.3488928,-6.5175114],[-50.3468357,-6.5180371],[-50.3450835,-6.5203979],[-50.3451913,-6.5216188],[-50.3462022,-6.5231052],[-50.3519492,-6.5285705],[-50.3538669,-6.5320769],[-50.354032,-6.5356157],[-50.3496687,-6.5389422],[-50.3450907,-6.5404522],[-50.3428909,-6.5421708],[-50.3410249,-6.5449982],[-50.3341735,-6.5481367],[-50.3318366,-6.5502999],[-50.3306716,-6.5525746],[-50.3309157,-6.5609808],[-50.3284443,-6.567648],[-50.3256672,-6.5702646],[-50.319338,-6.5738812],[-50.3144784,-6.5788124],[-50.3129183,-6.5823989],[-50.3109472,-6.5933677],[-50.3068614,-6.6004847],[-50.306358,-6.6094509],[-50.3031655,-6.6209078],[-50.3013653,-6.6246213],[-50.3011168,-6.6288428],[-50.3004697,-6.6295148],[-50.2949544,-6.6254752],[-50.2891123,-6.6159294],[-50.2817194,-6.6129145],[-50.2751404,-6.6026675],[-50.2693128,-6.5961901],[-50.2655311,-6.596299],[-50.2617787,-6.5997342],[-50.2569501,-6.6022166],[-50.2558921,-6.6022186],[-50.2536445,-6.6016666],[-50.2518092,-6.6005267],[-50.2491146,-6.5955787],[-50.2447471,-6.5903917],[-50.2431442,-6.5873478],[-50.2416995,-6.5861025],[-50.2376706,-6.5890229],[-50.2353946,-6.5887802],[-50.2343791,-6.5855413],[-50.2339445,-6.5783012],[-50.2328625,-6.5766951],[-50.2318588,-6.5765711],[-50.23095,-6.5772952],[-50.2294486,-6.5796119],[-50.2237002,-6.5853517],[-50.2223371,-6.5850355],[-50.2213395,-6.5841166],[-50.220086,-6.5813912],[-50.2189478,-6.5812373],[-50.2166701,-6.582293],[-50.2143644,-6.5846496],[-50.2106146,-6.5867705],[-50.2094486,-6.5888451],[-50.2080809,-6.5892498],[-50.2074181,-6.5825857],[-50.2059749,-6.5808054],[-50.2028886,-6.5787897],[-50.1998927,-6.5791622],[-50.1971958,-6.5806314],[-50.1904679,-6.5826728],[-50.1800076,-6.5793358],[-50.1775913,-6.5794717],[-50.1738648,-6.5786412],[-50.1662792,-6.5796731],[-50.1659246,-6.5787501],[-50.1675579,-6.5731883],[-50.1675824,-6.5710492],[-50.1667214,-6.5685939],[-50.1644474,-6.5672709],[-50.1619514,-6.567315],[-50.1588383,-6.5664702],[-50.1566124,-6.5666597],[-50.152468,-6.5681005],[-50.1454217,-6.5720326],[-50.1400833,-6.5784363],[-50.137639,-6.5786773],[-50.1359467,-6.5800185],[-50.1350003,-6.5796242],[-50.1332821,-6.5773093],[-50.1316137,-6.5732264],[-50.1303846,-6.5718555],[-50.1250044,-6.5696206],[-50.1220521,-6.5667017],[-50.1125523,-6.5650494],[-50.1107204,-6.5634103],[-50.1092788,-6.5557664],[-50.1101079,-6.5526331],[-50.109336,-6.5507244],[-50.1075575,-6.5495468],[-50.101668,-6.5484456],[-50.0957464,-6.5506453],[-50.0923658,-6.5504919],[-50.0890558,-6.5481304],[-50.0844102,-6.5457955],[-50.0808862,-6.5418959],[-50.0767245,-6.5387312],[-50.0739994,-6.5380162],[-50.0705003,-6.5380079],[-50.0573738,-6.540362],[-50.0517584,-6.5419032],[-50.0468933,-6.5402592],[-50.044949,-6.5402972],[-50.0402517,-6.5443119],[-50.0348886,-6.5445773],[-50.0341693,-6.5452013],[-50.0297225,-6.5462317],[-50.0272496,-6.5511288],[-50.0249159,-6.5533919],[-50.0221949,-6.554563],[-50.0138036,-6.5523126],[-50.0089456,-6.5537445],[-50.0079221,-6.5515713],[-50.0068312,-6.551292],[-50.0048198,-6.552253],[-50.0028862,-6.5493492],[-50.0007782,-6.5490528],[-49.9977279,-6.5500028],[-49.9927566,-6.5558846],[-49.9915274,-6.5608958],[-49.9901934,-6.5637538],[-49.9885006,-6.5651115],[-49.9834146,-6.5656382],[-49.9818887,-6.5709862],[-49.980194,-6.5725765],[-49.9741122,-6.5722138],[-49.9731938,-6.5726304],[-49.972195,-6.5743661],[-49.9714982,-6.5778046],[-49.9705797,-6.5784458],[-49.9683015,-6.5783815],[-49.9678031,-6.5807409],[-49.9662736,-6.583147],[-49.9602769,-6.5855532],[-49.9588626,-6.5871113],[-49.9577925,-6.5906135],[-49.9554219,-6.5910075],[-49.9506123,-6.5954148],[-49.9496706,-6.5955695],[-49.9472294,-6.5945232],[-49.946165,-6.5951983],[-49.9424761,-6.5984527],[-49.9412194,-6.6018522],[-49.9382541,-6.6028573],[-49.9323288,-6.6074266],[-49.9282006,-6.6079792],[-49.9278278,-6.6071292],[-49.92689,-6.6067968],[-49.9246713,-6.6083924],[-49.9210539,-6.6150197],[-49.9188042,-6.6168603],[-49.9159989,-6.6170881],[-49.9152451,-6.6152707],[-49.9136963,-6.6166643],[-49.911774,-6.6172889],[-49.9110293,-6.6165711],[-49.9110266,-6.6147049],[-49.9098871,-6.6147036],[-49.9076107,-6.6197731],[-49.9041103,-6.62226],[-49.9041661,-6.6263474],[-49.9036601,-6.6282546],[-49.900946,-6.6286038],[-49.8993521,-6.630189],[-49.8946376,-6.6324827],[-49.892056,-6.6329944],[-49.888637,-6.6327317],[-49.8821371,-6.6349337],[-49.8772472,-6.6356869],[-49.8655248,-6.6413179],[-49.8565539,-6.6477263],[-49.855309,-6.6496117],[-49.8478622,-6.6552028],[-49.846273,-6.6571584],[-49.8437203,-6.658507],[-49.8406696,-6.6589504],[-49.836855,-6.65871],[-49.8341991,-6.6573808],[-49.8320273,-6.6594541],[-49.830915,-6.6595439],[-49.8279664,-6.6584008],[-49.8226401,-6.6605565],[-49.816117,-6.6609344],[-49.8150247,-6.6605924],[-49.8133029,-6.658756],[-49.8104177,-6.6539732],[-49.8017478,-6.6510283],[-49.7980041,-6.6467209],[-49.7910786,-6.6423332],[-49.7840297,-6.6416061],[-49.7831036,-6.6419238],[-49.781968,-6.6447541],[-49.7827517,-6.6513632],[-49.7782476,-6.6600548],[-49.7773848,-6.6603722],[-49.775833,-6.6588718],[-49.7730811,-6.658107],[-49.7692242,-6.6597533],[-49.7661615,-6.6623226],[-49.7630216,-6.6626096],[-49.7598897,-6.6618641],[-49.759134,-6.6623446],[-49.7564134,-6.661194],[-49.7541325,-6.662455],[-49.752223,-6.6625929],[-49.7483826,-6.6663918],[-49.7394489,-6.6725293],[-49.7382758,-6.6742047],[-49.7380228,-6.6763767],[-49.740634,-6.6817921],[-49.7409405,-6.6882769],[-49.744357,-6.6966779],[-49.7434424,-6.7022188],[-49.7447709,-6.7084862],[-49.7450314,-6.7126494],[-49.729788597584495,-6.714714115502387],[-49.4112773,-6.4452729],[-49.3522767,-6.5220013],[-49.1502439,-6.789021],[-49.1443243,-6.7928357],[-49.1391907,-6.7952264],[-49.1351635,-6.8025406],[-49.1335539,-6.8079308],[-49.1272439,-6.8127341],[-49.1246921,-6.8218983],[-49.1171351,-6.8229476],[-49.1118874,-6.8228874],[-49.1060759,-6.8250624],[-49.1021001,-6.8279424],[-49.0993556,-6.8292229],[-49.0990801,-6.8322917],[-49.0973546,-6.8346889],[-49.088078,-6.8394863],[-49.0834133,-6.843251],[-49.0894379,-6.8480525],[-49.1030511,-6.8571659],[-49.1152709,-6.8699495],[-49.1396613,-6.8826422],[-49.1504653,-6.8888509],[-49.160795,-6.8918838],[-49.1719412,-6.8929351],[-49.1794893,-6.8980556],[-49.1839167,-6.9078872],[-49.1883588,-6.9113752],[-49.1985514,-6.9162177],[-49.2095281,-6.9254206],[-49.2145843,-6.9382688],[-49.216215,-6.9480187],[-49.2174451,-6.9614693],[-49.2153798,-6.9757338],[-49.2092684,-6.9829886],[-49.2029456,-7.000543],[-49.1979663,-7.0192902],[-49.1952789,-7.0262647],[-49.1914006,-7.0554525],[-49.1913048,-7.0749287],[-49.1917725,-7.0850758],[-49.1930816,-7.0946449],[-49.193796,-7.1298147],[-49.189268,-7.1679343],[-49.1871931,-7.1924811],[-49.1831997,-7.2145997],[-49.1836897,-7.2266322],[-49.1852842,-7.2351718],[-49.190225,-7.2458031],[-49.1948877,-7.252964],[-49.2007143,-7.2603697],[-49.2067867,-7.2707293],[-49.2128621,-7.2907765],[-49.2159234,-7.2977333],[-49.2259259,-7.3165121],[-49.231475,-7.3257861],[-49.233937,-7.3289086],[-49.2400753,-7.3342435],[-49.2543332,-7.3494278],[-49.2694453,-7.3728486],[-49.2738517,-7.3784205],[-49.2873228,-7.3908166],[-49.2938028,-7.398714],[-49.3007894,-7.4108627],[-49.3086618,-7.4203107],[-49.314528,-7.4267535],[-49.322858,-7.4340162],[-49.3291653,-7.4423736],[-49.3472493,-7.4616155],[-49.3633367,-7.4808501],[-49.3699507,-7.4880482],[-49.3733221,-7.4907966],[-49.3779974,-7.4964458],[-49.3778077,-7.5002475],[-49.3805546,-7.5199739],[-49.3819791,-7.5263814],[-49.384052,-7.5434922],[-49.3835648,-7.556931],[-49.3815774,-7.5691029],[-49.374356,-7.5884896],[-49.3636424,-7.6108203],[-49.3507501,-7.6321353],[-49.3460523,-7.6432712],[-49.3436628,-7.6529708],[-49.3401424,-7.6604679],[-49.3351473,-7.6686781],[-49.328079,-7.677795],[-49.3232252,-7.6817477],[-49.2965276,-7.6964425],[-49.2878059,-7.7041754],[-49.2812758,-7.7086424],[-49.2739989,-7.7158381],[-49.2681987,-7.7204984],[-49.2399968,-7.7407245],[-49.2335232,-7.7472933],[-49.2260562,-7.757113],[-49.2211632,-7.7615992],[-49.2067488,-7.771252],[-49.2031415,-7.774497],[-49.1922168,-7.780734],[-49.1856373,-7.7836514],[-49.1701904,-7.787116],[-49.16552,-7.7887831],[-49.1607401,-7.791369],[-49.1578843,-7.7937865],[-49.1505808,-7.8021977],[-49.1484434,-7.8073148],[-49.1500554,-7.8121134],[-49.1555803,-7.8205782],[-49.164913,-7.8328703],[-49.1677757,-7.8543473],[-49.1656673,-7.8627889],[-49.1663877,-7.8803307],[-49.1627769,-7.9005312],[-49.1632428,-7.9212833],[-49.1665567,-7.9442418],[-49.1696421,-7.9547897],[-49.1779044,-7.9684083],[-49.1820284,-7.9769635],[-49.181853,-7.9848715],[-49.1756307,-8.0092381],[-49.1737507,-8.0144182],[-49.1732831,-8.0209737],[-49.1748337,-8.0343813],[-49.1760806,-8.0404071],[-49.1761728,-8.0440387],[-49.1748807,-8.0505521],[-49.1767186,-8.0615112],[-49.1781072,-8.0647607],[-49.1830531,-8.0706254],[-49.193163,-8.0764651],[-49.1950152,-8.0790342],[-49.1993582,-8.0875683],[-49.2000243,-8.101705],[-49.2023268,-8.1103027],[-49.2058158,-8.1173212],[-49.2073277,-8.1225007],[-49.2072437,-8.1271216],[-49.2038625,-8.1400069],[-49.2095817,-8.1754892],[-49.215854,-8.1942117],[-49.2196555,-8.2017515],[-49.2306391,-8.2177797],[-49.2363896,-8.2325214],[-49.2418605,-8.2418223],[-49.2486603,-8.2553764],[-49.2537449,-8.2710272],[-49.2541175,-8.2787896],[-49.2552709,-8.2852419],[-49.2576645,-8.2909379],[-49.2617486,-8.3038745],[-49.2651403,-8.3232024],[-49.2671354,-8.3300294],[-49.2674375,-8.3341894],[-49.2762439,-8.3636838],[-49.2833241,-8.3795572],[-49.2904652,-8.3884298],[-49.2937775,-8.3916803],[-49.2991332,-8.3953662],[-49.313299,-8.4028977],[-49.3329979,-8.4102259],[-49.3380798,-8.4107367],[-49.3494094,-8.4183765],[-49.3528841,-8.4225293],[-49.3575542,-8.4299292],[-49.3665527,-8.4406629],[-49.3770137,-8.4552851],[-49.3791073,-8.4594433],[-49.3820835,-8.4703929],[-49.3851296,-8.4786095],[-49.3889963,-8.4846617],[-49.3914974,-8.4897785],[-49.395161,-8.5075056],[-49.3961573,-8.5182897],[-49.3979145,-8.5240891],[-49.3991143,-8.5334208],[-49.399663,-8.5471129],[-49.3991084,-8.5510102],[-49.4005772,-8.5587983],[-49.4029083,-8.563478],[-49.4063295,-8.5737483],[-49.4098882,-8.5800019],[-49.4191109,-8.5874224],[-49.4353258,-8.5981887],[-49.4380538,-8.6010956],[-49.4514718,-8.6124966],[-49.4540257,-8.6153915],[-49.4561106,-8.6192859],[-49.4596943,-8.632245],[-49.4638052,-8.6394204],[-49.4713612,-8.6480958],[-49.4776631,-8.6628649],[-49.4795878,-8.6661248],[-49.4848039,-8.6824245],[-49.4898004,-8.6920374],[-49.4946373,-8.6979162],[-49.4999426,-8.7026341],[-49.5018338,-8.7063525],[-49.5085864,-8.7155183],[-49.5142218,-8.7244194],[-49.5216064,-8.7331438],[-49.5256052,-8.7393122],[-49.5323344,-8.7473076],[-49.5362469,-8.7544857],[-49.540088,-8.7572986],[-49.5434457,-8.761395],[-49.5477207,-8.7702019],[-49.5500006,-8.7771859],[-49.5620082,-8.7969918],[-49.5750292,-8.81352],[-49.5807764,-8.8186984],[-49.5845848,-8.8233223],[-49.5872272,-8.8282317],[-49.5902201,-8.83631],[-49.5924113,-8.8394912],[-49.5994434,-8.8427662],[-49.6078326,-8.8437741],[-49.6126673,-8.846228],[-49.6255293,-8.8477872],[-49.6383755,-8.8465336],[-49.6414979,-8.8467186],[-49.6564451,-8.8496419],[-49.6700302,-8.8533695],[-49.6843583,-8.8564749],[-49.6906406,-8.8635534],[-49.6978659,-8.8700115],[-49.699665,-8.8723667],[-49.706255,-8.8771863],[-49.7128112,-8.8845367],[-49.7292035,-8.8993308],[-49.7334988,-8.9027029],[-49.7450881,-8.9061636],[-49.7506368,-8.9129721],[-49.7541144,-8.9190636],[-49.7545518,-8.9219624],[-49.7608627,-8.9282313],[-49.7676841,-8.9336881],[-49.7708841,-8.9384896],[-49.7732583,-8.9467636],[-49.781532,-8.9620964],[-49.7936636,-8.9794338],[-49.7987731,-8.9834328],[-49.8012261,-8.9868849],[-49.8091656,-8.9924256],[-49.8146359,-8.99751],[-49.818726,-9.003274],[-49.8211358,-9.0049616],[-49.8356403,-9.0186355],[-49.8425897,-9.0273259],[-49.8479594,-9.0379106],[-49.8503352,-9.0467154],[-49.8506683,-9.0589009],[-49.8516138,-9.0654349],[-49.8544718,-9.0714657],[-49.867915,-9.0874098],[-49.8626383,-9.0814987],[-49.8619427,-9.0862267],[-49.8673317,-9.0970914],[-49.8712828,-9.1039725],[-49.8861421,-9.1243549],[-49.8968794,-9.1436736],[-49.8997534,-9.1465525],[-49.9030287,-9.1487198],[-49.9073355,-9.1503539],[-49.9100544,-9.1535224],[-49.9100611,-9.1572313],[-49.9092514,-9.1603167],[-49.906503,-9.1618677],[-49.9052515,-9.1653053],[-49.9054199,-9.1697448],[-49.9076961,-9.1738229],[-49.9123691,-9.1787074],[-49.9201144,-9.1839628],[-49.9248658,-9.1862261],[-49.9277859,-9.1895692],[-49.9375574,-9.1974468],[-49.943475,-9.2008857],[-49.9462218,-9.2039652],[-49.9538988,-9.2173701],[-49.9601956,-9.2253394],[-49.9661483,-9.2308641],[-49.971888,-9.2323985],[-49.9753352,-9.2325814],[-49.9791667,-9.2326602],[-49.9865609,-9.2313914],[-49.9907483,-9.2321119],[-49.9940595,-9.2340962],[-49.9969316,-9.2376524],[-50.0001155,-9.2481649],[-50.0005639,-9.2519747],[-50.0024787,-9.2556042],[-50.0032011,-9.2593295],[-50.0024772,-9.2624073],[-50.0027247,-9.2653074],[-50.0050057,-9.2687597],[-50.0133694,-9.2771254],[-50.0191212,-9.2812125],[-50.0224735,-9.2825838],[-50.0258645,-9.2828659],[-50.0308693,-9.2861417],[-50.0339821,-9.2869619],[-50.0377849,-9.2894054],[-50.0409798,-9.2944192],[-50.0431443,-9.3019467],[-50.0485011,-9.3080337],[-50.0507537,-9.3130697],[-50.055468,-9.3346989],[-50.0558065,-9.3423109],[-50.0535032,-9.3511918],[-50.0528335,-9.372673],[-50.0559167,-9.3759377],[-50.0585584,-9.379846],[-50.0590065,-9.3847404],[-50.0619243,-9.3907284],[-50.0655334,-9.4008017],[-50.0684501,-9.4048025],[-50.0719259,-9.4073507],[-50.0768342,-9.4120691],[-50.0818345,-9.4182463],[-50.0901168,-9.4315957],[-50.0930033,-9.440483],[-50.0945571,-9.4432093],[-50.0968979,-9.4552715],[-50.101701,-9.4668774],[-50.1040569,-9.4712383],[-50.1053376,-9.4754105],[-50.103593,-9.4802988],[-50.1047513,-9.484106],[-50.1053081,-9.4895539],[-50.1024791,-9.4933503],[-50.1014261,-9.5002841],[-50.104423,-9.5016156],[-50.1078691,-9.5045435],[-50.1079494,-9.5086302],[-50.094175,-9.5260349],[-50.0909198,-9.5328177],[-50.0895623,-9.5456929],[-50.0910663,-9.5495095],[-50.0930646,-9.5522482],[-50.0981419,-9.5574536],[-50.1017806,-9.5602115],[-50.1034741,-9.5627646],[-50.1050839,-9.5693041],[-50.1073321,-9.5725075],[-50.1080047,-9.5816736],[-50.1067563,-9.590552],[-50.1073697,-9.5942802],[-50.1113439,-9.5991232],[-50.1176187,-9.6037963],[-50.1201433,-9.6069911],[-50.1225902,-9.6103645],[-50.1235667,-9.6144595],[-50.1254486,-9.6187378],[-50.1274471,-9.6209281],[-50.1377529,-9.6248242],[-50.1390049,-9.6274599],[-50.1400323,-9.6365427],[-50.1394776,-9.6486048],[-50.1400573,-9.6545043],[-50.1407034,-9.6577774],[-50.1428343,-9.6632413],[-50.1501673,-9.6747268],[-50.1506765,-9.6781789],[-50.1497038,-9.6858825],[-50.1500361,-9.6927789],[-50.1510053,-9.6956082],[-50.1527251,-9.6981508],[-50.1591166,-9.6993898],[-50.1595967,-9.7095502],[-50.161279,-9.7128277],[-50.1672007,-9.7186878],[-50.1693677,-9.7221503],[-50.1817789,-9.735858],[-50.186306,-9.7424234],[-50.1900016,-9.7508669],[-50.1923465,-9.7542548],[-50.1955334,-9.7558258],[-50.1978964,-9.7588349],[-50.1990665,-9.7617432],[-50.2037848,-9.7909143],[-50.2076176,-9.8026518],[-50.2106101,-9.8062029],[-50.2143946,-9.813223],[-50.215812,-9.8201311],[-50.2156675,-9.828025],[-50.2161729,-9.8318399],[-50.2176161,-9.8345672],[-50.2248064,-9.8411535],[-50.5005925,-9.8239888],[-50.8428938,-9.8008231],[-51.3042873,-9.77286]],[[-49.8786396,-9.0952809],[-49.8720777,-9.0907569],[-49.867915,-9.0874098],[-49.8786396,-9.0952809]],[[-51.03823666641207,-6.481044535016902],[-51.0380305,-6.480774],[-51.0383455,-6.4777515],[-51.03823666641207,-6.481044535016902]],[[-51.042338,-6.4909144],[-51.042276258984515,-6.491532452999296],[-51.0421600584021,-6.490079903720913],[-51.042338,-6.4909144]],[[-51.0597025,-6.5226713],[-51.060169326737345,-6.523593757141904],[-51.05940261690176,-6.522813945098404],[-51.0597025,-6.5226713]],[[-51.0622346,-6.5239856],[-51.0608405,-6.5242764],[-51.06060824126913,-6.524040172228903],[-51.0622346,-6.5239856]],[[-51.0621455,-6.5254544],[-51.06159777720095,-6.527290222346949],[-51.0622346,-6.5239856],[-51.0621455,-6.5254544]],[[-51.0612326,-6.5285142],[-51.0598743,-6.5307152],[-51.06139763600045,-6.527961042858807],[-51.0612326,-6.5285142]],[[-50.9502841,-6.6882661],[-50.9513166,-6.6877497],[-50.952498965706575,-6.687517612873038],[-50.9502841,-6.6882661]],[[-50.7515581,-6.995623],[-50.7544494,-6.9976381],[-50.7613448,-7.0044576],[-50.7515581,-6.995623]],[[-50.431419,-7.697934],[-50.4268654,-7.6973384],[-50.42550077066356,-7.696973848240499],[-50.431419,-7.697934]],[[-50.5116199,-7.7658849],[-50.5131502,-7.7680925],[-50.5110358,-7.7650425],[-50.5101992,-7.7619389],[-50.5116199,-7.7658849]],[[-49.5886408,-8.7925704],[-49.5840799,-8.7879371],[-49.590198155154084,-8.793571068281725],[-49.5886408,-8.7925704]],[[-51.8908812,-8.3080236],[-51.89058570423014,-8.308160958464894],[-51.891213319157224,-8.306572668170093],[-51.8908812,-8.3080236]],[[-51.9107631,-8.2489135],[-51.9108747,-8.2535857],[-51.91059467107649,-8.24850312340716],[-51.9107631,-8.2489135]],[[-51.9080396,-8.2422777],[-51.90983228100003,-8.24664556215532],[-51.9058531,-8.2384856],[-51.9080396,-8.2422777]],[[-51.8856009,-8.2203664],[-51.8885706,-8.223278],[-51.88484486426189,-8.219954557169014],[-51.8856009,-8.2203664]],[[-51.8822426,-8.218537],[-51.883497291064806,-8.219220480282868],[-51.88180966756289,-8.218639018887293],[-51.8822426,-8.218537]],[[-51.8800707,-8.2190488],[-51.88070981823876,-8.218898194210322],[-51.879727708846886,-8.219814275072414],[-51.8800707,-8.2190488]],[[-51.8635746361029,-8.24619270363779],[-51.8660941,-8.2444125],[-51.8643252,-8.2459121],[-51.8635746361029,-8.24619270363779]],[[-51.859865129875224,-8.247332089282999],[-51.861557781901034,-8.246946718889692],[-51.8604863,-8.2473473],[-51.859865129875224,-8.247332089282999]],[[-51.784976130907374,-8.273064308950108],[-51.7908475,-8.2695051],[-51.7857904,-8.2728012],[-51.784976130907374,-8.273064308950108]],[[-51.78244031953466,-8.27376590308983],[-51.783294768356896,-8.273607595609775],[-51.7827086,-8.273797],[-51.78244031953466,-8.27376590308983]],[[-51.77517084300285,-8.273591342674885],[-51.77606831907599,-8.273777886360136],[-51.7756008,-8.2738642],[-51.77517084300285,-8.273591342674885]],[[-51.02218808107263,-7.360577519056939],[-51.0220957,-7.3588349],[-51.0225096,-7.3604622],[-51.02218808107263,-7.360577519056939]],[[-51.020606392496646,-7.360067148313619],[-51.02190057374742,-7.3606806391869934],[-51.0215926,-7.3607911],[-51.020606392496646,-7.360067148313619]],[[-50.996302456183905,-7.493433340254305],[-50.99618606423327,-7.492335479622827],[-50.9964786,-7.4926883],[-50.996302456183905,-7.493433340254305]],[[-50.9928678,-7.4986696],[-50.99614387606826,-7.49410409085062],[-50.9959841,-7.4947799],[-50.9928678,-7.4986696]],[[-50.9612878,-7.5746654],[-50.96134175685941,-7.573761560822182],[-50.9630101,-7.5822092],[-50.9612878,-7.5746654]],[[-50.9331156,-7.6048735],[-50.9372873,-7.6136517],[-50.932318119197504,-7.6035828253962405],[-50.9331156,-7.6048735]],[[-50.73558774566681,-7.743782629740522],[-50.736622,-7.7428872],[-50.7360905,-7.7437498],[-50.73558774566681,-7.743782629740522]],[[-50.7272784,-7.7436814],[-50.73276364889085,-7.743967042600327],[-50.730311,-7.7441272],[-50.7272784,-7.7436814]],[[-50.6166779,-7.7108556],[-50.617488989543695,-7.710374190403614],[-50.614748,-7.7134844],[-50.6166779,-7.7108556]],[[-50.5410319,-7.7476113],[-50.542096,-7.7473139],[-50.5401844,-7.7480449],[-50.5410319,-7.7476113]],[[-50.5256427,-7.7526058],[-50.52620152565372,-7.752672859937501],[-50.5233957,-7.7537772],[-50.5256427,-7.7526058]],[[-50.966264283928815,-7.370607921367649],[-50.9639533,-7.3726149],[-50.9655873,-7.3707559],[-50.966264283928815,-7.370607921367649]],[[-50.95412478415276,-7.374578035318872],[-50.9534506,-7.3746376],[-50.95267948279447,-7.374233100683361],[-50.95412478415276,-7.374578035318872]],[[-50.946641363306405,-7.371065728474302],[-50.9462303,-7.3708501],[-50.94593408378287,-7.370420082410006],[-50.946641363306405,-7.371065728474302]],[[-51.687665841127135,-6.805511045282461],[-51.6892342,-6.804627],[-51.6925138,-6.8036496],[-51.687665841127135,-6.805511045282461]],[[-51.7207394,-6.9080756],[-51.7139286,-6.907491],[-51.7104847,-6.9067526],[-51.7207394,-6.9080756]],[[-49.73303,-6.7174548],[-49.73298187282142,-6.717414107301178],[-49.8503904,-6.8162655],[-49.73303,-6.7174548]],[[-49.40401084077083,-7.682157699266694],[-49.40410658368114,-7.687500807328389],[-49.4036943,-7.682863],[-49.40401084077083,-7.682157699266694]],[[-49.4062758,-7.6781582],[-49.40492343063901,-7.680124310956119],[-49.4053809,-7.679105],[-49.4062758,-7.6781582]],[[-49.4141362,-7.6532449],[-49.4149648,-7.6587343],[-49.41368372004675,-7.652721713248343],[-49.4141362,-7.6532449]],[[-49.8497227,-7.9759024],[-49.8564407,-7.9727307],[-49.8589981,-7.9717912],[-49.8497227,-7.9759024]],[[-49.49718996711615,-7.827286324095309],[-49.4978906,-7.8285915],[-49.4971104,-7.8277015],[-49.49718996711615,-7.827286324095309]],[[-50.4349185,-7.7325681],[-50.434301763570815,-7.7326545110370395],[-50.4365879,-7.731221],[-50.4349185,-7.7325681]],[[-50.4290029,-7.7342353],[-50.4297794,-7.7335378],[-50.430258867610135,-7.7334664441521745],[-50.4290029,-7.7342353]],[[-50.01302987669483,-7.859191293723154],[-50.0137748,-7.859195],[-50.01513594370867,-7.860000403704789],[-50.01302987669483,-7.859191293723154]],[[-50.00750079918169,-7.859304363893921],[-50.0079461,-7.859166],[-50.009353505307736,-7.8591730023768465],[-50.00750079918169,-7.859304363893921]],[[-49.9989434,-7.8625454],[-50.0013202,-7.8612248],[-50.00537335135755,-7.859965404594859],[-49.9989434,-7.8625454]],[[-49.99637572075823,-7.866173562714045],[-49.9965078,-7.865878],[-49.9989434,-7.8625454],[-49.99637572075823,-7.866173562714045]],[[-49.8781946,-7.9560177],[-49.87772671877977,-7.956331201928065],[-49.87838548911318,-7.955583026311989],[-49.8781946,-7.9560177]],[[-49.876498,-7.9571545],[-49.8751715,-7.9572866],[-49.877109837814324,-7.956744540535587],[-49.876498,-7.9571545]],[[-49.862125503272985,-7.959105531468762],[-49.8624156,-7.9584759],[-49.86283401625575,-7.9581751588682215],[-49.862125503272985,-7.959105531468762]],[[-49.4182974,-6.9924288],[-49.41768472213001,-6.991502894036422],[-49.4214164,-6.9945368],[-49.4182974,-6.9924288]],[[-49.42745163780151,-6.857105759203417],[-49.4277165,-6.8578079],[-49.4278876,-6.8607365],[-49.42745163780151,-6.857105759203417]],[[-49.4016562,-6.829464],[-49.4042172,-6.831859],[-49.4074878,-6.8358401],[-49.4016562,-6.829464]],[[-49.3846292,-6.8071845],[-49.3869462,-6.8085965],[-49.389273,-6.8106819],[-49.3846292,-6.8071845]]]}}]}