{"type":"FeatureCollection","features":[{"type":"Feature","properties":{"geometry_key":"area|area_conc_urb_fortaleza","type":"area_estudo","area_col":"area_conc_urb_fortaleza","area_label":"Fortaleza - Conc. Urbana","label":"Fortaleza - Conc. Urbana"},"geometry":{"type":"Polygon","coordinates":[[[-38.401767,-3.8237594],[-38.4002767,-3.8248242],[-38.3927031,-3.8377844],[-38.3755661,-3.8637809],[-38.360323,-3.8848564],[-38.3519512,-3.8944719],[-38.3346599,-3.9124336],[-38.3185531,-3.926197],[-38.3035409,-3.9359841],[-38.2913106,-3.9415745],[-38.285757,-3.942575],[-38.2839882,-3.9406816],[-38.2789274,-3.9412111],[-38.2777642,-3.9416973],[-38.2763667,-3.9433088],[-38.2734442,-3.944154],[-38.2422504,-3.9841585],[-38.2232859,-4.0071535],[-38.2242426,-4.0079289],[-38.2251001,-4.0071411],[-38.2257774,-4.0081096],[-38.2277847,-4.0083888],[-38.2264638,-4.0119937],[-38.2269124,-4.0125016],[-38.226177,-4.0134034],[-38.2265692,-4.01381],[-38.2284613,-4.0136206],[-38.2301758,-4.0149414],[-38.2296965,-4.0158672],[-38.230771,-4.0185948],[-38.2305179,-4.0194658],[-38.2313992,-4.0197012],[-38.232306,-4.0210017],[-38.23138,-4.0225254],[-38.2316172,-4.0233143],[-38.2341199,-4.0232321],[-38.2349789,-4.0223685],[-38.2385819,-4.023054],[-38.2391034,-4.0236041],[-38.2388614,-4.0256511],[-38.2395154,-4.0264009],[-38.2403598,-4.0265129],[-38.2408657,-4.0258009],[-38.2413595,-4.0263346],[-38.2423949,-4.0261324],[-38.2451791,-4.0270872],[-38.2469775,-4.028344],[-38.2532639,-4.0286864],[-38.2569656,-4.0277164],[-38.2598632,-4.0279757],[-38.2605452,-4.0270154],[-38.2630135,-4.0271259],[-38.2657968,-4.0260705],[-38.2668337,-4.0262601],[-38.2673246,-4.0270547],[-38.269264,-4.0273979],[-38.2746247,-4.0261228],[-38.2755891,-4.0263988],[-38.2764842,-4.0258976],[-38.2772232,-4.0242723],[-38.2810942,-4.0221736],[-38.2829249,-4.0220156],[-38.285741,-4.0231133],[-38.2884295,-4.0221321],[-38.2916588,-4.0222527],[-38.2930248,-4.0217136],[-38.2927807,-4.0207522],[-38.2947284,-4.0184215],[-38.2973072,-4.0176212],[-38.3001258,-4.0154044],[-38.3035239,-4.0149512],[-38.303739,-4.01443],[-38.3076731,-4.0128281],[-38.3091068,-4.0128341],[-38.3095119,-4.0122318],[-38.3109939,-4.0124696],[-38.3131571,-4.010903],[-38.3142278,-4.013295],[-38.3131752,-4.0149549],[-38.3145211,-4.0179103],[-38.3162224,-4.0184305],[-38.3178125,-4.0205946],[-38.3188717,-4.0189794],[-38.3210208,-4.0184053],[-38.3207282,-4.0307972],[-38.325776,-4.0309345],[-38.326779,-4.0295097],[-38.3264333,-4.0256356],[-38.3332387,-4.0301825],[-38.3362266,-4.0308855],[-38.3386998,-4.0349761],[-38.3425027,-4.0383624],[-38.3416091,-4.0395334],[-38.3441534,-4.0458104],[-38.3496525,-4.0472495],[-38.3702716,-4.0655868],[-38.3725084,-4.0784555],[-38.3756445,-4.0768994],[-38.3793541,-4.073672],[-38.3859849,-4.0703295],[-38.3903401,-4.0710014],[-38.413049,-4.068871],[-38.4423054,-4.0712367],[-38.4471863,-4.0685917],[-38.4533509,-4.0687941],[-38.4603876,-4.0656414],[-38.4657465,-4.0653683],[-38.4728849,-4.0615033],[-38.4919602,-4.0596646],[-38.501031,-4.0611573],[-38.5039746,-4.0600766],[-38.5364894,-4.0406225],[-38.5358846,-4.041943],[-38.5365152,-4.0446987],[-38.5392223,-4.049561],[-38.5376638,-4.0518654],[-38.5357934,-4.0528728],[-38.5353777,-4.0552202],[-38.5344159,-4.0561532],[-38.5333693,-4.0587988],[-38.5343791,-4.0605685],[-38.5343649,-4.0616933],[-38.5335505,-4.0632724],[-38.5342026,-4.064234],[-38.5328852,-4.0671539],[-38.533017,-4.0682613],[-38.5357134,-4.0699139],[-38.5361078,-4.0717777],[-38.5376439,-4.073264],[-38.5376441,-4.0740775],[-38.5360227,-4.0757247],[-38.5359939,-4.0792455],[-38.5444507,-4.0867545],[-38.5502178,-4.0927873],[-38.5531037,-4.1006016],[-38.5540435,-4.1051074],[-38.5576287,-4.114364],[-38.5575441,-4.1191696],[-38.5621611,-4.1227775],[-38.5649298,-4.1232184],[-38.5664484,-4.122272],[-38.5671794,-4.1186349],[-38.568366,-4.1166678],[-38.5705865,-4.1156268],[-38.5721174,-4.1136917],[-38.5738948,-4.1106647],[-38.573945,-4.109448],[-38.5753944,-4.1065583],[-38.5762876,-4.1057301],[-38.5857737,-4.1066078],[-38.5891878,-4.1056522],[-38.5939549,-4.1064588],[-38.5976345,-4.1059868],[-38.5989164,-4.1047308],[-38.6024921,-4.1046428],[-38.6056817,-4.1018619],[-38.6086849,-4.1021181],[-38.6128473,-4.1040409],[-38.6045807,-4.0587584],[-38.5747217,-4.0541547],[-38.5834531,-4.0418757],[-38.5849433,-4.040919],[-38.585051,-4.0400335],[-38.592405,-4.0313528],[-38.5941798,-4.0285029],[-38.5971989,-4.025388],[-38.5994734,-4.0241683],[-38.6003042,-4.02133],[-38.6057736,-4.0145829],[-38.6049903,-4.0125423],[-38.6052198,-4.0111207],[-38.6070148,-4.0101361],[-38.6083471,-4.0115262],[-38.6098481,-4.0146308],[-38.6136374,-4.0151645],[-38.6154531,-4.0163287],[-38.6168118,-4.0162431],[-38.6191936,-4.0147291],[-38.6227258,-4.0150036],[-38.6247068,-4.0144803],[-38.6276595,-4.0233225],[-38.6357711,-4.0235864],[-38.6494478,-4.0060501],[-38.6547915,-4.0131206],[-38.6683506,-4.018694],[-38.6690695,-4.0202368],[-38.6679883,-4.0234601],[-38.6743153,-4.0285071],[-38.6745055,-4.0331524],[-38.6718614,-4.0368868],[-38.6718344,-4.0386667],[-38.6726099,-4.039651],[-38.680302,-4.0438171],[-38.6858525,-4.0483904],[-38.69155,-4.0504245],[-38.6949957,-4.0504448],[-38.6996011,-4.052128],[-38.7011861,-4.0551839],[-38.7034926,-4.0561369],[-38.7097189,-4.0620944],[-38.7127378,-4.0635122],[-38.7187616,-4.0676838],[-38.7227334,-4.0681741],[-38.7222586,-4.0710318],[-38.7228106,-4.0720638],[-38.7263236,-4.0736917],[-38.727981,-4.0728976],[-38.7310593,-4.073059],[-38.7336276,-4.0710352],[-38.7364572,-4.0718575],[-38.7448758,-4.0717926],[-38.7460605,-4.0736967],[-38.7453875,-4.0778604],[-38.7485843,-4.0930029],[-38.7507079,-4.0905913],[-38.750435,-4.0897702],[-38.7491814,-4.0895746],[-38.75128,-4.0873959],[-38.7509966,-4.0850834],[-38.752088,-4.0844547],[-38.7539066,-4.0847595],[-38.757079,-4.0811581],[-38.75703,-4.0801741],[-38.7557519,-4.079386],[-38.7562254,-4.0769115],[-38.7573278,-4.0761002],[-38.758993,-4.0761391],[-38.7580218,-4.074894],[-38.7588277,-4.0747069],[-38.7583852,-4.0742172],[-38.7587981,-4.0735215],[-38.7606961,-4.0724116],[-38.761717,-4.0746812],[-38.7615968,-4.0776579],[-38.7632216,-4.0812639],[-38.7671058,-4.0848912],[-38.7690785,-4.0893653],[-38.7701698,-4.0956761],[-38.7709032,-4.0965931],[-38.7739554,-4.0964312],[-38.7749168,-4.0971743],[-38.7809982,-4.093741],[-38.7846751,-4.0942529],[-38.8099494,-4.0803568],[-38.8112197,-4.0809852],[-38.813991,-4.0807393],[-38.8174088,-4.0847406],[-38.8344878,-4.0726409],[-38.8359792,-4.0739519],[-38.8376138,-4.0767851],[-38.8376456,-4.0813701],[-38.8406642,-4.0862968],[-38.8404594,-4.0904121],[-38.8414829,-4.0950451],[-38.8401672,-4.0998448],[-38.8407101,-4.1041331],[-38.8434793,-4.1044527],[-38.8460334,-4.1061481],[-38.8504213,-4.1051426],[-38.8525691,-4.1074934],[-38.8535878,-4.1073231],[-38.8556926,-4.1051345],[-38.8620787,-4.1045824],[-38.8634431,-4.1049454],[-38.8629875,-4.1061075],[-38.8570678,-4.1076016],[-38.8561642,-4.1094558],[-38.8572494,-4.11097],[-38.8609147,-4.1113051],[-38.8620958,-4.1122226],[-38.863531,-4.1166442],[-38.8636631,-4.1198322],[-38.8643192,-4.1204901],[-38.8658539,-4.1199617],[-38.8673181,-4.1164004],[-38.8707629,-4.1147599],[-38.870635,-4.1128382],[-38.8723679,-4.1109625],[-38.8797325,-4.1140539],[-38.8816272,-4.1134967],[-38.8838314,-4.1138359],[-38.8803462,-4.1069949],[-38.8814003,-4.1061945],[-38.8831953,-4.1072102],[-38.8860196,-4.1063263],[-38.8866451,-4.1053263],[-38.8862215,-4.1029543],[-38.8865747,-4.1020013],[-38.8876713,-4.1020155],[-38.8885643,-4.1036917],[-38.8913731,-4.1059238],[-38.8917861,-4.1075526],[-38.9082254,-4.1035718],[-38.9074863,-4.1092574],[-38.9101044,-4.1158881],[-38.9122917,-4.1182793],[-38.9159124,-4.1200251],[-38.9191207,-4.1191943],[-38.9200732,-4.1170899],[-38.925077,-4.1133874],[-38.9260814,-4.1112079],[-38.9260437,-4.1059977],[-38.9281409,-4.1041164],[-38.9311254,-4.1033491],[-38.9435791,-4.1035855],[-38.9428885,-4.1006116],[-38.9447499,-4.0998871],[-38.9450682,-4.0968591],[-38.9460637,-4.0975404],[-38.9469572,-4.1009304],[-38.9487176,-4.1032483],[-38.9494681,-4.1033207],[-38.951762,-4.1019593],[-38.9525992,-4.0991919],[-38.9533353,-4.0984392],[-38.9548931,-4.0984249],[-38.95674,-4.1000326],[-38.9574473,-4.0997865],[-38.9575627,-4.097874],[-38.9587313,-4.0974254],[-38.9586737,-4.0962809],[-38.9560762,-4.0965993],[-38.9565673,-4.0949763],[-38.9529599,-4.0929478],[-38.9549513,-4.0893119],[-38.9539559,-4.0864432],[-38.9557309,-4.0840965],[-38.9555293,-4.080532],[-38.9581259,-4.079214],[-38.9600448,-4.0798366],[-38.9604638,-4.0788514],[-38.9607956,-4.0744618],[-38.9592523,-4.0744473],[-38.9565973,-4.0728241],[-38.9841596,-4.0443863],[-39.0035461,-3.9917706],[-38.9434661,-3.9446729],[-38.8716433,-3.9687314],[-38.9438153,-3.94442],[-38.9454777,-3.9444421],[-38.9469435,-3.9424794],[-38.9474087,-3.9368783],[-38.9498504,-3.9359468],[-38.9505449,-3.9348595],[-38.9546943,-3.9337539],[-38.9550853,-3.9326337],[-38.9539024,-3.930997],[-38.9540168,-3.9301257],[-38.9554087,-3.9296757],[-38.9566386,-3.9278853],[-38.9588885,-3.9270046],[-38.9591253,-3.9266019],[-38.9584405,-3.9259418],[-38.9607476,-3.9234812],[-38.9624541,-3.9232132],[-38.9622254,-3.9202546],[-38.9612817,-3.9191727],[-38.9609826,-3.9173707],[-38.9590606,-3.9161182],[-38.958155,-3.9144426],[-38.9591466,-3.9121831],[-38.9607292,-3.9103161],[-38.9605958,-3.9090331],[-38.9619304,-3.9077789],[-38.9610764,-3.9058543],[-38.9635168,-3.9054619],[-38.963269,-3.9046001],[-38.9641556,-3.9039682],[-38.9655094,-3.9011725],[-38.966844,-3.9006555],[-38.9673112,-3.8987215],[-38.9687222,-3.8966917],[-38.969744,-3.8967653],[-38.9702086,-3.8983093],[-38.9719252,-3.8969503],[-38.9730119,-3.8977355],[-38.9742893,-3.8977547],[-38.9756812,-3.8962898],[-38.9781216,-3.8964814],[-38.9783981,-3.8953324],[-38.9803809,-3.894059],[-38.9789787,-3.8923344],[-38.9784306,-3.889821],[-38.9774059,-3.8889593],[-38.977811,-3.8882412],[-38.9787405,-3.8884566],[-38.9788835,-3.8876428],[-38.9786214,-3.8867571],[-38.9793364,-3.8850576],[-38.9783354,-3.8851773],[-38.9782166,-3.8843425],[-38.9800756,-3.8824755],[-38.9806475,-3.8832654],[-38.9817196,-3.8824965],[-38.9807664,-3.8810842],[-38.9810285,-3.880414],[-38.9819559,-3.8803092],[-38.981529,-3.8780203],[-38.9830781,-3.877015],[-38.9842438,-3.8781263],[-38.9849846,-3.8776374],[-38.9850562,-3.8767517],[-38.9839007,-3.8753688],[-38.9868436,-3.8733288],[-38.985132,-3.8720744],[-38.9858179,-3.8718731],[-38.9859142,-3.8709112],[-38.9871609,-3.8714624],[-38.98821,-3.8693286],[-38.9867034,-3.8674984],[-38.987322,-3.8665336],[-38.9869323,-3.8647984],[-38.9860573,-3.8636105],[-38.9843874,-3.8644955],[-38.9842921,-3.8623838],[-38.9855024,-3.8609494],[-38.9859028,-3.8594557],[-38.9866531,-3.8606903],[-38.9879162,-3.8602594],[-38.9880969,-3.8589015],[-38.9888276,-3.8581982],[-38.9883897,-3.8569131],[-38.9905547,-3.85576],[-38.9913364,-3.8544578],[-38.992325,-3.8548019],[-38.9919914,-3.8563339],[-38.9926825,-3.8565493],[-38.9932782,-3.8543232],[-38.9946203,-3.8524409],[-38.9969191,-3.8510404],[-38.9972785,-3.8498971],[-38.9982589,-3.8491051],[-38.9980206,-3.8467353],[-38.9996411,-3.8452991],[-38.998116,-3.8396979],[-38.9994505,-3.8383096],[-38.9996411,-3.8364904],[-38.9993436,-3.8353851],[-38.997687,-3.8338574],[-38.9965194,-3.8307696],[-38.9957806,-3.8303148],[-38.9944938,-3.8307696],[-38.9913367,-3.8268828],[-38.9881339,-3.8247572],[-38.984874,-3.8200464],[-38.9833871,-3.8161399],[-38.9828157,-3.7903457],[-38.9815004,-3.7848881],[-38.9784695,-3.7787411],[-38.9755529,-3.7763282],[-38.9665922,-3.7738349],[-38.9586133,-3.7692479],[-38.9576983,-3.7693245],[-38.9570883,-3.7683479],[-38.9568216,-3.7658201],[-38.95604,-3.7651116],[-38.9565167,-3.7631967],[-38.9557734,-3.7606115],[-38.9565931,-3.7594051],[-38.9576797,-3.7594051],[-38.9579085,-3.7585817],[-38.9572415,-3.7539284],[-38.9552974,-3.7490835],[-38.9557549,-3.7481835],[-38.9556407,-3.7455218],[-38.9570133,-3.7440473],[-38.9555836,-3.7428025],[-38.9568229,-3.7386663],[-38.9560224,-3.7369429],[-38.9563465,-3.735296],[-38.9553172,-3.7347023],[-38.9545596,-3.73239],[-38.9556176,-3.7306379],[-38.9547599,-3.7289144],[-38.9533874,-3.7286271],[-38.9515147,-3.7270328],[-38.9514861,-3.7262285],[-38.9525155,-3.7253956],[-38.9516292,-3.7236865],[-38.9532877,-3.7223222],[-38.9536881,-3.7205413],[-38.9549462,-3.7194929],[-38.955661,-3.7196079],[-38.9577196,-3.7217336],[-38.9608792,-3.7203406],[-38.9614083,-3.7184448],[-38.9600931,-3.7166064],[-38.9595785,-3.7136047],[-38.959936,-3.712585],[-38.9615086,-3.7119819],[-38.9402041,-3.6832336],[-38.9379739,-3.683358],[-38.9325132,-3.6805043],[-38.920866,-3.6846008],[-38.9213458,-3.6815258],[-38.9210666,-3.6794722],[-38.9200597,-3.678938],[-38.9205951,-3.6780744],[-38.9196602,-3.6755656],[-38.9193586,-3.6733955],[-38.9198252,-3.6730947],[-38.9187525,-3.6710222],[-38.9173533,-3.6698261],[-38.9183502,-3.6666526],[-38.8816278,-3.6854159],[-38.8318923,-3.5707607],[-38.8065572,-3.5486438],[-38.797651,-3.5629727],[-38.790073,-3.5727132],[-38.7790399,-3.5848225],[-38.7700314,-3.5978178],[-38.7628631,-3.6055235],[-38.7483225,-3.6168895],[-38.7340023,-3.6229414],[-38.7247963,-3.6253916],[-38.7202098,-3.6288453],[-38.7146778,-3.6319834],[-38.7080061,-3.634351],[-38.6997445,-3.6398392],[-38.6925873,-3.6468407],[-38.68956,-3.6511721],[-38.6750928,-3.6660794],[-38.6663463,-3.672898],[-38.6524047,-3.682156],[-38.6410855,-3.6869388],[-38.638131,-3.6871051],[-38.6345814,-3.6859547],[-38.6266701,-3.6884408],[-38.619212,-3.6898738],[-38.6110878,-3.6887692],[-38.6073936,-3.6914724],[-38.6047251,-3.6913036],[-38.5875832,-3.696406],[-38.5866652,-3.692026],[-38.5841342,-3.693684],[-38.5817855,-3.6938782],[-38.5808448,-3.6927647],[-38.5811311,-3.6921305],[-38.5806988,-3.6928138],[-38.5806658,-3.6935306],[-38.578306,-3.6956837],[-38.5774601,-3.6959227],[-38.5763275,-3.6944966],[-38.5772105,-3.6958899],[-38.5750405,-3.6985904],[-38.5739803,-3.6983984],[-38.5710128,-3.7006469],[-38.5704058,-3.6995695],[-38.5707746,-3.7006708],[-38.568141,-3.7022612],[-38.5659844,-3.7030381],[-38.5630915,-3.7031391],[-38.5620423,-3.7005947],[-38.5633418,-3.6986685],[-38.5642472,-3.698645],[-38.5632704,-3.6985128],[-38.5618994,-3.7004749],[-38.5631935,-3.7038103],[-38.5623264,-3.7043169],[-38.5597289,-3.7051653],[-38.5590581,-3.703873],[-38.5588831,-3.7051529],[-38.5558445,-3.7066713],[-38.554678,-3.7048037],[-38.5553774,-3.706311],[-38.554224,-3.7073886],[-38.5525317,-3.7085366],[-38.5513172,-3.7072914],[-38.5519479,-3.7087637],[-38.5492689,-3.7105631],[-38.5475421,-3.708743],[-38.5484206,-3.7107486],[-38.5461683,-3.7121358],[-38.5453348,-3.7111899],[-38.5457751,-3.7121236],[-38.5434989,-3.7136902],[-38.542165,-3.7129834],[-38.5413454,-3.710969],[-38.5423907,-3.7142521],[-38.5393636,-3.7163689],[-38.5387086,-3.7160215],[-38.5364205,-3.7173966],[-38.5352315,-3.717222],[-38.5307489,-3.719117],[-38.5301299,-3.7181712],[-38.5279733,-3.7187924],[-38.5298438,-3.7184583],[-38.5304534,-3.7190904],[-38.5285088,-3.7198339],[-38.5278216,-3.7193702],[-38.5255901,-3.719945],[-38.5240183,-3.7184551],[-38.5248525,-3.7178931],[-38.5238635,-3.7183354],[-38.5243286,-3.717426],[-38.5236255,-3.7177368],[-38.5234351,-3.7173059],[-38.5226127,-3.7181312],[-38.5222199,-3.7174847],[-38.5265097,-3.7155842],[-38.5275578,-3.7160874],[-38.5265217,-3.7154405],[-38.5206829,-3.7179028],[-38.5197905,-3.71576],[-38.5199205,-3.7178186],[-38.5169419,-3.7183316],[-38.5163673,-3.7161436],[-38.5167989,-3.7183674],[-38.5127004,-3.7190234],[-38.511795,-3.7189271],[-38.5108265,-3.7134445],[-38.5112349,-3.7192978],[-38.5091375,-3.7205892],[-38.5046096,-3.7220348],[-38.5040673,-3.7204723],[-38.5045495,-3.7229563],[-38.502214,-3.7239124],[-38.4958517,-3.7250337],[-38.4907384,-3.7242758],[-38.4881336,-3.7221211],[-38.4862866,-3.722862],[-38.4822911,-3.7222407],[-38.478894,-3.7206943],[-38.4790238,-3.7199005],[-38.4779243,-3.7204628],[-38.4762152,-3.7193215],[-38.4761396,-3.717662],[-38.477531,-3.7172944],[-38.4772727,-3.7153169],[-38.4825639,-3.7122802],[-38.4831848,-3.709899],[-38.4824091,-3.7122083],[-38.4773829,-3.7150518],[-38.4751421,-3.7121681],[-38.4728821,-3.7062427],[-38.4745388,-3.7048913],[-38.4761136,-3.7010864],[-38.4825003,-3.6987325],[-38.4735877,-3.7016355],[-38.4705111,-3.7067918],[-38.4678301,-3.7078194],[-38.4671506,-3.7086208],[-38.4603025,-3.705064],[-38.46403,-3.7075418],[-38.4634834,-3.7127528],[-38.4606325,-3.721207],[-38.4561905,-3.731107],[-38.4426403,-3.7575418],[-38.4379934,-3.7650428],[-38.4358215,-3.7705705],[-38.435202,-3.7706658],[-38.4352503,-3.7695409],[-38.4337002,-3.7716223],[-38.4209438,-3.7940073],[-38.4089977,-3.8109433],[-38.4057066,-3.8165833],[-38.402214,-3.8208601],[-38.4016891,-3.8218651],[-38.4019051,-3.8242973],[-38.4013571,-3.8265851],[-38.401767,-3.8237594]],[[-38.53576055221706,-4.039409119721572],[-38.5362061,-4.0397202],[-38.5364894,-4.0406225],[-38.53576055221706,-4.039409119721572]],[[-38.590277985853405,-3.6996921792126742],[-38.5894414,-3.6991673],[-38.5875832,-3.696406],[-38.590277985853405,-3.6996921792126742]],[[-38.508505,-3.888748],[-38.510856,-3.888698],[-38.51123542076514,-3.8890278148885384],[-38.508505,-3.888748]],[[-38.50871008841353,-3.9367800543176976],[-38.5056754,-3.9379101],[-38.50871008841353,-3.9367800543176967],[-38.50871008841353,-3.9367800543176976]],[[-38.4399014,-3.9007596],[-38.4388352,-3.8998195],[-38.4435448,-3.902498],[-38.4399014,-3.9007596]],[[-38.43664552843381,-3.8959439428093963],[-38.4368662,-3.896035],[-38.4388352,-3.8998195],[-38.43664552843381,-3.8959439428093963]],[[-38.4339757,-3.8943932],[-38.433781995745655,-3.8937717028512595],[-38.4346536,-3.895122],[-38.4339757,-3.8943932]],[[-38.4325449,-3.8898025],[-38.432712776404145,-3.8888812788496123],[-38.433251067359436,-3.892068227213411],[-38.4325449,-3.8898025]],[[-38.429184,-3.8848238],[-38.4322137,-3.8859265],[-38.43224063376776,-3.886085961210087],[-38.429184,-3.8848238]],[[-38.4058699,-3.8215425],[-38.4084146,-3.819611],[-38.40937006778305,-3.819111014510487],[-38.4058699,-3.8215425]],[[-38.7371902,-3.9302111],[-38.736396,-3.9294259],[-38.7404125,-3.9321443],[-38.7371902,-3.9302111]],[[-38.6956324,-3.8672057],[-38.6924032,-3.8611453],[-38.69600431253296,-3.8675515717690336],[-38.6956324,-3.8672057]],[[-38.65753069720284,-3.9180623981693903],[-38.6574615,-3.9179901],[-38.657586,-3.916076],[-38.65753069720284,-3.9180623981693903]],[[-38.6639023,-3.9205518],[-38.663899265028,-3.9208908273032903],[-38.66387769565992,-3.9205460917822763],[-38.6639023,-3.9205518]],[[-38.6638907,-3.9218476],[-38.6619519,-3.924648],[-38.66389206290758,-3.921695353824704],[-38.6638907,-3.9218476]],[[-38.6544021,-3.9420475],[-38.6543315,-3.9364536],[-38.654499195127464,-3.9359504019517217],[-38.6544021,-3.9420475]],[[-38.6430801,-3.9746541],[-38.6347334,-3.9582708],[-38.6401157,-3.9684529],[-38.6430801,-3.9746541]],[[-38.6125593,-3.9156339],[-38.61268247174916,-3.915259037517093],[-38.6115394,-3.9223863],[-38.6125593,-3.9156339]],[[-38.587282053464286,-3.881225160098415],[-38.5877377,-3.880982],[-38.5902199,-3.8819029],[-38.587282053464286,-3.881225160098415]],[[-38.5871019,-3.8811836],[-38.5854084,-3.8792391],[-38.5871785013076,-3.881201271366439],[-38.5871019,-3.8811836]],[[-38.579514,-3.8752967],[-38.57940296019814,-3.874941552977113],[-38.5802567,-3.87519],[-38.579514,-3.8752967]],[[-38.5788663,-3.8749528],[-38.57848862083183,-3.8746754708605544],[-38.57909640722296,-3.8748523429228614],[-38.5788663,-3.8749528]],[[-38.5773808,-3.873862],[-38.577149,-3.8730285],[-38.57792514688989,-3.87426171295018],[-38.5773808,-3.873862]],[[-38.57282362045428,-3.8658885121820954],[-38.5729469,-3.865957],[-38.5738358,-3.8672423],[-38.57282362045428,-3.8658885121820954]],[[-38.5270171,-3.8713897],[-38.52706730999806,-3.8715158658189104],[-38.52691873467353,-3.871298735855729],[-38.5270171,-3.8713897]],[[-38.5311375,-4.0361287],[-38.5312678,-4.035483],[-38.53131569041916,-4.036367612231232],[-38.5311375,-4.0361287]],[[-38.5319175,-4.0371745],[-38.53165562122065,-4.036823380990462],[-38.5335931,-4.0389347],[-38.5319175,-4.0371745]],[[-38.5351521,-4.0389843],[-38.535466867789765,-4.039204070034618],[-38.5335931,-4.0389347],[-38.5351521,-4.0389843]],[[-38.6469182,-3.8108152],[-38.6458865,-3.8116743],[-38.64688046815046,-3.8107732436113193],[-38.6469182,-3.8108152]],[[-38.6458702,-3.8085504],[-38.6460304,-3.809828],[-38.64563292307404,-3.8083088394701092],[-38.6458702,-3.8085504]],[[-38.6442306,-3.8068812],[-38.64433529647207,-3.806987786576713],[-38.6429337,-3.8076153],[-38.6442306,-3.8068812]],[[-38.49759670836684,-3.8871228706256393],[-38.49795680495402,-3.887321986519428],[-38.4977851,-3.8872843],[-38.49759670836684,-3.8871228706256393]],[[-38.4959599,-3.8854363],[-38.49600640698343,-3.8857601702070177],[-38.4938988,-3.8839542],[-38.4959599,-3.8854363]],[[-38.6377721,-3.8011923],[-38.63783584414845,-3.8013569161663128],[-38.63562824409534,-3.800019880336271],[-38.6377721,-3.8011923]],[[-38.63516462047571,-3.799170038328252],[-38.6343638,-3.7977021],[-38.634394029265884,-3.7976648380343616],[-38.63516462047571,-3.799170038328252]],[[-38.61137483808689,-3.756533779560721],[-38.6086639,-3.7534313],[-38.6112144,-3.7561697],[-38.61137483808689,-3.756533779560721]],[[-38.6014987447293,-3.7485782669879675],[-38.6013324,-3.7484656],[-38.60114615944297,-3.747981908152284],[-38.6014987447293,-3.7485782669879675]],[[-38.6004305473923,-3.74158913487055],[-38.60105506506334,-3.7413225903193754],[-38.60092,-3.7416455],[-38.6004305473923,-3.74158913487055]],[[-38.60123996896441,-3.7408805273745527],[-38.6016786,-3.7375056],[-38.6015073,-3.7402414],[-38.60123996896441,-3.7408805273745527]],[[-38.6147802,-3.7227729],[-38.6151325,-3.7216497],[-38.61516357388332,-3.7216245298043154],[-38.6147802,-3.7227729]],[[-38.61563688932269,-3.7212411389642983],[-38.6161973,-3.7207872],[-38.61622546651171,-3.720793925691769],[-38.61563688932269,-3.7212411389642983]],[[-38.616653264225995,-3.720896076628869],[-38.6169863,-3.7209756],[-38.61700743962884,-3.7210205116639385],[-38.616653264225995,-3.720896076628869]],[[-38.6186042,-3.7194939],[-38.61778606847255,-3.7186579294403286],[-38.619020463359014,-3.7194212125280983],[-38.6186042,-3.7194939]],[[-38.6193656178206,-3.7193609420174103],[-38.61964995390607,-3.7189882268654597],[-38.6195096,-3.7193358],[-38.6193656178206,-3.7193609420174103]],[[-38.62033943776165,-3.7172807855008623],[-38.62045038675069,-3.7165115552041326],[-38.6205522,-3.7167539],[-38.62033943776165,-3.7172807855008623]],[[-38.62026746951456,-3.716076159609233],[-38.6194598,-3.7149943],[-38.61913736853607,-3.7133861944739905],[-38.62026746951456,-3.716076159609233]],[[-38.62107713385895,-3.7095833130815183],[-38.621130768258695,-3.709538551636182],[-38.6211174,-3.7095816],[-38.62107713385895,-3.7095833130815183]],[[-38.621844620581705,-3.7072398098768113],[-38.62247066105617,-3.7051798329955314],[-38.6224694,-3.7052279],[-38.621844620581705,-3.7072398098768113]],[[-38.6214617857087,-3.7026471590715637],[-38.6117378,-3.703292],[-38.6210465,-3.7023791],[-38.6214617857087,-3.7026471590715637]],[[-38.605626931243705,-3.702484010860231],[-38.6062608,-3.702358],[-38.6117378,-3.703292],[-38.605626931243705,-3.702484010860231]],[[-38.60011402523511,-3.7034715221095027],[-38.5998694,-3.7035258],[-38.59911121626805,-3.7034363096350713],[-38.60011402523511,-3.7034715221095027]],[[-38.59644739032737,-3.703121891446588],[-38.5955816,-3.7030197],[-38.595182315615176,-3.702769186472083],[-38.59644739032737,-3.703121891446588]]]}}]}