{"type":"FeatureCollection","features":[{"type":"Feature","properties":{"geometry_key":"area|area_rgint_belem","type":"area_estudo","area_col":"area_rgint_belem","area_label":"Belém - RGInt","label":"Belém - RGInt"},"geometry":{"type":"MultiPolygon","coordinates":[[[[-48.5396232,-3.1935033],[-48.5457356,-3.194391],[-48.5517664,-3.1972868],[-48.5552352,-3.1997719],[-48.5593482,-3.2046292],[-48.5644382,-3.2085094],[-48.5673184,-3.2099922],[-48.5846795,-3.2222755],[-48.5906024,-3.2255212],[-48.5993199,-3.2270801],[-48.6063709,-3.2295214],[-48.6207701,-3.2307853],[-48.6328781,-3.2295807],[-48.6387976,-3.2314668],[-48.6416856,-3.2330397],[-48.6575171,-3.2439382],[-48.6675152,-3.2540398],[-48.6716019,-3.2603574],[-48.6856904,-3.2862825],[-48.6900089,-3.2931698],[-48.6975952,-3.2974055],[-48.7059145,-3.2998433],[-48.7121269,-3.3049246],[-48.7227066,-3.3151604],[-48.7301571,-3.3239829],[-48.7476323,-3.3374493],[-48.7570268,-3.3435198],[-48.7994842,-3.359395],[-48.806333,-3.3641589],[-48.8153889,-3.3764514],[-48.8195343,-3.3800681],[-48.8389864,-3.3869845],[-48.8651898,-3.3901735],[-48.8745374,-3.3894124],[-48.8794666,-3.3841871],[-48.882188,-3.3817785],[-48.8840105,-3.3813909],[-48.8859788,-3.378944],[-48.8918335,-3.3753312],[-48.8944796,-3.375582],[-48.8977887,-3.3812058],[-48.9004451,-3.3836185],[-48.9074362,-3.395496],[-48.9128974,-3.3977885],[-48.9201524,-3.399331],[-48.9233891,-3.4012667],[-48.9253058,-3.4035225],[-48.9260861,-3.4112159],[-48.92561,-3.4129403],[-49.0008787,-3.4121192],[-49.4725503,-3.4152522],[-49.4722718,-3.4115158],[-49.470743,-3.4053251],[-49.4654643,-3.396835],[-49.4634347,-3.3901795],[-49.4648823,-3.3827136],[-49.463637,-3.3778576],[-49.4605002,-3.3710446],[-49.4604438,-3.3676817],[-49.4618272,-3.3647123],[-49.4656072,-3.360106],[-49.473157,-3.356415],[-49.4816635,-3.3562038],[-49.4846858,-3.3521698],[-49.4857447,-3.3449534],[-49.4880486,-3.3370295],[-49.4883834,-3.3328839],[-49.4909923,-3.3249162],[-49.4925258,-3.3221014],[-49.500437,-3.3157815],[-49.5065754,-3.3054495],[-49.5060533,-3.2894966],[-49.5162209,-3.2713944],[-49.5232789,-3.2604257],[-49.525,-3.2412998],[-49.5305826,-3.2179631],[-49.5323307,-3.1964829],[-49.5263823,-3.1782718],[-49.5255499,-3.1709996],[-49.5423888,-3.1657086],[-49.5480817,-3.1594759],[-49.5547443,-3.1417955],[-49.5581647,-3.1284289],[-49.5638301,-3.1206628],[-49.5731577,-3.1142003],[-49.5906893,-3.1042203],[-49.6035766,-3.0983391],[-49.6162479,-3.0887263],[-49.6234659,-3.0725983],[-49.6269698,-3.0626731],[-49.6293893,-3.049452],[-49.6278041,-3.0408089],[-49.6244132,-3.0297392],[-49.622913,-3.01801],[-49.6234673,-3.0008698],[-49.621575,-2.997158],[-49.6170277,-2.9937926],[-49.6139112,-2.9923374],[-49.6101857,-2.9884001],[-49.6087495,-2.9855991],[-49.6079347,-2.9798854],[-49.6006864,-2.9775851],[-49.588021,-2.9678829],[-49.5767078,-2.9576705],[-49.5701247,-2.9505248],[-49.5664158,-2.9435511],[-49.5625326,-2.939471],[-49.5552694,-2.9369103],[-49.5412418,-2.9341711],[-49.5341468,-2.931612],[-49.5246829,-2.9298981],[-49.5187662,-2.930061],[-49.5123469,-2.9275],[-49.5027134,-2.9274884],[-49.4958337,-2.9264591],[-49.4907656,-2.924751],[-49.4873897,-2.9211745],[-49.4872252,-2.9177723],[-49.483345,-2.9123267],[-49.4734214,-2.901665],[-49.4627781,-2.89757],[-49.4536604,-2.8914356],[-49.4536702,-2.8837836],[-49.4487844,-2.8715307],[-49.4499706,-2.8695422],[-49.4530168,-2.866656],[-49.4633343,-2.8607181],[-49.4653665,-2.8576592],[-49.4657208,-2.8457533],[-49.4643754,-2.8406517],[-49.4657431,-2.8282882],[-49.4674395,-2.8238693],[-49.4672788,-2.8177473],[-49.4669461,-2.8133259],[-49.4657712,-2.8082908],[-49.4630706,-2.8047166],[-49.4617261,-2.7991012],[-49.4635917,-2.7943412],[-49.4666377,-2.7904332],[-49.4695147,-2.7878885],[-49.4691843,-2.7821048],[-49.4668351,-2.7689047],[-49.4685329,-2.7632947],[-49.4705623,-2.7605762],[-49.4680469,-2.7462864],[-49.4651821,-2.7397017],[-49.4612999,-2.7351054],[-49.4545476,-2.7303352],[-49.4498235,-2.725057],[-49.4373304,-2.7146669],[-49.4307427,-2.7127858],[-49.4255592,-2.7124913],[-49.4157525,-2.7133294],[-49.4027361,-2.7153524],[-49.3995268,-2.7150084],[-49.3971656,-2.7122843],[-49.3922754,-2.702925],[-49.3916046,-2.7000307],[-49.3934703,-2.6944236],[-49.3928022,-2.6886411],[-49.3864936,-2.6828941],[-49.38651227759124,-2.6639959733529],[-49.55164,-2.6628606],[-49.6750527,-2.6635029],[-49.6767479,-2.6624276],[-49.677321,-2.6632212],[-49.6770627,-2.6639752],[-49.6789157,-2.6662054],[-49.676054,-2.6821396],[-49.6769649,-2.6866796],[-49.6845398,-2.6824398],[-49.6890263,-2.6750533],[-49.6893456,-2.6728095],[-49.6880589,-2.672237],[-49.6836937,-2.6659192],[-49.7383472,-2.666192],[-49.7334794,-2.6661679],[-49.7340143,-2.6701361],[-49.7354297,-2.6745646],[-49.738535,-2.6802868],[-49.7384592,-2.6883915],[-49.7391883,-2.6980267],[-49.7385588,-2.7026528],[-49.7393051,-2.7073072],[-49.7453031,-2.7100339],[-49.7564998,-2.7097306],[-49.765223,-2.7103122],[-49.7714384,-2.7229063],[-49.7748871,-2.726572],[-49.7843554,-2.7322341],[-49.7886353,-2.7379122],[-49.7894704,-2.7408301],[-49.7897702,-2.7525551],[-49.7873004,-2.7592295],[-49.7792817,-2.775492],[-49.7727521,-2.7828551],[-49.7711024,-2.785434],[-49.7705229,-2.7885281],[-49.7720499,-2.7951129],[-49.7781601,-2.8054581],[-49.7793605,-2.8092792],[-49.7809941,-2.8251865],[-49.7828614,-2.8308573],[-49.7826579,-2.8448018],[-49.7849068,-2.8545875],[-49.7868181,-2.8747332],[-49.7957681,-2.9169598],[-49.7992924,-2.9371823],[-49.8051413,-2.9526868],[-49.8136159,-2.962899],[-49.8340699,-2.9730367],[-49.8466663,-2.9777384],[-49.8629558,-2.9823269],[-49.8823651,-2.9854613],[-49.8888566,-2.9855894],[-49.8949362,-2.9876164],[-49.8967083,-2.9888192],[-49.8963401,-2.9872221],[-49.8946007,-2.9849632],[-49.8808352,-2.9747829],[-49.8775856,-2.9703239],[-49.8713556,-2.9642472],[-49.8695251,-2.9608398],[-49.8586383,-2.9491815],[-49.8493292,-2.9346421],[-49.8475805,-2.9310268],[-49.8468089,-2.9277948],[-49.8469109,-2.9193969],[-49.8463343,-2.9150022],[-49.8468863,-2.9064886],[-49.8480532,-2.9024972],[-49.8492715,-2.8915246],[-49.8494701,-2.8742245],[-49.8485828,-2.8683656],[-49.8486111,-2.862529],[-49.8494479,-2.8576812],[-49.8529408,-2.8493225],[-49.8686403,-2.845275],[-49.8748908,-2.8431497],[-49.8810802,-2.8404839],[-49.8862461,-2.836786],[-49.8885505,-2.8334657],[-49.8931906,-2.8288539],[-49.9104963,-2.812893],[-49.9143611,-2.8084973],[-49.9195263,-2.8002156],[-49.9264095,-2.7910286],[-49.9360577,-2.7748914],[-49.9422212,-2.7595474],[-49.9429423,-2.7503279],[-49.9415323,-2.7398796],[-49.9408004,-2.7087318],[-49.9417519,-2.684883],[-49.9436321,-2.6762184],[-49.9457497,-2.6697313],[-49.9554387,-2.6601081],[-49.967163,-2.6500177],[-49.9712188,-2.6447346],[-49.9743612,-2.6348666],[-49.9743098,-2.6290288],[-49.9753303,-2.6214994],[-49.9739712,-2.6134472],[-49.9682999,-2.5895942],[-49.9668602,-2.5816402],[-49.9664154,-2.5747115],[-49.968777,-2.5458982],[-49.9704129,-2.5411906],[-49.9748311,-2.53378],[-49.9767204,-2.528245],[-49.9835023,-2.5188217],[-49.9932179,-2.5111907],[-50.0009002,-2.5083364],[-50.0154209,-2.5077962],[-50.0198609,-2.5084323],[-50.0359185,-2.5146521],[-50.0486095,-2.5164771],[-50.0541401,-2.5162584],[-50.0583375,-2.5108506],[-50.0594448,-2.5047171],[-50.0616109,-2.5023345],[-50.0652746,-2.500358],[-50.0729207,-2.4868926],[-50.0735281,-2.4794221],[-50.0726121,-2.4760099],[-50.0744111,-2.4635365],[-50.0774735,-2.4558756],[-50.0810525,-2.4489479],[-50.0835825,-2.4449846],[-50.0937817,-2.4349092],[-50.1046614,-2.4216793],[-50.1095302,-2.4106197],[-50.1095282,-2.4052783],[-50.1116266,-2.3852728],[-50.1116366,-2.365329],[-50.1086617,-2.3390186],[-50.1061947,-2.3275963],[-50.1052521,-2.3201843],[-50.1039943,-2.3166096],[-50.1002447,-2.3102095],[-50.0880261,-2.2939453],[-50.0844665,-2.2867879],[-50.083476,-2.2774109],[-50.0801128,-2.2647433],[-50.0792204,-2.2589485],[-50.079275,-2.2486172],[-50.0797763,-2.2426908],[-50.0810842,-2.2370102],[-50.0841912,-2.2288253],[-50.0881927,-2.2213364],[-50.0974188,-2.2138902],[-50.101362,-2.2117262],[-50.1083383,-2.2051219],[-50.1095864,-2.2015431],[-50.1086998,-2.193996],[-50.1039982,-2.1828218],[-50.1023334,-2.1768806],[-50.1019485,-2.1692375],[-50.1050259,-2.1613686],[-50.1127992,-2.1507427],[-50.1148866,-2.1472093],[-50.1161629,-2.1437018],[-50.1153012,-2.1396231],[-50.1073051,-2.1342793],[-50.1040271,-2.1330602],[-50.0925275,-2.1267783],[-50.0662681,-2.1085018],[-50.0605232,-2.1027329],[-50.0567214,-2.0953152],[-50.0564108,-2.0897306],[-50.061937,-2.0786806],[-50.0749428,-2.06942],[-50.0753821,-2.0662371],[-50.0771709,-2.0629385],[-50.0731088,-2.0548435],[-50.072749,-2.0516586],[-50.073161,-2.0485921],[-50.0719723,-2.0453953],[-50.0716118,-2.0424874],[-50.0732186,-2.0400291],[-50.0722461,-2.0362915],[-50.0697702,-2.0342464],[-50.0702195,-2.0313135],[-50.0736082,-2.0309699],[-50.07286,-2.0277669],[-50.0754689,-2.0231529],[-50.0787239,-2.0193615],[-50.0778586,-2.0162214],[-50.0784749,-2.0110873],[-50.0765821,-2.0057226],[-50.0753329,-1.990489],[-50.0731669,-1.9862162],[-50.068941,-1.9863875],[-50.0615834,-1.9736657],[-50.0673599,-1.9673359],[-50.0687198,-1.9623498],[-50.0703618,-1.9597182],[-50.0717222,-1.9549126],[-50.0708394,-1.9480165],[-50.0699456,-1.9446591],[-50.0652763,-1.9434662],[-50.0576108,-1.9350117],[-50.0579976,-1.9313757],[-50.0621369,-1.9289412],[-50.0622518,-1.9254941],[-50.0575514,-1.922579],[-50.0551407,-1.9186749],[-50.0549698,-1.9152272],[-50.0566926,-1.9086107],[-50.0601391,-1.9060744],[-50.0664423,-1.9053652],[-50.0706123,-1.9020194],[-50.0728593,-1.8980366],[-50.0726133,-1.8951291],[-50.0709982,-1.8903174],[-50.0720844,-1.8861516],[-50.0746113,-1.882349],[-50.0779731,-1.8814462],[-50.0822766,-1.8826351],[-50.086528,-1.8821972],[-50.0890537,-1.8789349],[-50.0855571,-1.8705813],[-50.0857485,-1.8653198],[-50.0880223,-1.8613378],[-50.0923677,-1.8598046],[-50.0986583,-1.8598177],[-50.1023595,-1.8606479],[-50.1081393,-1.86039],[-50.1104706,-1.8584011],[-50.1112238,-1.8514165],[-50.1153049,-1.8428998],[-50.1280588,-1.825693],[-50.1313342,-1.8188056],[-50.131496,-1.8149992],[-50.1256615,-1.8123529],[-50.1208893,-1.8084348],[-50.1171077,-1.806974],[-50.0978325,-1.8012095],[-50.0717737,-1.7949749],[-50.0646702,-1.7918739],[-50.0365564,-1.788438],[-50.0306105,-1.7862418],[-50.011644,-1.7850134],[-50.0039139,-1.78372],[-49.9915772,-1.7830986],[-49.9811121,-1.7843386],[-49.9680839,-1.7875802],[-49.9651131,-1.7890207],[-49.944332,-1.7959596],[-49.9381644,-1.798948],[-49.9311934,-1.8014763],[-49.9242191,-1.8054577],[-49.9127488,-1.8104203],[-49.8846137,-1.8247103],[-49.8765522,-1.8280464],[-49.8678818,-1.8303897],[-49.8479945,-1.8331488],[-49.8296613,-1.8327371],[-49.8165779,-1.831516],[-49.7970691,-1.8280014],[-49.7748905,-1.8216756],[-49.7609706,-1.816548],[-49.7516911,-1.8148839],[-49.7451622,-1.8161401],[-49.731412,-1.8233675],[-49.718209607016554,-1.8355825742178786],[-49.715296,-1.8298412],[-49.7053247,-1.821654],[-49.6894734,-1.812406],[-49.6748571,-1.8027607],[-49.6595294,-1.7891698],[-49.6461055,-1.7800473],[-49.6220609,-1.7649072],[-49.6182384,-1.7630533],[-49.6077751,-1.7603974],[-49.6069409,-1.76394],[-49.6040499,-1.7664759],[-49.5990513,-1.7740022],[-49.5919168,-1.7778904],[-49.5860518,-1.7796896],[-49.5728549,-1.7810095],[-49.5620283,-1.7796219],[-49.5506401,-1.7804049],[-49.539721,-1.7800999],[-49.5350241,-1.7786278],[-49.5320532,-1.7769878],[-49.529686,-1.7750698],[-49.5187144,-1.7625922],[-49.513743,-1.7593876],[-49.5048247,-1.7568255],[-49.4963788,-1.7558738],[-49.4871288,-1.7529592],[-49.4850906,-1.7506571],[-49.4706019,-1.7413246],[-49.4544249,-1.7348523],[-49.4291881,-1.7268358],[-49.4194108,-1.7227196],[-49.415853,-1.7188689],[-49.4102786,-1.7194351],[-49.4007417,-1.7163193],[-49.3878854,-1.7140788],[-49.3725815,-1.7101658],[-49.341523,-1.7059712],[-49.3381884,-1.7061163],[-49.3352965,-1.7052638],[-49.3226014,-1.7037439],[-49.3012417,-1.7029347],[-49.2976349,-1.7041598],[-49.2943823,-1.7038454],[-49.2831917,-1.7045318],[-49.2677399,-1.7060611],[-49.2490707,-1.7064665],[-49.2329615,-1.7049026],[-49.2163501,-1.70615],[-49.202719,-1.7087934],[-49.1952944,-1.709612],[-49.1716867,-1.7161229],[-49.1748786,-1.7187993],[-49.1512477,-1.6990832],[-49.1454135,-1.6957434],[-49.1312952,-1.6847686],[-49.1180287,-1.6727329],[-49.1043208,-1.657487],[-49.0929631,-1.6424646],[-49.0829076,-1.6307256],[-49.063798,-1.6114594],[-49.0538557,-1.6045057],[-49.0464636,-1.6028741],[-49.043242,-1.6012905],[-49.0382372,-1.5968726],[-49.0328602,-1.5891086],[-49.0255706,-1.5818528],[-49.012574,-1.573232],[-49.0064867,-1.5705219],[-49.0003805,-1.568564],[-48.9974333,-1.5687614],[-48.9852153,-1.5634537],[-48.9393492,-1.548659],[-48.9306856,-1.5451611],[-48.9067721,-1.537466],[-48.8802741,-1.5324294],[-48.8665998,-1.5308096],[-48.8418518,-1.5238237],[-48.8276801,-1.5163681],[-48.8185766,-1.5089599],[-48.8129363,-1.5038218],[-48.8089041,-1.499299],[-48.7956321,-1.4875592],[-48.7859877,-1.4804747],[-48.7759291,-1.4740927],[-48.768409,-1.4658445],[-48.7606569,-1.4525419],[-48.7442419,-1.4124983],[-48.7399386,-1.400042],[-48.7219376,-1.3604387],[-48.7022969,-1.3223659],[-48.6912852,-1.3049072],[-48.6782367,-1.2824122],[-48.6709087,-1.2673135],[-48.6683267,-1.2600857],[-48.6638833,-1.2535321],[-48.6515988,-1.2320302],[-48.6387085,-1.2121485],[-48.6244082,-1.1921668],[-48.607519,-1.1721088],[-48.5745424,-1.1393432],[-48.547991,-1.1113117],[-48.5244826,-1.0839254],[-48.513517,-1.0661442],[-48.5003763,-1.0491061],[-48.4968501,-1.0453371],[-48.4930724,-1.038426],[-48.4875458,-1.0338516],[-48.4855193,-1.0314986],[-48.4742056,-1.0238357],[-48.4694837,-1.0194267],[-48.457602,-1.0064615],[-48.4504341,-1.0001295],[-48.4419633,-0.9883777],[-48.4410702,-0.985207],[-48.4392958,-0.9824776],[-48.4395444,-0.9788488],[-48.4370691,-0.9761174],[-48.4337117,-0.9683971],[-48.4332959,-0.9649949],[-48.4308198,-0.9572672],[-48.4263844,-0.947062],[-48.4194801,-0.9236652],[-48.4095658,-0.9057518],[-48.3948446,-0.9109979],[-48.3658013,-0.9189255],[-48.3361448,-0.9214065],[-48.2937708,-0.9196765],[-48.2810471,-0.913045],[-48.2684634,-0.9029275],[-48.2580714,-0.8886821],[-48.2514534,-0.877899],[-48.2383965,-0.8409037],[-48.2355228,-0.8347175],[-48.2294917,-0.8278161],[-48.2211661,-0.8229017],[-48.2032581,-0.8192653],[-48.1947256,-0.8191471],[-48.1822022,-0.8216704],[-48.1777984,-0.8210127],[-48.171572,-0.8164393],[-48.1689103,-0.8136478],[-48.1667349,-0.8097239],[-48.1662077,-0.791675],[-48.1584045,-0.7742128],[-48.1339196,-0.7453009],[-48.10535,-0.7165697],[-48.0879878,-0.6980827],[-48.0763876,-0.6848562],[-48.0674389,-0.673484],[-48.0581154,-0.6656469],[-48.0572479,-0.6635914],[-48.0558717,-0.662265],[-48.0513884,-0.6594699],[-48.0477194,-0.6595742],[-48.0417266,-0.6632472],[-48.0369547,-0.6632567],[-48.0340278,-0.6642512],[-48.0298751,-0.6669488],[-48.0268831,-0.6678751],[-48.0251058,-0.669106],[-48.023674,-0.6708828],[-48.0226907,-0.6739858],[-48.0228184,-0.6830749],[-48.0216665,-0.6850914],[-48.0196956,-0.6865582],[-48.0172373,-0.6871293],[-48.0145666,-0.6866933],[-48.0104552,-0.6877311],[-48.0050725,-0.6864166],[-48.0013674,-0.6864556],[-47.9968367,-0.6922537],[-47.994375,-0.6939881],[-47.9912195,-0.694686],[-47.9878428,-0.6941718],[-47.9833469,-0.692604],[-47.9794683,-0.6894433],[-47.977011,-0.6861855],[-47.974822,-0.6875863],[-47.969147,-0.6896054],[-47.9661825,-0.6923357],[-47.9615179,-0.6988131],[-47.9605128,-0.7042897],[-47.9605694,-0.7166746],[-47.9578454,-0.7389485],[-47.9576777,-0.7446321],[-47.9583945,-0.7493348],[-47.9568448,-0.7667843],[-47.9545721,-0.7729226],[-47.9518984,-0.7767689],[-47.9554289,-0.7768989],[-47.9604308,-0.7790834],[-47.9624337,-0.7788524],[-47.9647114,-0.7755371],[-47.9657902,-0.7749882],[-47.9668408,-0.7753513],[-47.9693696,-0.7786915],[-47.9722124,-0.776636],[-47.9759592,-0.7756251],[-47.9768144,-0.7738096],[-47.9740654,-0.7679589],[-47.9742013,-0.7665012],[-47.9773693,-0.7625224],[-47.982152,-0.7608652],[-47.9839858,-0.760732],[-47.9886488,-0.765641],[-47.9920694,-0.7666442],[-47.9922574,-0.7684144],[-47.9933704,-0.7691454],[-48.0006486,-0.7689569],[-48.0006803,-0.7642359],[-48.0039857,-0.7660322],[-48.0036463,-0.7703921],[-48.005132,-0.7763456],[-48.0079372,-0.7823928],[-48.0096183,-0.784775],[-48.0125718,-0.7863623],[-48.014316,-0.7854474],[-48.0176306,-0.7801175],[-48.0199936,-0.7793357],[-48.0215098,-0.7795573],[-48.02934,-0.7892286],[-48.0312013,-0.7943771],[-48.0314579,-0.7970938],[-48.0304855,-0.7985666],[-48.0281229,-0.7990309],[-48.0255911,-0.7978948],[-48.0228744,-0.8002834],[-48.0246127,-0.8028871],[-48.0274565,-0.8130173],[-48.0262033,-0.8154539],[-48.0241207,-0.8154499],[-48.0224848,-0.8147737],[-48.0201263,-0.8125136],[-48.0171812,-0.8107634],[-48.0132623,-0.8120069],[-48.0121893,-0.8134291],[-48.0117303,-0.8145698],[-48.0134887,-0.8168273],[-48.0135394,-0.8184112],[-48.0127917,-0.8203358],[-48.0042379,-0.8216011],[-48.0050149,-0.8246512],[-48.0080107,-0.8266884],[-48.0093199,-0.8289471],[-48.0110062,-0.8301908],[-48.0196782,-0.8286039],[-48.0211498,-0.8298374],[-48.0169849,-0.8344911],[-48.0139317,-0.8389099],[-48.0133747,-0.8400486],[-48.0133251,-0.8425354],[-48.0189006,-0.8443429],[-48.023181,-0.8470595],[-48.0235328,-0.847865],[-48.0222891,-0.8486483],[-48.0133666,-0.8493891],[-48.0103194,-0.8515979],[-48.0097593,-0.8535839],[-48.0100965,-0.8556818],[-48.0121241,-0.8574929],[-48.0135989,-0.8566407],[-48.0146786,-0.8549964],[-48.0163153,-0.8545933],[-48.019123,-0.8573689],[-48.0197373,-0.8615603],[-48.0163196,-0.8633727],[-48.0170983,-0.8651818],[-48.020267,-0.866366],[-48.0207598,-0.867787],[-48.0187927,-0.8731724],[-48.0173714,-0.8743115],[-48.0149562,-0.8739128],[-48.0149573,-0.8726626],[-48.0162111,-0.8700652],[-48.0143996,-0.8673902],[-48.012989,-0.8674068],[-48.0083241,-0.8693323],[-48.0066237,-0.8708046],[-48.0086495,-0.8731832],[-48.0043769,-0.8764143],[-48.0019042,-0.8832639],[-48.0019018,-0.8847371],[-48.0033987,-0.8868909],[-48.0031235,-0.8904081],[-48.0049248,-0.8926685],[-48.0052641,-0.894485],[-48.0048118,-0.8958334],[-48.003345,-0.8978178],[-48.0022297,-0.8980516],[-48.0009843,-0.8970881],[-47.9972855,-0.8992226],[-47.995901,-0.9008932],[-47.9958723,-0.9024761],[-47.9966101,-0.9029324],[-48.0009566,-0.9013431],[-48.000673,-0.9017024],[-48.0044688,-0.9061383],[-48.0029025,-0.9101156],[-48.0032329,-0.916735],[-48.0022883,-0.91747],[-48.0009856,-0.9174687],[-47.9995379,-0.9187632],[-48.0005915,-0.922127],[-48.0027926,-0.9232469],[-48.0038194,-0.9248765],[-48.0010976,-0.9256625],[-47.9970104,-0.9253048],[-47.995787,-0.9262129],[-47.9959842,-0.9270039],[-47.9971247,-0.9278305],[-47.9989253,-0.928277],[-47.9993956,-0.9312189],[-47.9987312,-0.9325219],[-47.9957035,-0.9330213],[-47.99044,-0.9327874],[-47.990016,-0.933258],[-47.9893972,-0.9415727],[-47.9884869,-0.944781],[-47.984622,-0.9457358],[-47.983292,-0.9464008],[-47.9822105,-0.9478281],[-47.9194544,-0.9731157],[-47.9298167,-1.0004926],[-47.9430645,-1.0387919],[-47.9509504,-1.0411462],[-47.9547322,-1.0448065],[-47.9560979,-1.0475989],[-47.9608546,-1.0507396],[-47.9713753,-1.0602904],[-47.9749284,-1.0623209],[-47.9778505,-1.0663306],[-47.9790932,-1.0695069],[-47.9812357,-1.0724251],[-47.9828115,-1.0793426],[-47.9826799,-1.0822959],[-47.9838435,-1.0890427],[-47.9886488,-1.0943479],[-47.9896814,-1.0991743],[-47.9917045,-1.1029109],[-47.9984836,-1.1095874],[-48.0011757,-1.1112495],[-48.0055259,-1.1162393],[-48.0084042,-1.1177859],[-48.0108432,-1.1206223],[-48.0137583,-1.122634],[-48.0177905,-1.1275909],[-48.0193578,-1.1313943],[-48.021485,-1.1338065],[-48.1115421,-1.0154478],[-47.9691667,-1.2025779],[-48.0583177,-1.2103743],[-48.0360432,-1.2084302],[-48.0336299,-1.2503066],[-48.0291495,-1.3656498],[-48.0303729,-1.3723277],[-48.0295101,-1.3796112],[-48.029458,-1.3864118],[-48.0301236,-1.3893826],[-48.0269004,-1.4021287],[-48.0275915,-1.4059801],[-48.0270362,-1.4091538],[-48.02549,-1.4128825],[-48.022943,-1.4144536],[-48.0212904,-1.4176396],[-48.0159301,-1.4229136],[-48.0063458,-1.4249492],[-48.0004267,-1.4239355],[-47.9976293,-1.4253403],[-47.9940436,-1.4247625],[-47.990403,-1.4221286],[-47.9861461,-1.4222326],[-48.0004312,-1.4360056],[-48.1343484,-1.515193],[-48.126625,-1.520021],[-48.1182062,-1.5221751],[-48.1122367,-1.526054],[-48.1077874,-1.5303967],[-48.1015422,-1.5397261],[-48.0870135,-1.53921],[-48.0760995,-1.5407988],[-48.0720107,-1.5407866],[-48.065831,-1.5384369],[-48.0630975,-1.536749],[-48.0601508,-1.5338363],[-48.0561827,-1.5285434],[-48.0559474,-1.5180276],[-48.0524334,-1.5003249],[-48.0494607,-1.4927053],[-48.0447081,-1.4859733],[-48.0391784,-1.4804267],[-48.0358245,-1.4778362],[-48.0295416,-1.4750759],[-48.022313,-1.4731056],[-48.0190965,-1.473249],[-48.0128722,-1.4750941],[-47.9975687,-1.4880762],[-47.9943481,-1.4933388],[-47.9876763,-1.5007136],[-47.9870123,-1.5036626],[-47.9896524,-1.5176914],[-47.9927622,-1.5239598],[-47.9990688,-1.5314173],[-48.0021822,-1.536049],[-48.0034303,-1.5393174],[-48.0030723,-1.5454953],[-48.001402,-1.5559148],[-48.0024281,-1.5663797],[-48.0021482,-1.5700107],[-48.000345,-1.5723629],[-47.9971529,-1.5742667],[-47.9953164,-1.5803998],[-47.9936459,-1.5831651],[-47.9853431,-1.5887433],[-47.9789807,-1.5920983],[-47.9722382,-1.59296],[-47.9657862,-1.5928152],[-47.9594842,-1.5905484],[-47.9561475,-1.5883532],[-47.9362328,-1.5730319],[-47.9259813,-1.569172],[-47.917316,-1.5671325],[-47.9132633,-1.5670659],[-47.9034881,-1.5694123],[-47.891533,-1.5759643],[-47.8810236,-1.5852897],[-47.8737901,-1.5932631],[-47.872038,-1.5958925],[-47.8692616,-1.6023683],[-47.8679576,-1.6095786],[-47.8664587,-1.6134478],[-47.8610667,-1.6223505],[-47.8577026,-1.6292657],[-47.8669897,-1.6383848],[-47.8696006,-1.6424391],[-47.8719118,-1.6498466],[-47.876683,-1.6553869],[-47.8808876,-1.661938],[-47.8817018,-1.6683142],[-47.8812648,-1.6825482],[-47.8794402,-1.687489],[-47.8762588,-1.6914913],[-47.8734323,-1.6935091],[-47.8696267,-1.6998921],[-47.868508,-1.7035114],[-47.8684536,-1.7064975],[-47.8700073,-1.7138956],[-47.8693983,-1.7205279],[-47.8700353,-1.7236681],[-47.8753423,-1.7275994],[-47.8772926,-1.7301037],[-47.8783188,-1.7329314],[-47.8767357,-1.7358397],[-47.8739825,-1.7367929],[-47.8714122,-1.7395433],[-47.8727338,-1.742184],[-47.8780417,-1.74579],[-47.885262,-1.7533031],[-47.8861241,-1.7563012],[-47.8850884,-1.7608011],[-47.8944995,-1.7803939],[-47.8953363,-1.7852597],[-47.8945169,-1.7881696],[-47.8934331,-1.7889528],[-47.8877011,-1.7888852],[-47.8806229,-1.7863213],[-47.878593,-1.7862031],[-47.8761232,-1.7883619],[-47.8733412,-1.7898003],[-47.8726207,-1.7929469],[-47.8737332,-1.7962417],[-47.8797032,-1.8033655],[-47.8830905,-1.8090329],[-47.8840416,-1.8121762],[-47.8841768,-1.815269],[-47.8830127,-1.8219553],[-47.8830046,-1.8256771],[-47.8786822,-1.8423364],[-47.8795405,-1.8491661],[-47.8814261,-1.8520474],[-47.8838727,-1.854098],[-47.8857336,-1.856597],[-47.8857926,-1.8603281],[-47.8850888,-1.863481],[-47.8857349,-1.8666314],[-47.8881778,-1.869753],[-47.8988734,-1.8775327],[-47.901902,-1.8905104],[-47.9021556,-1.9004749],[-47.9036783,-1.9040143],[-47.9040625,-1.9074697],[-47.9043962,-1.9172907],[-47.9053721,-1.923419],[-47.9047421,-1.9254248],[-47.9055917,-1.9344158],[-47.9038375,-1.9358222],[-47.8971817,-1.9333182],[-47.8947596,-1.9339929],[-47.8932963,-1.937991],[-47.8945651,-1.9433352],[-47.899271,-1.9524067],[-47.9073801,-1.9586832],[-47.9092026,-1.9587843],[-47.9116313,-1.959767],[-47.9115841,-1.9623927],[-47.9107603,-1.9640075],[-47.9075636,-1.9665614],[-47.8998707,-1.9679514],[-47.8949121,-1.9673631],[-47.8915369,-1.9683516],[-47.8907294,-1.9711372],[-47.8905077,-1.9774291],[-47.8895887,-1.9829047],[-47.8940832,-1.986762],[-47.9076168,-1.9942452],[-47.9139328,-2.0011317],[-47.9186984,-2.0019183],[-47.926011,-2.0067143],[-47.9277367,-2.0115948],[-47.9282704,-2.016507],[-47.9279482,-2.0233476],[-47.9321612,-2.0269821],[-47.946234,-2.029435],[-47.9513342,-2.0321035],[-47.9548602,-2.035786],[-47.9588115,-2.0452043],[-47.9663231,-2.0525227],[-47.9811805,-2.0703019],[-47.9847471,-2.0838547],[-47.9845969,-2.0886065],[-47.9863923,-2.0937174],[-47.988111012815956,-2.0960176339729424],[-47.9894441,-2.1019234],[-47.9865964,-2.1077612],[-47.9799787,-2.1109536],[-47.9788095,-2.1143766],[-47.9792274,-2.1178705],[-47.9827063,-2.122755],[-47.9827348,-2.1234944],[-47.985434,-2.1261275],[-47.9860767,-2.1298427],[-47.9817324,-2.1371512],[-47.9828439,-2.1405003],[-47.9872908,-2.1460589],[-47.9926546,-2.1511634],[-47.9955184,-2.1557948],[-47.9936497,-2.158939],[-47.9813207,-2.162065],[-47.9768436,-2.1644117],[-47.9750075,-2.1670126],[-47.9736805,-2.1709016],[-47.9733871,-2.1745851],[-47.9772858,-2.1777754],[-47.9796037,-2.1817527],[-47.9805175,-2.1850319],[-47.9786794,-2.1901222],[-47.9649534,-2.2084803],[-47.9638155,-2.2141955],[-47.9644533,-2.2209424],[-47.9676487,-2.2219636],[-47.9710951,-2.2213931],[-47.9819564,-2.2212746],[-47.9887645,-2.2226073],[-47.9917578,-2.2226833],[-47.994846,-2.2237482],[-47.9971519,-2.2268605],[-47.9971229,-2.2298014],[-47.9911758,-2.2375749],[-47.9884064,-2.2444988],[-47.9872387,-2.2505909],[-47.986066,-2.2537348],[-47.9886773,-2.2592876],[-47.9945176,-2.2622609],[-48.0039556,-2.2648723],[-48.0056832,-2.268657],[-48.0069811,-2.278708],[-48.0105603,-2.2847427],[-48.0123993,-2.2906848],[-48.0148739,-2.292289],[-48.0184015,-2.2934361],[-48.024599,-2.2926893],[-48.0276264,-2.2932417],[-48.0287912,-2.2961509],[-48.0279587,-2.300024],[-48.0244035,-2.3093472],[-48.0241559,-2.3126642],[-48.0261504,-2.315138],[-48.0297914,-2.3173112],[-48.0363763,-2.3187619],[-48.0400097,-2.3203863],[-48.0455101,-2.3251237],[-48.0477341,-2.3279547],[-48.0502899,-2.3344086],[-48.0534555,-2.3403856],[-48.051455,-2.3503615],[-48.0523198,-2.353992],[-48.0553143,-2.3599873],[-48.0545718,-2.3633114],[-48.0506249,-2.3696017],[-48.0461799,-2.3792044],[-48.0408748,-2.3832759],[-48.0391529,-2.3864364],[-48.0372327,-2.3936229],[-48.0351287,-2.3959254],[-48.0222096,-2.4020834],[-48.0217643,-2.4050244],[-48.024041,-2.4080781],[-48.0317598,-2.4079015],[-48.034481,-2.4102439],[-48.0356219,-2.4170488],[-48.0395699,-2.4228039],[-48.0493746,-2.428002],[-48.0497915,-2.4311251],[-48.046566,-2.432649],[-48.0435073,-2.433221],[-48.0382383,-2.4375242],[-48.0346545,-2.4385067],[-48.0316526,-2.4402483],[-48.0305398,-2.4436226],[-48.0311813,-2.4473879],[-48.0326222,-2.4507304],[-48.0373159,-2.4567526],[-48.0467584,-2.4733704],[-48.0477667,-2.476318],[-48.0492654,-2.4867687],[-48.0490368,-2.4938197],[-48.0479267,-2.4967218],[-48.0450462,-2.498201],[-48.0381823,-2.4981249],[-48.0230649,-2.4946375],[-48.020318,-2.4958123],[-48.0198513,-2.4993827],[-48.0155076,-2.5078347],[-48.0104556,-2.5150088],[-48.0045136,-2.5205381],[-48.0003164,-2.5200781],[-47.996654,-2.5185242],[-47.9929882,-2.5122097],[-47.9903754,-2.5092216],[-47.9870704,-2.5065793],[-47.9814524,-2.5059689],[-47.9768735,-2.5066071],[-47.9669598,-2.5115502],[-47.9591536,-2.5174687],[-47.9557085,-2.5179303],[-47.9520348,-2.5170589],[-47.946793,-2.5130686],[-47.9462657,-2.5108214],[-47.9442778,-2.507277],[-47.9426472,-2.5003322],[-47.9389907,-2.4963188],[-47.9324757,-2.4958274],[-47.9292123,-2.4988196],[-47.9289023,-2.5048281],[-47.9260065,-2.5146259],[-47.9259899,-2.5205171],[-47.927069,-2.5297668],[-47.931962,-2.5431181],[-47.9351521,-2.5472169],[-47.9400993,-2.5507025],[-47.9430545,-2.5513963],[-47.9509786,-2.5584303],[-47.9539396,-2.5620838],[-47.9542214,-2.5664056],[-47.9555087,-2.5703004],[-47.9587592,-2.5752963],[-47.9733231,-2.5891831],[-47.9761238,-2.5940251],[-47.9792615,-2.5977643],[-47.9918197,-2.6026448],[-48.0019292,-2.6101841],[-48.011505,-2.6138527],[-48.0150199,-2.6167611],[-48.0181484,-2.6180793],[-48.0285948,-2.6245782],[-48.032129,-2.6302284],[-48.043473,-2.6402704],[-48.0461142,-2.6436642],[-48.0474499,-2.6482876],[-48.0465671,-2.6568492],[-48.0449827,-2.6613201],[-48.0443727,-2.6665899],[-48.0390957,-2.6829177],[-48.0361005,-2.6903966],[-48.0352044,-2.6952763],[-48.0351502,-2.6989908],[-48.0391049,-2.7113933],[-48.0477391,-2.7268215],[-48.051563,-2.7355834],[-48.0551822,-2.7420696],[-48.0598698,-2.7540132],[-48.0637407,-2.7606879],[-48.0659606,-2.7628039],[-48.0737051,-2.7750689],[-48.0759594,-2.7812591],[-48.0783995,-2.7932622],[-48.0811,-2.8124279],[-48.0837154,-2.8197212],[-48.0888218,-2.8428063],[-48.0855456,-2.8578192],[-48.0863185,-2.8614474],[-48.0912914,-2.8719457],[-48.0909863,-2.8752995],[-48.088648,-2.8790736],[-48.0887031,-2.8823303],[-48.0925005,-2.8853059],[-48.091029,-2.899863],[-48.1027345,-2.9219681],[-48.1204836,-2.9404598],[-48.1286783,-2.947287],[-48.1376384,-2.9479639],[-48.143457,-2.9473287],[-48.1475353,-2.9459728],[-48.1567483,-2.9459438],[-48.1628013,-2.9474518],[-48.1707678,-2.947543],[-48.1798225,-2.9488805],[-48.1871905,-2.9518062],[-48.1934532,-2.9564239],[-48.1996783,-2.9647888],[-48.2023963,-2.9698425],[-48.2046584,-2.9793286],[-48.2064325,-2.9904209],[-48.2107682,-3.0005084],[-48.2120129,-3.0063525],[-48.2146812,-3.01227],[-48.2209351,-3.020563],[-48.2281019,-3.0280539],[-48.2314894,-3.0335237],[-48.2336041,-3.0403373],[-48.2345498,-3.0463601],[-48.2395757,-3.0596788],[-48.2481175,-3.0732739],[-48.2499958,-3.0796493],[-48.2515105,-3.0877143],[-48.2521892,-3.0984744],[-48.2516001,-3.1093967],[-48.2519886,-3.1137197],[-48.2531125,-3.1168284],[-48.2564104,-3.1208245],[-48.2618679,-3.1222787],[-48.2669408,-3.1203564],[-48.2725221,-3.1135831],[-48.2754675,-3.1087696],[-48.279211,-3.1054325],[-48.2818516,-3.10389],[-48.2826902,-3.1021983],[-48.2835637,-3.0958653],[-48.2857771,-3.0936411],[-48.2922401,-3.0953028],[-48.3030025,-3.0993202],[-48.3053364,-3.1007861],[-48.3074271,-3.1071623],[-48.3096602,-3.1266671],[-48.3136563,-3.1333499],[-48.3189339,-3.1404609],[-48.3197126,-3.1443627],[-48.318875,-3.1468383],[-48.3167592,-3.1491125],[-48.3099258,-3.1602197],[-48.3088321,-3.1644441],[-48.3224972,-3.1834138],[-48.3291754,-3.1937926],[-48.3323677,-3.1975251],[-48.3371969,-3.2004037],[-48.3424292,-3.1986938],[-48.3450415,-3.197145],[-48.3493792,-3.1982731],[-48.3619828,-3.1985476],[-48.3671211,-3.2016745],[-48.3739299,-3.2071641],[-48.3807693,-3.2116576],[-48.3914589,-3.2164504],[-48.3990479,-3.2173282],[-48.4015673,-3.214173],[-48.4026304,-3.2088244],[-48.4058476,-3.1997785],[-48.4099052,-3.1978196],[-48.4149547,-3.2007552],[-48.4278597,-3.2185921],[-48.4389424,-3.2288859],[-48.4450122,-3.2358094],[-48.4483511,-3.237645],[-48.4597335,-3.2339186],[-48.4655945,-3.2334186],[-48.474186,-3.2349569],[-48.4809298,-3.2354383],[-48.4862696,-3.2336562],[-48.4935135,-3.2299957],[-48.4986833,-3.2260368],[-48.500435,-3.2230486],[-48.502651,-3.2207191],[-48.5080998,-3.216703],[-48.5154351,-3.2093543],[-48.5202394,-3.20588],[-48.5305686,-3.1956707],[-48.5396232,-3.1935033]],[[-48.5189866,-3.1536019],[-48.5185718,-3.1657527],[-48.51889040697217,-3.1508746558876974],[-48.5189866,-3.1536019]],[[-48.30181167366419,-1.1063640230374336],[-48.3018165,-1.1063516],[-48.3042616,-1.1010325],[-48.30181167366419,-1.1063640230374336]],[[-48.34446680096826,-1.347394579928659],[-48.34423,-1.3473124],[-48.3442158,-1.3454058],[-48.34446680096826,-1.347394579928659]],[[-48.3673537,-1.3700054],[-48.36728902456462,-1.370450541019543],[-48.36728509955258,-1.3698346804632968],[-48.3673537,-1.3700054]],[[-48.3672318,-1.3708444],[-48.3653191,-1.3719324],[-48.36723954720378,-1.3707910783923591],[-48.3672318,-1.3708444]],[[-48.3325998,-1.4234027],[-48.33157964701144,-1.4285532561036467],[-48.33249828224884,-1.4224658878822638],[-48.3325998,-1.4234027]],[[-48.3363115,-1.4349114],[-48.3329467,-1.4310486],[-48.33226954512455,-1.4298125584569978],[-48.3363115,-1.4349114]],[[-48.3400834,-1.4365253],[-48.34006826552636,-1.4366895116304788],[-48.3390781,-1.4353241],[-48.3400834,-1.4365253]],[[-48.3434321,-1.4381526],[-48.34411019714959,-1.43824982515671],[-48.3398498,-1.4390599],[-48.3434321,-1.4381526]],[[-48.3482738,-1.4388468],[-48.34846826256224,-1.438988386124435],[-48.34590400616899,-1.438507020402444],[-48.3482738,-1.4388468]],[[-48.3491421,-1.439479],[-48.34915735942646,-1.4397766099076583],[-48.34894597107146,-1.4393362006119736],[-48.3491421,-1.439479]],[[-48.3493213,-1.442974],[-48.348816,-1.4448242],[-48.3492541640508,-1.441664624205025],[-48.3493213,-1.442974]],[[-48.3454719,-1.4537432],[-48.34461998677479,-1.4547714802824565],[-48.345470490391726,-1.4529828695550044],[-48.3454719,-1.4537432]],[[-48.3437494,-1.4558223],[-48.3319608,-1.4628878],[-48.344052970262496,-1.4554558832030464],[-48.3437494,-1.4558223]],[[-48.232731,-1.6845078],[-48.229899,-1.6909427],[-48.2338196,-1.6810567],[-48.232731,-1.6845078]],[[-48.0833959,-1.8326083],[-48.0822321,-1.8327754],[-48.08374918541349,-1.8323470683686147],[-48.0833959,-1.8326083]],[[-48.0729854,-1.8487784],[-48.0784064,-1.8287054],[-48.0797259,-1.8257675],[-48.0782774,-1.8297076],[-48.0729854,-1.8487784]],[[-48.0763492,-2.0385551],[-48.0762898,-2.0422439],[-48.0757906,-2.0335256],[-48.0763492,-2.0385551]],[[-48.0623117,-2.0829518],[-48.064548776010795,-2.083133519469269],[-48.060020981944305,-2.083361913076005],[-48.0623117,-2.0829518]],[[-48.140041864446076,-2.126386223427503],[-48.1380721,-2.1242516],[-48.1359638,-2.1207809],[-48.140041864446076,-2.126386223427503]],[[-48.1455699,-2.1314592],[-48.1431214,-2.1297235],[-48.14176060856262,-2.1282488174368313],[-48.1455699,-2.1314592]],[[-48.2897121,-2.2129856],[-48.2890704,-2.2159887],[-48.288451335027354,-2.2172613476236256],[-48.2897121,-2.2129856]],[[-48.2886222,-2.2036858],[-48.289649,-2.2099888],[-48.2897121,-2.2129856],[-48.2886222,-2.2036858]],[[-48.4319846,-2.2909034],[-48.436294,-2.2922343],[-48.4289106,-2.2904954],[-48.4319846,-2.2909034]],[[-48.8222119,-2.5254827],[-48.8245976,-2.5356211],[-48.8202926,-2.5196829],[-48.8222119,-2.5254827]],[[-48.50764837077543,-2.5525848819536217],[-48.5112067,-2.5474232],[-48.5094047,-2.5506031],[-48.50764837077543,-2.5525848819536217]],[[-48.5023247,-2.5576935],[-48.50626035906015,-2.554151067000411],[-48.5046511,-2.5559669],[-48.5023247,-2.5576935]],[[-49.706464485384515,-2.06904608677138],[-49.738499,-2.0322001],[-49.706464485384515,-2.0690460867713814],[-49.706464485384515,-2.06904608677138]],[[-49.2873864,-1.9593981],[-49.2967723,-1.9654075],[-49.2932709,-1.9636418],[-49.2873864,-1.9593981]],[[-49.2587467,-1.911854],[-49.2592404,-1.9215367],[-49.25842486238172,-1.90975283177909],[-49.2587467,-1.911854]],[[-49.2576598,-1.904758],[-49.25789561270165,-1.9062975408325775],[-49.25712435903057,-1.9026829965705991],[-49.2576598,-1.904758]],[[-49.244627,-1.8623969],[-49.245766246833355,-1.866482797588543],[-49.24345757391901,-1.8602187775349113],[-49.244627,-1.8623969]],[[-49.2012211,-1.7564562],[-49.2065182,-1.7844068],[-49.2001758,-1.7529425],[-49.2012211,-1.7564562]],[[-49.03214813132168,-1.8308789983262765],[-49.0341801,-1.8300402],[-49.0334279,-1.830719],[-49.03214813132168,-1.8308789983262765]],[[-49.02927891107207,-1.8308785722179106],[-49.03129926031222,-1.8309851252717453],[-49.0299045,-1.8311595],[-49.02927891107207,-1.8308785722179106]],[[-49.0116631,-1.8228287],[-49.017586,-1.8277256],[-49.0146037,-1.8254947],[-49.0116631,-1.8228287]],[[-48.91840094255591,-1.9483426196791103],[-48.91878970460927,-1.9480538370658],[-48.91869,-1.9481467],[-48.91840094255591,-1.9483426196791103]],[[-48.9021554,-1.9587087],[-48.905768,-1.9565822],[-48.91238994182129,-1.9524168040986531],[-48.9093806,-1.9544565],[-48.9021554,-1.9587087]],[[-49.2975345,-2.4506226],[-49.3044361,-2.4545414],[-49.22788667524513,-2.4107545932327494],[-49.2975345,-2.4506226]],[[-49.22582364379751,-2.409416648327281],[-49.2237677,-2.4080833],[-49.2159342,-2.4009895],[-49.22582364379751,-2.409416648327281]],[[-48.9601552,-2.1569234],[-48.9561346,-2.1518923],[-48.95553374957197,-2.1505791913965178],[-48.9601552,-2.1569234]],[[-48.8779325,-1.9847951],[-48.879932,-1.9805759],[-48.88155289701038,-1.9779668738057543],[-48.8779325,-1.9847951]],[[-48.88410653551493,-1.9738564894282604],[-48.885099,-1.972259],[-48.8936584,-1.9629444],[-48.88410653551493,-1.9738564894282604]],[[-48.9502738,-3.0842281],[-48.94728826869061,-3.0860063121513934],[-48.9472886,-3.0860057],[-48.9502738,-3.0842281]],[[-49.0322171,-2.8577118],[-49.0329373,-2.8613376],[-49.0329335,-2.8646991],[-49.0322171,-2.8577118]],[[-48.8261542,-2.6245696],[-48.82588494410292,-2.6234979658288697],[-48.826666665597074,-2.6257064699175117],[-48.8261542,-2.6245696]],[[-48.9180498,-3.1614335],[-48.91698592532996,-3.159913787723763],[-48.9226032,-3.1658382],[-48.9180498,-3.1614335]],[[-48.913435,-3.1548414],[-48.9118518,-3.1512827],[-48.91426263929141,-3.1560236572967173],[-48.913435,-3.1548414]],[[-48.9117144,-3.1475321],[-48.9120999,-3.144483],[-48.9118518,-3.1512827],[-48.9117144,-3.1475321]],[[-49.7498833,-2.2414691],[-49.7491626,-2.2447777],[-49.74980441100088,-2.239900678371351],[-49.7498833,-2.2414691]],[[-48.464485,-1.5225528],[-48.4606834,-1.5223549],[-48.4574326,-1.5217957],[-48.464485,-1.5225528]],[[-48.8278536,-1.5745198],[-48.8227943,-1.5852873],[-48.821717423468016,-1.587062457398693],[-48.8278536,-1.5745198]],[[-48.42992481703186,-1.4041350191842197],[-48.4299229,-1.4043366],[-48.42488,-1.398774],[-48.42992481703186,-1.4041350191842197]],[[-48.3945119,-1.2244718],[-48.3985652,-1.2248691],[-48.4053723,-1.2257978],[-48.3945119,-1.2244718]],[[-48.3842654,-1.4440569],[-48.3836274,-1.4389072],[-48.38458317162478,-1.4441973517833717],[-48.3842654,-1.4440569]],[[-48.3712388,-1.4199848],[-48.3715436,-1.4173134],[-48.37147857369614,-1.4208754724767423],[-48.3712388,-1.4199848]],[[-48.2705666,-1.2680966],[-48.2739031,-1.2679573],[-48.270370224129856,-1.2682372669239883],[-48.2705666,-1.2680966]],[[-48.247568,-1.2864376],[-48.2509279,-1.2863783],[-48.254899,-1.2829097],[-48.2510374,-1.2863914],[-48.247568,-1.2864376]],[[-48.243815330107275,-1.2944745998152025],[-48.2456892,-1.2923828],[-48.2440455,-1.2944838],[-48.243815330107275,-1.2944745998152025]],[[-48.23121678657348,-1.2954023720792258],[-48.2388494,-1.2955877],[-48.2317598,-1.2955805],[-48.23121678657348,-1.2954023720792258]],[[-48.2280392,-1.2919109],[-48.23045302894996,-1.295151832127889],[-48.2302685,-1.2950913],[-48.2280392,-1.2919109]],[[-48.2232648,-1.2773409],[-48.2255093,-1.2861439],[-48.2244037,-1.2831361],[-48.2232648,-1.2773409]],[[-48.2232894,-1.2743609],[-48.223521366370115,-1.2737448757851197],[-48.2232648,-1.2773409],[-48.2232894,-1.2743609]],[[-48.20743526727024,-1.2571700173622682],[-48.2144543,-1.2552303],[-48.20743526727024,-1.2571700173622686],[-48.20743526727024,-1.2571700173622682]],[[-48.24132795425114,-1.4719873376300279],[-48.23839069389133,-1.4728923338993922],[-48.2399845,-1.4722218],[-48.24132795425114,-1.4719873376300279]],[[-48.23469941429625,-1.4744453007798544],[-48.2266244,-1.4786467],[-48.2329317,-1.475189],[-48.23469941429625,-1.4744453007798544]],[[-48.2182936,-1.4843807],[-48.20918793624545,-1.488909479180565],[-48.2117027,-1.4872913],[-48.2182936,-1.4843807]],[[-48.20681726912934,-1.4904349362595457],[-48.203294774917936,-1.4932559301676485],[-48.2046006,-1.4918613],[-48.20681726912934,-1.4904349362595457]],[[-48.20079372360044,-1.4959270701741632],[-48.1948968,-1.5049545],[-48.199482,-1.497328],[-48.20079372360044,-1.4959270701741632]],[[-48.0801514,-1.8122132],[-48.0817391,-1.8152826],[-48.0789385,-1.81053],[-48.0801514,-1.8122132]],[[-48.0743264,-1.8070575],[-48.07472041226356,-1.8076210105942596],[-48.0736676025561,-1.8067485342809333],[-48.0743264,-1.8070575]],[[-47.9457847,-1.6620571],[-47.9477396,-1.6649649],[-47.945739696941914,-1.6621019613254666],[-47.9457847,-1.6620571]],[[-47.8894329,-1.6783257],[-47.8984451,-1.6669292],[-47.888388175930665,-1.6800096788820145],[-47.8894329,-1.6783257]],[[-47.88571402955333,-1.6910598344253012],[-47.8862534,-1.6834507],[-47.8859882,-1.69034],[-47.88571402955333,-1.6910598344253012]],[[-47.8836899,-1.701561],[-47.883576579960895,-1.7007461637233605],[-47.8844689354914,-1.7029756141619303],[-47.8836899,-1.701561]],[[-47.8899632,-1.7156086],[-47.8884160504691,-1.7106848021900696],[-47.8891678,-1.7120743],[-47.8899632,-1.7156086]],[[-47.8870487,-1.7323055],[-47.8870487,-1.7294788],[-47.887683316690705,-1.7349867045618426],[-47.8870487,-1.7323055]],[[-47.8870092,-1.7463703],[-47.88799885567285,-1.737725300354601],[-47.8881073,-1.7386665],[-47.8870092,-1.7463703]],[[-47.8928172,-1.7680491],[-47.8918763,-1.7589728],[-47.8923959,-1.7619689],[-47.8928172,-1.7680491]],[[-48.277499369806264,-1.3904436949039265],[-48.2775359,-1.3897885],[-48.27792269787659,-1.3889736077585968],[-48.277499369806264,-1.3904436949039265]],[[-48.25638669692414,-1.4529700828730194],[-48.2588824,-1.4634559],[-48.2565389,-1.4538614],[-48.25638669692414,-1.4529700828730194]],[[-48.234739,-1.4295088],[-48.2404834,-1.4350588],[-48.2373729,-1.4323516],[-48.234739,-1.4295088]]],[[[-50.8039216,-0.525207],[-50.8359176,-0.5303632],[-50.8426814,-0.5319442],[-50.8498652,-0.5343715],[-50.857284,-0.5376523],[-50.8600859,-0.5394354],[-50.884256,-0.5469791],[-50.8886405,-0.54774],[-50.8921432,-0.549519],[-50.8968671,-0.5505256],[-50.9005604,-0.5520799],[-50.913504,-0.5554017],[-50.9293647,-0.5621478],[-50.9329478,-0.5630248],[-50.9387845,-0.5663521],[-50.9581139,-0.5744287],[-50.9682259,-0.5811983],[-50.9704524,-0.5838176],[-50.9735947,-0.585779],[-50.9858983,-0.5966113],[-51.0005027,-0.6152643],[-51.0110596,-0.6309225],[-51.0223371,-0.6414877],[-51.02754,-0.6437748],[-51.0367738,-0.6494628],[-51.0423911,-0.6514531],[-51.0447527,-0.653324],[-51.0550471,-0.65667],[-51.0794,-0.6618326],[-51.0944552,-0.6615551],[-51.0999199,-0.6570233],[-51.1043951,-0.6548754],[-51.1134255,-0.6519018],[-51.1178919,-0.6493094],[-51.1200314,-0.6469099],[-51.1235656,-0.6388723],[-51.1218392,-0.6251766],[-51.1200366,-0.6212222],[-51.1147585,-0.6132042],[-51.1091404,-0.6007648],[-51.1046437,-0.5945022],[-51.0991433,-0.5817632],[-51.0929241,-0.562877],[-51.0957533,-0.5463567],[-51.1017959,-0.5410688],[-51.1044397,-0.5410684],[-51.1174709,-0.5482422],[-51.1242547,-0.5507007],[-51.1446735,-0.5478598],[-51.1507202,-0.5450256],[-51.1671573,-0.5314234],[-51.1748923,-0.520165],[-51.1809144,-0.5056302],[-51.1805591,-0.5014682],[-51.1781033,-0.4990136],[-51.174319,-0.4969404],[-51.1610902,-0.4929852],[-51.1503386,-0.4861774],[-51.1484498,-0.4831563],[-51.1480684,-0.4769311],[-51.149388,-0.4682315],[-51.1484422,-0.4614348],[-51.1422119,-0.4489747],[-51.140948,-0.4369732],[-51.1435176,-0.4206826],[-51.1482514,-0.4092566],[-51.1550512,-0.4024578],[-51.159206,-0.4028349],[-51.1652903,-0.4049593],[-51.195856,-0.4202055],[-51.2090968,-0.4239807],[-51.2295058,-0.4290802],[-51.241602,-0.4300179],[-51.2549874,-0.4301948],[-51.2640347,-0.4315311],[-51.2720337,-0.4319064],[-51.2922278,-0.4343615],[-51.3038474,-0.4367483],[-51.3348543,-0.4453492],[-51.353163,-0.4533494],[-51.3630369,-0.4599914],[-51.3719285,-0.4639758],[-51.4278956,-0.4764487],[-51.4324792,-0.4733425],[-51.4284336,-0.461943],[-51.4251572,-0.4469056],[-51.4236695,-0.4366112],[-51.4222598,-0.4319227],[-51.4207255,-0.4289932],[-51.4166756,-0.4243499],[-51.4037713,-0.4147375],[-51.3957855,-0.4049706],[-51.3785635,-0.3875805],[-51.3683699,-0.3762575],[-51.3643091,-0.3713156],[-51.3625053,-0.3681079],[-51.362004,-0.3588207],[-51.3544518,-0.3185241],[-51.3477828,-0.2996133],[-51.3390097,-0.284577],[-51.3321183,-0.2737844],[-51.3230321,-0.2637693],[-51.3149509,-0.2589056],[-51.3069007,-0.2560917],[-51.3024816,-0.2526427],[-51.3000924,-0.2466348],[-51.296536,-0.2418273],[-51.2895955,-0.2280768],[-51.2794838,-0.2140902],[-51.2762585,-0.2104564],[-51.2724507,-0.204322],[-51.2599766,-0.186994],[-51.257174,-0.1805519],[-51.2409806,-0.1562141],[-51.2350362,-0.1436392],[-51.2234227,-0.127782],[-51.219704,-0.124303],[-51.2163629,-0.1186128],[-51.2115658,-0.1185581],[-51.2003095,-0.1135871],[-51.1883891,-0.1102357],[-51.1810052,-0.106658],[-51.1748986,-0.1045348],[-51.158782,-0.1031875],[-51.151361,-0.1031859],[-51.1477866,-0.1026716],[-51.1416432,-0.100739],[-51.1264528,-0.0981075],[-51.1132027,-0.0966079],[-51.0997284,-0.091258],[-51.0970345,-0.0883594],[-51.0923965,-0.0888919],[-51.0849181,-0.0875401],[-51.0808362,-0.0864433],[-51.0759307,-0.0837325],[-51.0689259,-0.0791257],[-51.0656742,-0.0762263],[-51.0598716,-0.0679158],[-51.0396426,-0.0435004],[-51.0236443,-0.0193126],[-51.0173382,-0.0107236],[-51.0108074,-0.0045001],[-51.0074756,-0.0003456],[-51.0004732,-0.0003456],[-50.9969123,0.0034511],[-50.992178,0.0129537],[-50.9898666,0.019345],[-50.985116,0.0294201],[-50.9809629,0.0354058],[-50.9748326,0.0417932],[-50.9594726,0.0538579],[-50.9462399,0.0627093],[-50.9341696,0.0696812],[-50.9210933,0.0761336],[-50.9001908,0.0811728],[-50.8898185,0.0845142],[-50.8797787,0.0867826],[-50.8719155,0.0892237],[-50.848999,0.0942903],[-50.822708,0.1018891],[-50.8035186,0.1063234],[-50.7847969,0.112112],[-50.7667803,0.1196233],[-50.7619561,0.120978],[-50.7435088,0.1304852],[-50.7322886,0.1386179],[-50.7264617,0.1416011],[-50.7233648,0.1443183],[-50.7187524,0.1469676],[-50.7009796,0.1616068],[-50.6904393,0.1684767],[-50.6681975,0.1850345],[-50.6478824,0.2053819],[-50.623601,0.2317763],[-50.6152245,0.2379565],[-50.6067783,0.2457364],[-50.599668,0.2493574],[-50.5974747,0.2440179],[-50.5926787,0.2397646],[-50.5901139,0.2365077],[-50.5836733,0.2311708],[-50.5801591,0.2271888],[-50.5722417,0.2213994],[-50.5583187,0.2128952],[-50.5490549,0.2059277],[-50.5441574,0.2011313],[-50.5305182,0.1919958],[-50.5230134,0.1883753],[-50.5055275,0.1842131],[-50.5021966,0.1837611],[-50.4987748,0.1841215],[-50.4876414,0.1821316],[-50.4708823,0.1775176],[-50.4532625,0.1683805],[-50.4474053,0.1638564],[-50.4362167,0.1535429],[-50.4328801,0.1495618],[-50.4206095,0.1282115],[-50.4129705,0.1124693],[-50.4056688,0.0889479],[-50.4026616,0.0745614],[-50.3956986,0.0504982],[-50.3924084,0.0438027],[-50.3778843,0.022814],[-50.370343,0.016588],[-50.3608731,0.0102384],[-50.353427,0.0033638],[-50.3449711,-0.0019891],[-50.3318106,-0.0131351],[-50.3263577,-0.0203641],[-50.3031696,-0.0581062],[-50.2988039,-0.0682877],[-50.2975007,-0.0769071],[-50.2979211,-0.0951742],[-50.298666,-0.1015891],[-50.1959776,-0.2135243],[-50.1072191,-0.4708616],[-50.1145242,-0.4647672],[-50.2336407,-0.3127859],[-50.2340055,-0.3138583],[-50.2379348,-0.3144326],[-50.2428406,-0.3201487],[-50.2458038,-0.3252521],[-50.2489141,-0.3289413],[-50.2489031,-0.3317825],[-50.2524399,-0.3344349],[-50.2580219,-0.3369049],[-50.2631912,-0.3412665],[-50.2655787,-0.3416367],[-50.2670954,-0.3430607],[-50.2689344,-0.3470905],[-50.2643449,-0.3490921],[-50.2638894,-0.3528726],[-50.2643207,-0.3536532],[-50.2725497,-0.3563824],[-50.2727588,-0.3581862],[-50.2702502,-0.3612118],[-50.2701074,-0.3623462],[-50.2717541,-0.366466],[-50.2712417,-0.3694501],[-50.2726743,-0.370605],[-50.2723467,-0.3723201],[-50.2707697,-0.3743369],[-50.2707826,-0.3753958],[-50.2720822,-0.3776163],[-50.2727343,-0.3888258],[-50.2722528,-0.3920731],[-50.2709959,-0.3949193],[-50.2713296,-0.4010214],[-50.272777,-0.4027168],[-50.275821,-0.4037356],[-50.2764666,-0.4053762],[-50.2759083,-0.409014],[-50.2770601,-0.4162543],[-50.2782094,-0.4171625],[-50.2837043,-0.4177853],[-50.28451,-0.4189214],[-50.2847507,-0.4235745],[-50.2865142,-0.4270075],[-50.2870405,-0.429249],[-50.2872972,-0.4420077],[-50.2864198,-0.4442807],[-50.2866216,-0.4507441],[-50.2852336,-0.4550844],[-50.2875328,-0.4605929],[-50.2874953,-0.4653977],[-50.2882984,-0.4719194],[-50.2902078,-0.4720322],[-50.2961763,-0.4707281],[-50.3019864,-0.4708592],[-50.305216,-0.4714171],[-50.3076385,-0.472719],[-50.3101812,-0.4790833],[-50.3179349,-0.4870181],[-50.3229469,-0.4956313],[-50.3222596,-0.4977823],[-50.3199791,-0.4991878],[-50.3192606,-0.5007727],[-50.3227675,-0.5121716],[-50.325793,-0.5181106],[-50.3261534,-0.5228898],[-50.3226189,-0.5284113],[-50.3201951,-0.5365424],[-50.3214968,-0.5383693],[-50.3289493,-0.5440151],[-50.3297194,-0.5464217],[-50.3300397,-0.5507829],[-50.3298477,-0.5532858],[-50.3288819,-0.5555491],[-50.3298149,-0.5566011],[-50.3332824,-0.5574633],[-50.3333548,-0.5628257],[-50.3338774,-0.5642649],[-50.3293133,-0.5688703],[-50.3275312,-0.5697791],[-50.3244947,-0.5703028],[-50.3238548,-0.5709647],[-50.3228846,-0.5779403],[-50.3197752,-0.5800109],[-50.3188279,-0.5840515],[-50.3191259,-0.5880315],[-50.3217367,-0.5951525],[-50.3236763,-0.5973417],[-50.3244953,-0.6020655],[-50.3235993,-0.6056619],[-50.320512,-0.6091812],[-50.3183057,-0.6136847],[-50.3211181,-0.6172565],[-50.3252687,-0.6207799],[-50.3273959,-0.6331443],[-50.3344521,-0.6382022],[-50.3355811,-0.6380551],[-50.3389798,-0.6361253],[-50.3428035,-0.6294098],[-50.3495831,-0.6273945],[-50.3527554,-0.6276561],[-50.3565869,-0.62855],[-50.3580261,-0.6294282],[-50.3585746,-0.6303742],[-50.3581034,-0.6342676],[-50.3586568,-0.6376457],[-50.3606671,-0.6407406],[-50.3623245,-0.641982],[-50.370152,-0.6418981],[-50.3811046,-0.6384625],[-50.3850971,-0.6384162],[-50.3870368,-0.6393153],[-50.3912311,-0.6444433],[-50.3929219,-0.6455531],[-50.3982655,-0.6474523],[-50.3991371,-0.648309],[-50.4030544,-0.6563628],[-50.4037466,-0.6606577],[-50.4065321,-0.6659411],[-50.406514,-0.6674907],[-50.4046896,-0.6717842],[-50.4041464,-0.6754655],[-50.4048797,-0.6850231],[-50.4064106,-0.6892958],[-50.4044921,-0.6962361],[-50.4058544,-0.7008659],[-50.4073009,-0.7018014],[-50.411141,-0.7021691],[-50.4157252,-0.7044908],[-50.4177102,-0.7048732],[-50.4260351,-0.7027311],[-50.4321792,-0.701867],[-50.4365142,-0.6998202],[-50.4382695,-0.6977803],[-50.4411912,-0.6925548],[-50.4494364,-0.6870986],[-50.4615755,-0.6841792],[-50.4632398,-0.6845921],[-50.4670107,-0.6924658],[-50.4685287,-0.7081583],[-50.4698451,-0.7123115],[-50.4730626,-0.7206368],[-50.4767621,-0.7238346],[-50.4774934,-0.720956],[-50.4813081,-0.7173729],[-50.4905991,-0.7103081],[-50.5069344,-0.7034905],[-50.5128009,-0.699908],[-50.5182571,-0.6953118],[-50.5214496,-0.6892017],[-50.5275153,-0.6804553],[-50.531356,-0.6767652],[-50.5415575,-0.67246],[-50.5501687,-0.6717122],[-50.5608733,-0.6717928],[-50.5769943,-0.669867],[-50.6051558,-0.6698608],[-50.6122949,-0.6661256],[-50.6168258,-0.6591861],[-50.6199978,-0.649762],[-50.6222173,-0.6457133],[-50.6244972,-0.6435708],[-50.6320863,-0.6393906],[-50.6408673,-0.6368966],[-50.6526916,-0.637152],[-50.659245,-0.6380123],[-50.6637047,-0.6371494],[-50.6757631,-0.6291418],[-50.6841894,-0.622449],[-50.6864224,-0.6189021],[-50.6873639,-0.6147294],[-50.6880929,-0.6053462],[-50.6909969,-0.5942916],[-50.6970659,-0.5865378],[-50.7010069,-0.5795341],[-50.7106948,-0.5569635],[-50.7177,-0.5491147],[-50.7287494,-0.5397731],[-50.737001,-0.5257727],[-50.7463941,-0.5154547],[-50.7583909,-0.5080488],[-50.761222972,-0.507038071999943],[-50.765838667,-0.507128875999967],[-50.771254,-0.5088146],[-50.7757275,-0.511281],[-50.7805577,-0.5154008],[-50.7926741,-0.521835],[-50.8039216,-0.525207]]],[[[-47.9922737,-0.6845216],[-47.9917073,-0.6894909],[-47.9922348,-0.693489],[-47.9964263,-0.6815524],[-47.9962532,-0.6798316],[-47.9951482,-0.6784565],[-47.9935462,-0.6802019],[-47.9922737,-0.6845216]]],[[[-48.0098894,-0.6848422],[-48.0113645,-0.68518],[-48.0154339,-0.6835215],[-48.0151212,-0.6802179],[-48.0163282,-0.6703044],[-48.0151015,-0.6648383],[-48.0139945,-0.6629408],[-48.0122358,-0.6619409],[-48.0085366,-0.6623548],[-48.0072255,-0.6637687],[-48.0061813,-0.6671072],[-48.0065542,-0.6750754],[-48.008128,-0.6828444],[-48.0098894,-0.6848422]]]]}}]}