{"type":"FeatureCollection","features":[{"type":"Feature","properties":{"geometry_key":"area|area_conc_urb_goiania","type":"area_estudo","area_col":"area_conc_urb_goiania","area_label":"Goiânia - Conc. Urbana","label":"Goiânia - Conc. Urbana"},"geometry":{"type":"Polygon","coordinates":[[[-49.48472,-17.0210872],[-49.4847339,-17.0198114],[-49.4802322,-17.0141684],[-49.4789461,-17.0087098],[-49.4773921,-17.0070979],[-49.4760692,-17.0003828],[-49.4711255,-16.997866],[-49.4684929,-16.993542],[-49.470775,-16.9872664],[-49.4734769,-16.9829229],[-49.4791732,-16.9812319],[-49.4807523,-16.9814365],[-49.4818709,-16.9802599],[-49.4849796,-16.9792584],[-49.4909281,-16.9809221],[-49.4907929,-16.9835307],[-49.4944649,-16.9876547],[-49.4955426,-16.9880896],[-49.4965064,-16.9903813],[-49.4978469,-16.9908627],[-49.4998046,-16.9931993],[-49.499752,-16.9938943],[-49.5002469,-16.9939596],[-49.5007107,-16.9955774],[-49.5024096,-16.997968],[-49.5041425,-16.9975977],[-49.5044254,-16.9982862],[-49.5071145,-16.9999238],[-49.509674,-17.0001587],[-49.5124995,-16.9994285],[-49.5143314,-16.9969018],[-49.5161957,-16.998042],[-49.5161564,-16.9985522],[-49.5184472,-16.9989644],[-49.5185003,-16.999813],[-49.5194671,-17.0004032],[-49.5191159,-17.000746],[-49.5202445,-17.0010801],[-49.5212398,-17.003195],[-49.5222619,-17.0034772],[-49.5218471,-17.004149],[-49.5226263,-17.0054269],[-49.5223645,-17.0060472],[-49.52337,-17.0071711],[-49.5230169,-17.0077993],[-49.5236267,-17.0079037],[-49.5232468,-17.0090666],[-49.524502,-17.0107779],[-49.523638,-17.012376],[-49.5241879,-17.012918],[-49.523842,-17.0141088],[-49.5246938,-17.014965],[-49.5256199,-17.014688],[-49.5257718,-17.0154268],[-49.524926,-17.0161769],[-49.5259863,-17.0169313],[-49.525257,-17.0189893],[-49.5240558,-17.0194766],[-49.5226726,-17.0190903],[-49.5219116,-17.0195732],[-49.5219811,-17.0207979],[-49.5226649,-17.0207747],[-49.522825,-17.022358],[-49.525317,-17.0235149],[-49.5256402,-17.0245745],[-49.5269155,-17.0251966],[-49.5279009,-17.0267653],[-49.5300489,-17.025384],[-49.5319217,-17.0263535],[-49.5324061,-17.0249539],[-49.5342709,-17.0248405],[-49.5349267,-17.0260876],[-49.5361983,-17.0255042],[-49.5360176,-17.0263134],[-49.5367664,-17.0270369],[-49.5361323,-17.0271211],[-49.5371649,-17.0279073],[-49.5359744,-17.0282879],[-49.5368921,-17.0293467],[-49.5364736,-17.0295893],[-49.5376914,-17.0306851],[-49.5381641,-17.0301975],[-49.5393611,-17.0313891],[-49.5390008,-17.0318928],[-49.5396975,-17.0330384],[-49.5375987,-17.0328323],[-49.5365088,-17.0342606],[-49.5393429,-17.0351057],[-49.5418159,-17.0369201],[-49.5412889,-17.0373455],[-49.5417239,-17.0379322],[-49.5410194,-17.038074],[-49.5408888,-17.0386706],[-49.5413024,-17.039818],[-49.5403898,-17.0397528],[-49.5396508,-17.0406361],[-49.5408113,-17.0436099],[-49.5431561,-17.0441107],[-49.5454392,-17.0465454],[-49.5463884,-17.0463772],[-49.5479863,-17.0437142],[-49.54931,-17.0445056],[-49.5511426,-17.0436877],[-49.5514173,-17.0431021],[-49.548827,-17.0415962],[-49.5510803,-17.0413154],[-49.5504367,-17.0400311],[-49.5525761,-17.0391008],[-49.5528603,-17.0380111],[-49.5540747,-17.0382727],[-49.5538626,-17.0373987],[-49.5543304,-17.0368775],[-49.5555271,-17.0369209],[-49.5551445,-17.0381981],[-49.5563332,-17.0389159],[-49.5561165,-17.0398389],[-49.5573356,-17.0389771],[-49.5576378,-17.0402219],[-49.5610469,-17.0415399],[-49.5611041,-17.0406986],[-49.5604147,-17.0401475],[-49.5617577,-17.0386661],[-49.5616625,-17.0376827],[-49.5625055,-17.0371907],[-49.5618318,-17.0359454],[-49.5626214,-17.0353918],[-49.5626716,-17.0340524],[-49.5633144,-17.0343936],[-49.5640738,-17.0332459],[-49.5655185,-17.0344662],[-49.5669431,-17.0341956],[-49.5684704,-17.0363598],[-49.569243,-17.0364321],[-49.5715146,-17.0388359],[-49.5733254,-17.0397662],[-49.5758242,-17.0399175],[-49.5755644,-17.0403512],[-49.5766325,-17.0410894],[-49.5750026,-17.0412435],[-49.575112,-17.0422655],[-49.5742883,-17.0430583],[-49.5750673,-17.0439855],[-49.5746251,-17.0456585],[-49.5771364,-17.0481442],[-49.5781102,-17.0479366],[-49.5788873,-17.0498211],[-49.5800768,-17.0502756],[-49.5821361,-17.0529659],[-49.5830217,-17.0527136],[-49.5857377,-17.0539832],[-49.5874596,-17.0534787],[-49.5879148,-17.0527173],[-49.5887294,-17.05267],[-49.5889231,-17.0534082],[-49.5907308,-17.0524717],[-49.5922977,-17.0554016],[-49.5952298,-17.0559738],[-49.5964165,-17.0570096],[-49.5955844,-17.0583951],[-49.596025,-17.0588828],[-49.5956408,-17.0593877],[-49.5970986,-17.0607954],[-49.5969764,-17.0613101],[-49.5979086,-17.0609081],[-49.5979858,-17.061786],[-49.5990132,-17.0624277],[-49.5987735,-17.0628772],[-49.5994148,-17.0629942],[-49.6000014,-17.0611121],[-49.6017132,-17.06139],[-49.6013593,-17.0633352],[-49.6021739,-17.0635037],[-49.6020821,-17.0640465],[-49.6027281,-17.0636394],[-49.6027889,-17.0653809],[-49.6048659,-17.0660922],[-49.6055793,-17.0652103],[-49.6057455,-17.062905],[-49.6050417,-17.060678],[-49.6066989,-17.0558953],[-49.6063718,-17.0543748],[-49.6070796,-17.0542183],[-49.6081012,-17.0553759],[-49.608542,-17.0547592],[-49.609372,-17.0554764],[-49.6093819,-17.0564798],[-49.6107838,-17.056239],[-49.6107382,-17.0548072],[-49.612159,-17.0555253],[-49.6126941,-17.0546754],[-49.6145881,-17.0544552],[-49.614936,-17.0532323],[-49.616121,-17.0529944],[-49.6158969,-17.0519445],[-49.6169382,-17.049772],[-49.6186423,-17.049353],[-49.6188547,-17.0452741],[-49.621321,-17.0392716],[-49.6233417,-17.0386328],[-49.6240204,-17.0377012],[-49.6233954,-17.0356689],[-49.6241414,-17.0321449],[-49.6289699,-17.0241008],[-49.629335,-17.0186855],[-49.6301917,-17.0177602],[-49.6325767,-17.0107342],[-49.5937418,-16.9522665],[-49.5951358,-16.9514345],[-49.5984851,-16.9512393],[-49.6015477,-16.9499713],[-49.6038009,-16.9518329],[-49.6083959,-16.9541649],[-49.6100506,-16.9544457],[-49.6148241,-16.9530182],[-49.6162732,-16.9539657],[-49.6178795,-16.953296],[-49.6192085,-16.9534118],[-49.6201507,-16.953861],[-49.6206774,-16.9549051],[-49.6219192,-16.9540801],[-49.6223382,-16.9550567],[-49.6252846,-16.9554707],[-49.6288308,-16.95422],[-49.6296622,-16.9528155],[-49.6310833,-16.9544013],[-49.6337959,-16.9546681],[-49.634698,-16.956361],[-49.6356203,-16.9554688],[-49.6377732,-16.9555565],[-49.6385471,-16.9563277],[-49.6410119,-16.9556918],[-49.6418778,-16.9569319],[-49.6444579,-16.9563223],[-49.643792,-16.9577934],[-49.6448215,-16.958092],[-49.6497028,-16.9572194],[-49.6522937,-16.9558636],[-49.6537741,-16.9556872],[-49.6552744,-16.9544541],[-49.6570194,-16.9554498],[-49.6568061,-16.9560703],[-49.6577373,-16.9567488],[-49.659074,-16.9557873],[-49.6608462,-16.955586],[-49.6613873,-16.9548593],[-49.662758,-16.9554867],[-49.6629621,-16.9563381],[-49.6660596,-16.9555022],[-49.6669709,-16.9564273],[-49.6719653,-16.9578179],[-49.6729174,-16.9574335],[-49.6727582,-16.95496],[-49.673747,-16.9548376],[-49.6743622,-16.9553912],[-49.6756017,-16.954789],[-49.6780196,-16.9551485],[-49.6780131,-16.9543192],[-49.6795786,-16.9520639],[-49.6817672,-16.9523251],[-49.6827139,-16.9515275],[-49.6842738,-16.9514767],[-49.6857089,-16.9518284],[-49.6858321,-16.9526208],[-49.687088,-16.9528271],[-49.688673,-16.9526933],[-49.6897239,-16.9514007],[-49.6908984,-16.951775],[-49.6912464,-16.952504],[-49.6920319,-16.9524822],[-49.6928789,-16.9505167],[-49.6948484,-16.9483036],[-49.6960674,-16.9437008],[-49.6996581,-16.9414088],[-49.7033289,-16.943241],[-49.703049,-16.9447471],[-49.7044226,-16.9455014],[-49.7048376,-16.9463622],[-49.7072355,-16.9465369],[-49.7092972,-16.9483859],[-49.7135166,-16.9489565],[-49.7161897,-16.9532794],[-49.7175756,-16.9534843],[-49.7181015,-16.9542009],[-49.7208297,-16.9538945],[-49.7267745,-16.9565469],[-49.7293816,-16.9551855],[-49.7315786,-16.9518696],[-49.7325298,-16.9515935],[-49.7348691,-16.9519574],[-49.7355583,-16.9529319],[-49.7386051,-16.9532771],[-49.7392289,-16.9550422],[-49.74204,-16.9568426],[-49.7450286,-16.9541131],[-49.7423824,-16.9522444],[-49.7426448,-16.9488691],[-49.7453294,-16.9472554],[-49.7465715,-16.9475769],[-49.7477567,-16.9471872],[-49.7487327,-16.9456639],[-49.748147,-16.9434208],[-49.7467059,-16.9419752],[-49.7437153,-16.9423923],[-49.7431018,-16.9435239],[-49.742105,-16.9432608],[-49.7412472,-16.9453231],[-49.7398354,-16.945991],[-49.7375379,-16.9460277],[-49.7372363,-16.944672],[-49.7344759,-16.9436775],[-49.733697,-16.9401058],[-49.733611,-16.9389992],[-49.7357692,-16.9379547],[-49.7357886,-16.9375095],[-49.7349588,-16.937256],[-49.7312468,-16.9387681],[-49.7300088,-16.9379667],[-49.7287023,-16.9378894],[-49.7285151,-16.936261],[-49.7253297,-16.9332852],[-49.7262823,-16.9306262],[-49.7253453,-16.9293542],[-49.7278363,-16.9285972],[-49.7284939,-16.927084],[-49.7265779,-16.9243678],[-49.7283822,-16.9248705],[-49.7285273,-16.9242951],[-49.7276498,-16.9234883],[-49.7292566,-16.9231562],[-49.7297347,-16.9211614],[-49.7314669,-16.9216237],[-49.7313064,-16.9200646],[-49.7329123,-16.920498],[-49.7324569,-16.9189204],[-49.7350034,-16.9184748],[-49.7350162,-16.9177956],[-49.7337479,-16.916793],[-49.7326589,-16.9168318],[-49.7325572,-16.9162734],[-49.7344087,-16.9150973],[-49.7348076,-16.9133635],[-49.7366414,-16.9119136],[-49.7354042,-16.9114641],[-49.7309201,-16.9071411],[-49.7315226,-16.9061717],[-49.7311186,-16.9048466],[-49.7331108,-16.9021945],[-49.7326428,-16.9021042],[-49.7325697,-16.9007267],[-49.7319177,-16.9012534],[-49.7314541,-16.8998671],[-49.7304399,-16.8999502],[-49.7299212,-16.8993592],[-49.7301193,-16.8984812],[-49.7279895,-16.8986705],[-49.7272708,-16.8973337],[-49.7239457,-16.8953887],[-49.7241549,-16.8929418],[-49.7237206,-16.8922694],[-49.7221898,-16.8916153],[-49.721561,-16.8921558],[-49.7207318,-16.8919901],[-49.7200319,-16.8900662],[-49.7172491,-16.8906666],[-49.7157926,-16.8898356],[-49.7159006,-16.885686],[-49.7147065,-16.8827841],[-49.7136522,-16.8819584],[-49.7134199,-16.8805082],[-49.7101135,-16.8808702],[-49.7079354,-16.8790819],[-49.7067816,-16.8788263],[-49.7051182,-16.878804],[-49.7039557,-16.8794712],[-49.7034908,-16.879125],[-49.7029568,-16.8800807],[-49.7014575,-16.8791325],[-49.6995142,-16.8810386],[-49.7000295,-16.8817597],[-49.699484,-16.882803],[-49.6988099,-16.8829339],[-49.6978694,-16.8819642],[-49.6971527,-16.8831412],[-49.6949096,-16.8826075],[-49.6929623,-16.8811561],[-49.6930918,-16.8792132],[-49.6920163,-16.8795669],[-49.6906659,-16.8787022],[-49.6901068,-16.8762365],[-49.6857108,-16.8754203],[-49.6840987,-16.8737332],[-49.6830956,-16.8735284],[-49.6826244,-16.8740416],[-49.6828946,-16.8746636],[-49.681442,-16.8753185],[-49.6795057,-16.8743605],[-49.6775841,-16.8750827],[-49.6761881,-16.8734241],[-49.6738556,-16.8728699],[-49.6711895,-16.8751894],[-49.6680899,-16.8746622],[-49.6659189,-16.8758303],[-49.6644513,-16.875855],[-49.6626417,-16.8741892],[-49.6627213,-16.873054],[-49.6617898,-16.8729779],[-49.6617991,-16.8716913],[-49.6608788,-16.8705725],[-49.6600967,-16.870589],[-49.659572,-16.8714292],[-49.6587718,-16.8708617],[-49.6562376,-16.8677717],[-49.6545431,-16.8673511],[-49.6547674,-16.8660999],[-49.6538812,-16.8662477],[-49.6531305,-16.8638874],[-49.651247,-16.8640929],[-49.6504374,-16.862835],[-49.6498855,-16.8634518],[-49.6483602,-16.8622445],[-49.6483437,-16.8606875],[-49.6431182,-16.8584694],[-49.6430187,-16.8595168],[-49.642278,-16.860034],[-49.6383287,-16.8602891],[-49.6378157,-16.859259],[-49.6382645,-16.8584201],[-49.6367618,-16.8581538],[-49.6347321,-16.8547503],[-49.6319296,-16.8535757],[-49.6307334,-16.8542736],[-49.6304156,-16.852397],[-49.6290957,-16.8510949],[-49.6287263,-16.8496349],[-49.6279436,-16.8498462],[-49.6273917,-16.8458905],[-49.624467,-16.8465923],[-49.6210196,-16.8431354],[-49.6181854,-16.8439658],[-49.6163056,-16.8424377],[-49.6117988,-16.8433914],[-49.6095129,-16.8418603],[-49.6082606,-16.8384719],[-49.6073283,-16.8381047],[-49.6081274,-16.8377075],[-49.6086514,-16.8361919],[-49.6065499,-16.8324123],[-49.6071783,-16.8318157],[-49.6056507,-16.8305992],[-49.6045275,-16.8267042],[-49.6040839,-16.8270202],[-49.6038595,-16.8261109],[-49.6025971,-16.8258525],[-49.6027095,-16.824504],[-49.6039311,-16.8240016],[-49.6038534,-16.8225131],[-49.6030093,-16.8221312],[-49.602372,-16.8225088],[-49.602294,-16.8211684],[-49.6014771,-16.8217586],[-49.5992202,-16.8201946],[-49.5988379,-16.8184466],[-49.599611,-16.8174689],[-49.5987043,-16.8173607],[-49.5982783,-16.8162943],[-49.5967754,-16.8153985],[-49.5980648,-16.8115164],[-49.5972874,-16.807678],[-49.5987706,-16.8063844],[-49.5981628,-16.8049475],[-49.5986613,-16.8036165],[-49.5981056,-16.8028379],[-49.5986166,-16.8021918],[-49.598166586284236,-16.801916924658297],[-49.6036767,-16.8032514],[-49.606007,-16.8028486],[-49.6075071,-16.8019058],[-49.6087819,-16.8032466],[-49.6118104,-16.8036893],[-49.6191363,-16.8025],[-49.6201963,-16.8049309],[-49.6231651,-16.804017],[-49.6305997,-16.8059997],[-49.6331371,-16.8101571],[-49.6335058,-16.8118765],[-49.6348899,-16.8118496],[-49.6351502,-16.805678],[-49.6382135,-16.8016246],[-49.6383871,-16.8003983],[-49.642304,-16.799197],[-49.6399575,-16.7902386],[-49.6399378,-16.7861981],[-49.631524,-16.7844426],[-49.6279584,-16.7852771],[-49.6174619,-16.7792703],[-49.6397732,-16.7710548],[-49.6363454,-16.7657714],[-49.6386261,-16.765376],[-49.6405552,-16.762856],[-49.6503304,-16.7625286],[-49.6528994,-16.7599454],[-49.6552677,-16.7563976],[-49.6553327,-16.7549731],[-49.6534866,-16.7487282],[-49.6530309,-16.7427335],[-49.6539501,-16.7391871],[-49.6590988,-16.7317743],[-49.6590236,-16.7296818],[-49.6581506,-16.7289077],[-49.6592552,-16.7284403],[-49.6628514,-16.7298679],[-49.6641797,-16.729565],[-49.6666991,-16.7272871],[-49.6697814,-16.726077],[-49.6759558,-16.7257539],[-49.6746292,-16.7227307],[-49.6729741,-16.7206786],[-49.6731283,-16.7195832],[-49.6716928,-16.7181805],[-49.6713086,-16.7158645],[-49.6716765,-16.7138204],[-49.672372,-16.7132668],[-49.6722129,-16.7122268],[-49.6740885,-16.7107833],[-49.6747495,-16.7087125],[-49.6781781,-16.7086446],[-49.6808084,-16.7073393],[-49.6811825,-16.7042284],[-49.6816734,-16.7032993],[-49.6821521,-16.7033741],[-49.6821347,-16.702338],[-49.6837266,-16.7023233],[-49.6836602,-16.7004463],[-49.6865885,-16.6982133],[-49.6866464,-16.6962693],[-49.687682,-16.6937594],[-49.6898809,-16.6920785],[-49.6892633,-16.6912691],[-49.6894484,-16.6897253],[-49.6905603,-16.6873724],[-49.6902895,-16.6859659],[-49.6917018,-16.6830655],[-49.6917001,-16.6809122],[-49.6905178,-16.6783256],[-49.6906484,-16.6748083],[-49.687832,-16.6736457],[-49.6870478,-16.6727323],[-49.6874347,-16.6714935],[-49.6867693,-16.6705621],[-49.6858297,-16.6709384],[-49.6856967,-16.6702952],[-49.6850568,-16.6702005],[-49.6847972,-16.6707588],[-49.6842313,-16.6705869],[-49.6837563,-16.6717622],[-49.683583,-16.6706173],[-49.6819597,-16.670528],[-49.6814254,-16.6700022],[-49.681341,-16.6706717],[-49.6808912,-16.6702206],[-49.679104,-16.6715535],[-49.6781271,-16.6713033],[-49.6783401,-16.6703399],[-49.6770522,-16.6703249],[-49.6774324,-16.671023],[-49.6757105,-16.6704109],[-49.6753806,-16.6693186],[-49.673972,-16.6703916],[-49.6724527,-16.6703361],[-49.673179,-16.6710214],[-49.6717345,-16.6719004],[-49.6709503,-16.6716298],[-49.6704485,-16.6722966],[-49.667723,-16.6727484],[-49.6660865,-16.6715349],[-49.6658433,-16.6693327],[-49.6643104,-16.6695067],[-49.6648284,-16.6670941],[-49.6656301,-16.666712],[-49.6629502,-16.6663155],[-49.6639987,-16.6659403],[-49.6630171,-16.6655581],[-49.6639235,-16.6648618],[-49.6637397,-16.6644217],[-49.6627289,-16.6649325],[-49.6625973,-16.6639461],[-49.6614389,-16.6644113],[-49.6602359,-16.6633648],[-49.6595796,-16.6639126],[-49.6592225,-16.6636244],[-49.6596909,-16.6629761],[-49.6583136,-16.662826],[-49.6583178,-16.6622978],[-49.6576035,-16.6629025],[-49.657522,-16.6623943],[-49.6563211,-16.6625903],[-49.657401,-16.659176],[-49.6566805,-16.6588399],[-49.65643,-16.6578914],[-49.6570345,-16.6571355],[-49.6575503,-16.6576519],[-49.6580371,-16.6561929],[-49.6573272,-16.6553767],[-49.6581386,-16.6551047],[-49.6573535,-16.6549532],[-49.6576082,-16.6531184],[-49.6566916,-16.6525188],[-49.657254,-16.6504715],[-49.6563053,-16.6507598],[-49.6560662,-16.650064],[-49.6554751,-16.6504564],[-49.6552759,-16.6496482],[-49.654988,-16.6503376],[-49.6547262,-16.6494142],[-49.6536127,-16.6492402],[-49.6537724,-16.6482362],[-49.654224,-16.6483422],[-49.6538278,-16.6477893],[-49.6542705,-16.6477023],[-49.6542374,-16.6467482],[-49.6530475,-16.6463616],[-49.6546101,-16.6455587],[-49.653943,-16.6441922],[-49.6546263,-16.6439946],[-49.6544363,-16.6422209],[-49.6556771,-16.6396998],[-49.6535885,-16.6378831],[-49.6541358,-16.6375583],[-49.6535107,-16.6371013],[-49.6541875,-16.6356046],[-49.6534754,-16.635234],[-49.653266,-16.6336984],[-49.653946,-16.6324673],[-49.6535239,-16.6319115],[-49.65404,-16.6301485],[-49.6532827,-16.6305837],[-49.6535212,-16.6297532],[-49.6524419,-16.6290515],[-49.6511916,-16.6295577],[-49.6511755,-16.6287087],[-49.6520327,-16.6284895],[-49.6512626,-16.6279738],[-49.6521552,-16.6274667],[-49.6507698,-16.6267751],[-49.6514207,-16.6262287],[-49.6512031,-16.6250371],[-49.6499558,-16.6255279],[-49.6486605,-16.625182],[-49.6491084,-16.6248146],[-49.6482095,-16.6240088],[-49.6461417,-16.6238749],[-49.6463664,-16.6234815],[-49.6449917,-16.6219268],[-49.6460711,-16.6200012],[-49.6446244,-16.6189931],[-49.6439747,-16.6195551],[-49.6427435,-16.6185573],[-49.6426188,-16.6162289],[-49.641673,-16.6151379],[-49.6425668,-16.6142106],[-49.6420242,-16.613479],[-49.6418823,-16.6114025],[-49.6409963,-16.6111467],[-49.6398985,-16.6095524],[-49.6393748,-16.6097846],[-49.6396058,-16.6090983],[-49.6388414,-16.6075978],[-49.6362808,-16.6062432],[-49.635871,-16.6045164],[-49.6350326,-16.603792],[-49.6344803,-16.6041535],[-49.6344806,-16.6024652],[-49.6338129,-16.6011165],[-49.6354545,-16.6004673],[-49.6364405,-16.5972448],[-49.6342419,-16.5962241],[-49.6333854,-16.59463],[-49.6335484,-16.5930378],[-49.6293557,-16.590701],[-49.6295442,-16.5893588],[-49.6268881,-16.5856621],[-49.6235661,-16.5842277],[-49.6219181,-16.5843176],[-49.6202812,-16.5791683],[-49.619579,-16.5783999],[-49.6179227,-16.5785603],[-49.6123964,-16.5762617],[-49.6023456,-16.5686282],[-49.601468,-16.5654685],[-49.6018476,-16.5591398],[-49.5978305,-16.558957],[-49.5925548,-16.544372],[-49.5951168,-16.5436662],[-49.5965288,-16.5467345],[-49.6026275,-16.5504381],[-49.6053622,-16.5499932],[-49.6076844,-16.5514825],[-49.6119741,-16.5502643],[-49.6141742,-16.550863],[-49.6184306,-16.553867],[-49.6224366,-16.5538327],[-49.6262783,-16.5512789],[-49.6271492,-16.551441],[-49.6313042,-16.5462706],[-49.6354944,-16.5453127],[-49.6352682,-16.5434196],[-49.6369764,-16.5434987],[-49.6377325,-16.5432029],[-49.6378487,-16.5425161],[-49.6398715,-16.5427888],[-49.6423782,-16.5448095],[-49.6430578,-16.5446772],[-49.6433654,-16.5459088],[-49.6473026,-16.5475637],[-49.6485183,-16.5495946],[-49.6496574,-16.5496786],[-49.6511282,-16.5492919],[-49.6508625,-16.5461884],[-49.6515486,-16.5450712],[-49.6533854,-16.543537],[-49.655124,-16.5436573],[-49.6568009,-16.5389114],[-49.659684,-16.5371469],[-49.6618061,-16.5373149],[-49.662755,-16.5383597],[-49.6635507,-16.5381186],[-49.6652198,-16.5391379],[-49.6679535,-16.5385763],[-49.66986,-16.5372924],[-49.6707268,-16.5347572],[-49.674583,-16.5334887],[-49.6807233,-16.536181],[-49.6817441,-16.533861],[-49.6814636,-16.5313449],[-49.6825747,-16.5314216],[-49.6837831,-16.529932],[-49.6846439,-16.5301431],[-49.6852144,-16.5294329],[-49.686776,-16.5291833],[-49.6872587,-16.5271515],[-49.6886421,-16.5261538],[-49.6894993,-16.5236764],[-49.6904482,-16.5226787],[-49.6950948,-16.5220308],[-49.694799,-16.521395],[-49.6957898,-16.5211001],[-49.6955377,-16.5203091],[-49.693228,-16.5201471],[-49.6930036,-16.5196731],[-49.6939424,-16.5187061],[-49.6935877,-16.5181934],[-49.6940033,-16.5176539],[-49.6930624,-16.5175612],[-49.6927724,-16.515681],[-49.6918617,-16.5152837],[-49.6921437,-16.5144752],[-49.6907977,-16.5133815],[-49.6915848,-16.513087],[-49.6903527,-16.5124752],[-49.6899291,-16.5093385],[-49.6887648,-16.5092239],[-49.6893725,-16.5089879],[-49.6902829,-16.5070802],[-49.6889777,-16.5071801],[-49.6884242,-16.5058534],[-49.6871913,-16.5051907],[-49.6874518,-16.5045153],[-49.6863347,-16.5044404],[-49.6863372,-16.503052],[-49.6868309,-16.5031942],[-49.6865807,-16.502197],[-49.6847325,-16.5015811],[-49.6846542,-16.5009658],[-49.6837438,-16.5006084],[-49.6808299,-16.5021895],[-49.6805257,-16.5011044],[-49.6791877,-16.5010122],[-49.6780382,-16.5016442],[-49.6751265,-16.5013851],[-49.6751495,-16.5008742],[-49.6740681,-16.5005915],[-49.6713795,-16.5010669],[-49.6708703,-16.5014737],[-49.6714269,-16.5021184],[-49.670801,-16.5025327],[-49.6698169,-16.5022574],[-49.6699643,-16.5017539],[-49.6689266,-16.5016954],[-49.6684398,-16.50073],[-49.6677008,-16.5007081],[-49.6673513,-16.5014428],[-49.6670476,-16.5008502],[-49.6657253,-16.5007913],[-49.6651688,-16.4998181],[-49.665761,-16.4994647],[-49.665573,-16.498801],[-49.6648683,-16.4988949],[-49.6627474,-16.4998436],[-49.6628258,-16.5011592],[-49.661024,-16.5017313],[-49.6591649,-16.5043696],[-49.6598592,-16.5063186],[-49.6608519,-16.5066887],[-49.6608676,-16.5080654],[-49.6622054,-16.5093276],[-49.6614643,-16.5096411],[-49.6618132,-16.5103768],[-49.6591834,-16.5092998],[-49.657424,-16.5106796],[-49.6569862,-16.5091107],[-49.6564182,-16.5095569],[-49.6549489,-16.5090836],[-49.6542686,-16.5062994],[-49.6534268,-16.5068397],[-49.6526528,-16.5061618],[-49.6513065,-16.5062843],[-49.6505705,-16.505156],[-49.6489108,-16.5051616],[-49.6486652,-16.5042474],[-49.6474999,-16.5042151],[-49.6478692,-16.5034334],[-49.6465866,-16.5037924],[-49.6458443,-16.5026639],[-49.6444647,-16.5023733],[-49.6446022,-16.5017295],[-49.6433588,-16.5017512],[-49.6428823,-16.5000485],[-49.6422093,-16.4999593],[-49.6420327,-16.4993234],[-49.6390638,-16.499592],[-49.6387204,-16.498313],[-49.637737,-16.4981706],[-49.6380229,-16.4972084],[-49.6368218,-16.49631],[-49.6361396,-16.4975754],[-49.6350968,-16.4975406],[-49.6347565,-16.4964686],[-49.6354808,-16.4960247],[-49.6350377,-16.4959874],[-49.6349,-16.4946262],[-49.6343565,-16.4944997],[-49.6345103,-16.4936431],[-49.6317945,-16.4942035],[-49.6307253,-16.4936889],[-49.631053,-16.4931279],[-49.6303701,-16.492249],[-49.6292663,-16.4917371],[-49.6284613,-16.4923358],[-49.6285717,-16.4930492],[-49.6278173,-16.4931064],[-49.6270198,-16.4922783],[-49.6271099,-16.4912905],[-49.6254261,-16.4913031],[-49.624942,-16.4923264],[-49.6239312,-16.4923409],[-49.6235492,-16.4929958],[-49.6233677,-16.4921393],[-49.622533,-16.4918815],[-49.6225868,-16.4912116],[-49.6216398,-16.4913927],[-49.6221877,-16.4906674],[-49.6215096,-16.4903931],[-49.6216521,-16.4896779],[-49.6193262,-16.4893216],[-49.6189508,-16.488084],[-49.618465,-16.4886505],[-49.6159034,-16.488159],[-49.6152916,-16.4886093],[-49.6148433,-16.4881087],[-49.6141984,-16.4891471],[-49.614768,-16.4906745],[-49.6120686,-16.4915084],[-49.6118318,-16.4920463],[-49.6111254,-16.4915891],[-49.6087406,-16.4925814],[-49.6095064,-16.4906375],[-49.6074867,-16.489983],[-49.6074508,-16.4892386],[-49.6058758,-16.4899872],[-49.6052255,-16.4896817],[-49.604839,-16.4904319],[-49.6033099,-16.4903967],[-49.6028055,-16.4911771],[-49.6030727,-16.492616],[-49.6022868,-16.4925607],[-49.6018428,-16.4918773],[-49.600919,-16.4921529],[-49.6002272,-16.4907642],[-49.6001932,-16.4934578],[-49.5986205,-16.4927083],[-49.5975589,-16.4928798],[-49.597212,-16.4919317],[-49.5959938,-16.4929429],[-49.5955238,-16.491928],[-49.5966082,-16.4892827],[-49.5941484,-16.4887738],[-49.5943398,-16.4894559],[-49.59389,-16.4894185],[-49.5933732,-16.4886151],[-49.5936312,-16.487927],[-49.5924563,-16.4869394],[-49.5925136,-16.4860485],[-49.5914113,-16.4866962],[-49.5903857,-16.4865628],[-49.5894677,-16.4878022],[-49.5886587,-16.4877462],[-49.5886744,-16.4870244],[-49.5879744,-16.4868749],[-49.5874653,-16.4838239],[-49.5861799,-16.4845023],[-49.5841874,-16.4828811],[-49.5822617,-16.4839445],[-49.581935,-16.4849966],[-49.5811218,-16.4850796],[-49.580901,-16.4863651],[-49.5790621,-16.4862809],[-49.5785022,-16.4875193],[-49.5790784,-16.4878842],[-49.5784917,-16.4883391],[-49.5789149,-16.4886529],[-49.578759,-16.491008],[-49.5780825,-16.4917311],[-49.5792057,-16.4929378],[-49.5791828,-16.4936629],[-49.5776978,-16.4945313],[-49.5772585,-16.4970718],[-49.575771,-16.4970539],[-49.5755862,-16.4981918],[-49.5740595,-16.4983671],[-49.5742592,-16.4977445],[-49.5724172,-16.4972617],[-49.5722422,-16.4962716],[-49.5706415,-16.4962988],[-49.5703819,-16.4958868],[-49.5695699,-16.4965629],[-49.5690826,-16.4959827],[-49.568643,-16.4963488],[-49.5676964,-16.4958052],[-49.5669881,-16.4966244],[-49.5671087,-16.4981111],[-49.5650745,-16.4979123],[-49.5644723,-16.4994604],[-49.5647605,-16.5000688],[-49.5621886,-16.4983527],[-49.5612303,-16.5002167],[-49.5585254,-16.5010218],[-49.5577444,-16.5028464],[-49.5554986,-16.5023302],[-49.5548471,-16.5035785],[-49.5543366,-16.5025338],[-49.553714,-16.5026067],[-49.5538895,-16.5016429],[-49.5520628,-16.5014334],[-49.5509886,-16.5005328],[-49.5511787,-16.5001237],[-49.5502414,-16.5005208],[-49.549122,-16.4991017],[-49.5480847,-16.4987238],[-49.5468211,-16.4990823],[-49.5460628,-16.4987044],[-49.5457065,-16.4994879],[-49.5452733,-16.499016],[-49.5448231,-16.5004568],[-49.540821,-16.5005382],[-49.5403332,-16.4995476],[-49.5393689,-16.4996534],[-49.5391739,-16.5014254],[-49.5352207,-16.5023914],[-49.53316,-16.5000766],[-49.5324539,-16.5015841],[-49.5301605,-16.5011804],[-49.5306869,-16.4987796],[-49.5294422,-16.4981728],[-49.5275343,-16.4985604],[-49.5266078,-16.4971931],[-49.5243521,-16.4975827],[-49.5234486,-16.4982758],[-49.5220654,-16.496557],[-49.5212279,-16.4963423],[-49.519785,-16.4987912],[-49.5190386,-16.4984714],[-49.5190136,-16.497403],[-49.5179305,-16.4976343],[-49.5166334,-16.4968729],[-49.5153076,-16.4974711],[-49.5141069,-16.4938749],[-49.5129333,-16.4937473],[-49.5119308,-16.4950012],[-49.5110552,-16.4946618],[-49.510715,-16.4932299],[-49.5103202,-16.4932386],[-49.5110798,-16.4918621],[-49.511016,-16.4906036],[-49.5074528,-16.489049],[-49.5075176,-16.4877506],[-49.5064993,-16.4859298],[-49.5052153,-16.4854932],[-49.5057207,-16.4845122],[-49.5054213,-16.4841204],[-49.5030092,-16.483485],[-49.5030002,-16.4829055],[-49.5005143,-16.4829735],[-49.4993988,-16.4812415],[-49.4981247,-16.4810457],[-49.4982513,-16.4804211],[-49.4957647,-16.4779576],[-49.4965506,-16.4774901],[-49.4965674,-16.476874],[-49.4971363,-16.4768946],[-49.4967714,-16.4765731],[-49.4981813,-16.4749511],[-49.4976156,-16.4742349],[-49.4978305,-16.4736948],[-49.4917872,-16.4699793],[-49.490445,-16.4671595],[-49.4908805,-16.466314],[-49.4883779,-16.4640956],[-49.4865783,-16.4639295],[-49.485718,-16.4624868],[-49.4862868,-16.4618878],[-49.48487,-16.4608171],[-49.4846578,-16.4596104],[-49.4837619,-16.4596226],[-49.4836839,-16.4584442],[-49.4804223,-16.4581526],[-49.4783814,-16.4584828],[-49.4773328,-16.4592834],[-49.4739918,-16.4596756],[-49.4699279,-16.4591623],[-49.4694245,-16.4585504],[-49.4665107,-16.4578807],[-49.4649686,-16.4591464],[-49.4592455,-16.4589692],[-49.4443974,-16.453749],[-49.4451189,-16.4504863],[-49.4475978,-16.4449311],[-49.4470281,-16.4416686],[-49.4479576,-16.4344578],[-49.4460434,-16.4292024],[-49.4441496,-16.427694],[-49.4429226,-16.4258457],[-49.4404669,-16.4245457],[-49.4378146,-16.4220471],[-49.4319067,-16.420877],[-49.4290887,-16.418031],[-49.4250267,-16.4151605],[-49.4239564,-16.4126689],[-49.425565,-16.4100184],[-49.4257363,-16.4083802],[-49.4249589,-16.4075861],[-49.423677,-16.4077785],[-49.42199483462066,-16.405613182020016],[-49.4227658,-16.403458],[-49.4231044,-16.4041561],[-49.4236619,-16.4036731],[-49.4242894,-16.4045313],[-49.4249266,-16.4043421],[-49.4245526,-16.4052388],[-49.4250199,-16.4057275],[-49.4264275,-16.4050708],[-49.4270277,-16.405646],[-49.4280458,-16.4045055],[-49.42903,-16.4048511],[-49.4282738,-16.4040395],[-49.4280758,-16.4027482],[-49.4309261,-16.4025359],[-49.4305862,-16.4019469],[-49.4322254,-16.4013069],[-49.4317666,-16.4005581],[-49.4331987,-16.3998277],[-49.4325267,-16.399754],[-49.4325061,-16.3992716],[-49.4337165,-16.3992025],[-49.4345007,-16.3998979],[-49.4354366,-16.3995316],[-49.4362798,-16.4000963],[-49.4367194,-16.3991689],[-49.4362606,-16.3977214],[-49.4371674,-16.3983187],[-49.4374435,-16.3972923],[-49.4386792,-16.3980808],[-49.4386543,-16.3969974],[-49.4394936,-16.3974521],[-49.4403736,-16.3970405],[-49.4395553,-16.395132],[-49.439792,-16.3938242],[-49.440276,-16.3941555],[-49.4421575,-16.3936303],[-49.4405552,-16.3933116],[-49.443554,-16.3927629],[-49.4434745,-16.3934228],[-49.4441218,-16.3932],[-49.4442453,-16.3936234],[-49.4454316,-16.393037],[-49.4447469,-16.3914183],[-49.4451463,-16.3912267],[-49.4458705,-16.3923545],[-49.4460922,-16.3918632],[-49.4471631,-16.3919428],[-49.4473145,-16.3914177],[-49.4465687,-16.3913971],[-49.4473287,-16.3909513],[-49.4465972,-16.3908887],[-49.4465013,-16.3901844],[-49.4493569,-16.3881097],[-49.4506003,-16.3892778],[-49.4506212,-16.3885266],[-49.4515511,-16.3883177],[-49.4513001,-16.3888666],[-49.4521746,-16.3899818],[-49.4533093,-16.3883941],[-49.454365,-16.3887913],[-49.4535179,-16.3869821],[-49.4523266,-16.386674],[-49.4522665,-16.3860844],[-49.4531148,-16.385952],[-49.4530638,-16.3848281],[-49.4544891,-16.3834089],[-49.4516645,-16.3827232],[-49.449635,-16.3780921],[-49.4485543,-16.3787954],[-49.446678,-16.3789065],[-49.4463533,-16.3785483],[-49.4467814,-16.3779092],[-49.4460375,-16.3773791],[-49.4446205,-16.3775751],[-49.4441186,-16.3762346],[-49.4432828,-16.3769051],[-49.4435171,-16.3777679],[-49.4420018,-16.3785234],[-49.4418255,-16.3791421],[-49.441369,-16.3790844],[-49.441538,-16.3784403],[-49.4410493,-16.37887],[-49.4389696,-16.3777778],[-49.4385285,-16.3766133],[-49.4394313,-16.375764],[-49.4381403,-16.3747362],[-49.4386248,-16.3743756],[-49.4380096,-16.3739281],[-49.4385571,-16.3734997],[-49.4383378,-16.3726595],[-49.4368815,-16.3727299],[-49.4371188,-16.3711733],[-49.4356349,-16.3708758],[-49.4353599,-16.3694747],[-49.4312614,-16.3666865],[-49.4302829,-16.3636415],[-49.4265136,-16.3625149],[-49.4256593,-16.3611324],[-49.4249961,-16.3568821],[-49.4240203,-16.3568434],[-49.4236842,-16.3559215],[-49.4230333,-16.3563423],[-49.4226721,-16.356013],[-49.4222047,-16.3535358],[-49.4219775,-16.3539846],[-49.4204281,-16.3531638],[-49.4196443,-16.3536253],[-49.4188484,-16.3514085],[-49.4193799,-16.3499812],[-49.4178737,-16.3501042],[-49.4170183,-16.3495748],[-49.4171263,-16.3475525],[-49.4160694,-16.3473035],[-49.4165056,-16.3461904],[-49.4154207,-16.3457928],[-49.4139013,-16.3431267],[-49.4130042,-16.342923],[-49.4123028,-16.3438269],[-49.4109252,-16.3439053],[-49.4099507,-16.3427993],[-49.4089371,-16.3428682],[-49.4088789,-16.3417966],[-49.4097899,-16.3409634],[-49.4097176,-16.3402009],[-49.4083334,-16.3394112],[-49.4078743,-16.3402083],[-49.4070026,-16.33959],[-49.4061994,-16.339838],[-49.4054879,-16.3364832],[-49.4045201,-16.3363781],[-49.4046591,-16.3358243],[-49.4038791,-16.3351563],[-49.4023492,-16.3347976],[-49.4024957,-16.3342963],[-49.4014496,-16.3345991],[-49.4010853,-16.3329005],[-49.4001848,-16.33314],[-49.3999997,-16.3348375],[-49.3990139,-16.3339821],[-49.3981993,-16.3339955],[-49.3981229,-16.3329809],[-49.3966177,-16.3321168],[-49.3961124,-16.3323268],[-49.3961025,-16.3317447],[-49.3958865,-16.3321027],[-49.3951179,-16.3317623],[-49.3957124,-16.3304422],[-49.3946526,-16.3309934],[-49.3949111,-16.3303538],[-49.3939437,-16.3292838],[-49.3942099,-16.3286523],[-49.3930985,-16.3284849],[-49.3934384,-16.3279885],[-49.3925109,-16.3281361],[-49.3922533,-16.3272108],[-49.3913666,-16.3273655],[-49.3912319,-16.3266627],[-49.3919515,-16.3258621],[-49.3914013,-16.3257372],[-49.3914603,-16.3248455],[-49.3907472,-16.3250788],[-49.3905081,-16.323261],[-49.389807,-16.3228996],[-49.3902123,-16.3215657],[-49.3896219,-16.3214468],[-49.3889655,-16.3196467],[-49.3878991,-16.319837],[-49.3874126,-16.3190492],[-49.386801,-16.3197243],[-49.3857296,-16.3184287],[-49.3837343,-16.3176568],[-49.3834893,-16.316595],[-49.3813376,-16.3167981],[-49.3807338,-16.3164423],[-49.380763,-16.3154164],[-49.3797501,-16.3154259],[-49.3797763,-16.3133263],[-49.3806739,-16.3134053],[-49.3813445,-16.3125566],[-49.3814992,-16.3115095],[-49.3807279,-16.3102006],[-49.3817718,-16.30989],[-49.3813804,-16.308682],[-49.3800674,-16.3075316],[-49.3798424,-16.3060488],[-49.3766336,-16.3055631],[-49.375242,-16.3070844],[-49.3740893,-16.3051053],[-49.3718529,-16.3032758],[-49.368694,-16.3024803],[-49.3667753,-16.303346],[-49.3623518,-16.3038679],[-49.3603874,-16.3052882],[-49.3554586,-16.3057297],[-49.3523929,-16.3052907],[-49.3510232,-16.3040506],[-49.3500659,-16.2975981],[-49.3473384,-16.2940156],[-49.3453139,-16.2920889],[-49.3393752,-16.2906909],[-49.3333658,-16.2870881],[-49.3443886,-16.2696348],[-49.3402295,-16.2715707],[-49.3377768,-16.2711279],[-49.3334359,-16.2722492],[-49.3312167,-16.2721899],[-49.3300494,-16.2729864],[-49.3296374,-16.2750176],[-49.3276451,-16.2778274],[-49.3245728,-16.2802045],[-49.3231394,-16.2808708],[-49.3214601,-16.2804311],[-49.3188137,-16.2817594],[-49.3164899,-16.2817559],[-49.3159914,-16.283014],[-49.317182,-16.2855975],[-49.3160869,-16.2866932],[-49.315478,-16.2884472],[-49.3166283,-16.2894777],[-49.3164433,-16.2901779],[-49.3175688,-16.2918114],[-49.3176651,-16.2942284],[-49.3187519,-16.2952159],[-49.3199526,-16.3002872],[-49.3191561,-16.3014964],[-49.3196049,-16.3034947],[-49.3177731,-16.3047508],[-49.3190519,-16.30719],[-49.3188647,-16.3081445],[-49.3202117,-16.3100667],[-49.3181552,-16.3117419],[-49.3171303,-16.3114917],[-49.3161045,-16.3124534],[-49.3142003,-16.3121794],[-49.3122066,-16.3141662],[-49.311394,-16.3130921],[-49.3084047,-16.3125667],[-49.3082357,-16.311808],[-49.3076126,-16.311886],[-49.3076097,-16.3111088],[-49.30683,-16.3111203],[-49.3070662,-16.3104266],[-49.306696,-16.3105161],[-49.3062161,-16.3091643],[-49.305497,-16.3099912],[-49.3051838,-16.3117225],[-49.302435,-16.3130283],[-49.3004678,-16.3151086],[-49.2997785,-16.3170216],[-49.2982252,-16.3188734],[-49.2946712,-16.3212247],[-49.294087,-16.3222686],[-49.290597,-16.3229396],[-49.2897081,-16.322158],[-49.2879419,-16.3219725],[-49.2280119,-16.3196584],[-49.2263027,-16.3224255],[-49.2252435,-16.3262318],[-49.2236269,-16.3273652],[-49.2210017,-16.327454],[-49.2200004,-16.3325976],[-49.2179059,-16.3341209],[-49.2157418,-16.3342167],[-49.2155586,-16.3379208],[-49.214357,-16.3395095],[-49.2118358,-16.3411646],[-49.2095682,-16.3408395],[-49.2061604,-16.3415047],[-49.2046734,-16.3405127],[-49.2015031,-16.3401909],[-49.200072,-16.3412669],[-49.1986005,-16.3445364],[-49.1953843,-16.345435],[-49.1896843,-16.3484769],[-49.1881959,-16.348566],[-49.1846174,-16.3461266],[-49.1821088,-16.3456783],[-49.180595,-16.34585],[-49.1778982,-16.3475801],[-49.177313,-16.3499208],[-49.1778854,-16.3527703],[-49.1796028,-16.3560014],[-49.1775356,-16.3606001],[-49.1612272,-16.3783842],[-49.1560879,-16.3865003],[-49.1535055,-16.3884339],[-49.1535691,-16.3903166],[-49.1508468,-16.392899],[-49.1477174,-16.3940184],[-49.1439774,-16.3966644],[-49.1400466,-16.3997556],[-49.1351238,-16.4054637],[-49.1329219,-16.4065058],[-49.1321286,-16.4077324],[-49.1307852,-16.4151861],[-49.1299805,-16.416313],[-49.1240906,-16.418628],[-49.1224291,-16.4203777],[-49.1218521,-16.4226628],[-49.1207994,-16.4241666],[-49.1194335,-16.4244686],[-49.1182781,-16.423306],[-49.1166985,-16.4231484],[-49.1156056,-16.4241174],[-49.114603,-16.4269284],[-49.1119413,-16.4265721],[-49.111732,-16.4270876],[-49.112445,-16.4275661],[-49.1136035,-16.4309191],[-49.1129161,-16.4311101],[-49.1116237,-16.4301851],[-49.1103471,-16.4316353],[-49.1084054,-16.4307033],[-49.1078282,-16.4311295],[-49.1100167,-16.4331918],[-49.1106531,-16.4332187],[-49.1105737,-16.434106],[-49.1112063,-16.4339804],[-49.1110035,-16.4356704],[-49.1123865,-16.4355582],[-49.1125216,-16.43631],[-49.1116737,-16.4373478],[-49.113355,-16.4389145],[-49.1129903,-16.4395802],[-49.114552,-16.4398098],[-49.1148347,-16.4420552],[-49.1172421,-16.4432421],[-49.1149687,-16.4446689],[-49.1141205,-16.4459633],[-49.1149631,-16.4469212],[-49.1138044,-16.4487162],[-49.1145739,-16.4500396],[-49.114442,-16.4513945],[-49.1137912,-16.4513984],[-49.1143654,-16.4517738],[-49.1137416,-16.4529726],[-49.1143748,-16.4533538],[-49.1149052,-16.4528685],[-49.1150717,-16.4536888],[-49.1140066,-16.4544833],[-49.1156768,-16.4557001],[-49.1153376,-16.4560585],[-49.1158531,-16.4567346],[-49.1149939,-16.4613121],[-49.1156305,-16.461426],[-49.1152661,-16.4618989],[-49.1159729,-16.4626941],[-49.115429,-16.4635295],[-49.1166396,-16.4647654],[-49.1161806,-16.4655093],[-49.1148022,-16.4655456],[-49.1147955,-16.4661895],[-49.1136696,-16.46651],[-49.1130691,-16.4660048],[-49.1122007,-16.4667518],[-49.1120162,-16.4678452],[-49.1133812,-16.4698324],[-49.1129737,-16.4705925],[-49.112293,-16.47047],[-49.1129214,-16.4723222],[-49.1119536,-16.4726875],[-49.1125814,-16.474236],[-49.1137169,-16.4738583],[-49.1134839,-16.4748072],[-49.1146668,-16.4756653],[-49.1142578,-16.4762276],[-49.1150428,-16.4769486],[-49.115207,-16.4761705],[-49.1158458,-16.4766742],[-49.1151526,-16.479926],[-49.1159265,-16.4800338],[-49.1157732,-16.4810633],[-49.1164319,-16.4805311],[-49.1169867,-16.4814852],[-49.1164178,-16.4816775],[-49.1166586,-16.482252],[-49.1173573,-16.4820377],[-49.1171949,-16.4828484],[-49.1182902,-16.4837178],[-49.1186148,-16.482607],[-49.1205762,-16.4828888],[-49.1213492,-16.4841986],[-49.121119,-16.4850075],[-49.1217382,-16.4853323],[-49.1210493,-16.4858573],[-49.1205497,-16.48535],[-49.1205201,-16.4867445],[-49.121912,-16.4875321],[-49.1204326,-16.4880306],[-49.1209069,-16.4883287],[-49.1220244,-16.4878353],[-49.1225262,-16.4893499],[-49.121489,-16.489745],[-49.1215776,-16.4912587],[-49.1207071,-16.4922422],[-49.1217787,-16.4931109],[-49.1209399,-16.4934214],[-49.1220461,-16.4948366],[-49.1219706,-16.4958976],[-49.1236441,-16.4957948],[-49.1233649,-16.4969784],[-49.1239922,-16.4971697],[-49.1232014,-16.4977353],[-49.1241004,-16.49821],[-49.1242445,-16.5005452],[-49.1236751,-16.5010664],[-49.1232985,-16.5001848],[-49.1223005,-16.5001901],[-49.1213393,-16.5009269],[-49.121836,-16.5016632],[-49.1214756,-16.5021685],[-49.1225,-16.5028546],[-49.1222076,-16.5036162],[-49.1234933,-16.5040817],[-49.1226731,-16.5046782],[-49.1235306,-16.5065299],[-49.1223622,-16.507101],[-49.1217886,-16.5066209],[-49.1212081,-16.5073031],[-49.1215355,-16.5094748],[-49.1210207,-16.5110618],[-49.1220077,-16.5106509],[-49.1240695,-16.5111513],[-49.1248719,-16.5123983],[-49.1264184,-16.5132608],[-49.1271076,-16.5121957],[-49.1274596,-16.513407],[-49.1267884,-16.5153629],[-49.1275377,-16.5152502],[-49.1289053,-16.5172872],[-49.1295848,-16.5173206],[-49.1294842,-16.5178793],[-49.1301595,-16.5177236],[-49.1303374,-16.5198217],[-49.1312217,-16.5192231],[-49.1331753,-16.5197599],[-49.1326329,-16.52027],[-49.1330076,-16.5207877],[-49.1315858,-16.5206692],[-49.1332081,-16.5221398],[-49.1350713,-16.5206069],[-49.1369793,-16.523003],[-49.1383532,-16.5231097],[-49.1407335,-16.5258733],[-49.1410835,-16.5254561],[-49.1405974,-16.5244497],[-49.1412631,-16.5239754],[-49.1428756,-16.5256938],[-49.1453219,-16.5251217],[-49.1474474,-16.5230769],[-49.149224,-16.5227552],[-49.1499326,-16.5214464],[-49.149711,-16.5203827],[-49.150078,-16.5204237],[-49.1519463,-16.5226739],[-49.1511782,-16.5229274],[-49.1519416,-16.5255375],[-49.1510108,-16.5290169],[-49.153971,-16.5300396],[-49.1527462,-16.53243],[-49.1570676,-16.5325447],[-49.1574807,-16.5323378],[-49.1571148,-16.5310238],[-49.1592927,-16.5312132],[-49.1604754,-16.5320324],[-49.1614464,-16.5342496],[-49.163399,-16.5342769],[-49.1662084,-16.5360733],[-49.1665257,-16.5352782],[-49.1679566,-16.5375703],[-49.1696889,-16.536713],[-49.1695914,-16.5359879],[-49.170841,-16.5362008],[-49.1709335,-16.5367257],[-49.1716894,-16.536016],[-49.1728155,-16.5361197],[-49.1731084,-16.5372213],[-49.1741496,-16.5377538],[-49.1743459,-16.5385283],[-49.1748697,-16.5383015],[-49.17538656433925,-16.539305607016587],[-49.1756553,-16.5402596],[-49.1748459,-16.540573],[-49.1758321,-16.5411434],[-49.1784089,-16.5404118],[-49.1801293,-16.5416845],[-49.1826297,-16.5408877],[-49.1843284,-16.5425619],[-49.1845667,-16.544503],[-49.1855402,-16.5452301],[-49.1876466,-16.5452052],[-49.187016,-16.54614],[-49.1861643,-16.5461338],[-49.187445,-16.5476046],[-49.1866843,-16.5479038],[-49.1875176,-16.5494539],[-49.1872965,-16.5509995],[-49.1800486,-16.5505087],[-49.176848,-16.5524411],[-49.1756171,-16.5539128],[-49.1736197,-16.5543913],[-49.1694996,-16.5578779],[-49.1682211,-16.5609241],[-49.1648511,-16.5653973],[-49.1659148,-16.5761935],[-49.1636942,-16.5780813],[-49.1599762,-16.5751829],[-49.1564767,-16.5766589],[-49.1518917,-16.5749586],[-49.1472591,-16.5742539],[-49.144143,-16.5754561],[-49.1428979,-16.5772296],[-49.1378749,-16.5772225],[-49.1343112,-16.5794037],[-49.1285835,-16.5774588],[-49.1236772,-16.5767303],[-49.1187065,-16.5742355],[-49.1212871,-16.5693315],[-49.1207729,-16.5669509],[-49.1194969,-16.5651417],[-49.1088319,-16.564856],[-49.1028543,-16.5625605],[-49.0991596,-16.5651792],[-49.0988716,-16.5663147],[-49.0936593,-16.5678597],[-49.0930023,-16.5685596],[-49.0929414,-16.5696265],[-49.0942395,-16.5711865],[-49.0966429,-16.5761079],[-49.0943217,-16.579452],[-49.0949624,-16.5852739],[-49.0960538,-16.5876718],[-49.0958418,-16.5891781],[-49.0908033,-16.591328],[-49.0810073,-16.591655],[-49.0780189,-16.5934851],[-49.0705934,-16.5935343],[-49.0689703,-16.5929673],[-49.0682495,-16.5918143],[-49.0667538,-16.5915107],[-49.0653252,-16.5748976],[-49.0567454,-16.5614584],[-49.0456742,-16.5565463],[-49.0373213,-16.5520453],[-49.036118,-16.5501314],[-49.0360041,-16.5466421],[-49.031775,-16.5474958],[-49.0244711,-16.5456914],[-49.024473,-16.543839],[-49.0195409,-16.5396533],[-49.0181219,-16.5377619],[-49.0159854,-16.5368319],[-49.0188337,-16.5212376],[-49.0142974,-16.5251917],[-49.0130809,-16.5273797],[-49.0075979,-16.5285646],[-49.0049441,-16.5280828],[-49.0016413,-16.5289386],[-48.9997288,-16.5287743],[-48.9971646,-16.5299836],[-48.9975976,-16.5302348],[-48.9969859,-16.5306727],[-48.9972926,-16.531383],[-48.9962594,-16.5320921],[-48.9969367,-16.5348146],[-48.9963594,-16.5361929],[-48.9975157,-16.5378377],[-48.999445,-16.538751],[-49.0005278,-16.5404013],[-49.000422,-16.5414699],[-49.003087,-16.542183],[-49.003549,-16.5462245],[-49.004393,-16.5463702],[-49.0048285,-16.5455351],[-49.0060263,-16.5455907],[-49.0068437,-16.5474615],[-49.0079747,-16.5477655],[-49.0073625,-16.5495432],[-49.0078572,-16.5518667],[-49.0074674,-16.553607],[-49.0089045,-16.5557775],[-49.0045779,-16.5563532],[-49.0048493,-16.5574786],[-49.0061416,-16.5576689],[-49.0053346,-16.5585525],[-49.0051235,-16.5598781],[-49.0038968,-16.5602487],[-49.0041579,-16.5608813],[-49.005072,-16.5609279],[-49.0047342,-16.5630946],[-49.0032836,-16.5633248],[-49.0019192,-16.5647366],[-49.002362,-16.565696],[-49.0013522,-16.5657185],[-49.0012179,-16.5673444],[-48.9998688,-16.5679443],[-49.0003448,-16.5683809],[-49.0001421,-16.570318],[-48.9980599,-16.5719237],[-48.9982456,-16.5724117],[-48.995889,-16.5757193],[-48.9959398,-16.5767655],[-48.9948544,-16.5772193],[-48.9942694,-16.5767364],[-48.9936684,-16.5789248],[-48.9927191,-16.5790914],[-48.9926555,-16.5802225],[-48.993558,-16.581534],[-48.9942546,-16.5814417],[-48.9939912,-16.5823696],[-48.9953203,-16.5849452],[-48.9945502,-16.5882304],[-48.9916816,-16.5876312],[-48.9918086,-16.5865687],[-48.9909827,-16.5861889],[-48.9901444,-16.5867779],[-48.9895228,-16.586066],[-48.989773,-16.584585],[-48.9890085,-16.5845911],[-48.9881151,-16.5822768],[-48.986494,-16.5813884],[-48.9857642,-16.5817761],[-48.9850562,-16.580482],[-48.9846624,-16.5808696],[-48.9821962,-16.5785668],[-48.9825671,-16.5779178],[-48.9818775,-16.5760273],[-48.9804415,-16.5740652],[-48.9788428,-16.5736602],[-48.9773622,-16.5721832],[-48.9770321,-16.5697559],[-48.9757963,-16.5692903],[-48.9738045,-16.5662049],[-48.9711181,-16.566428],[-48.9692269,-16.5647729],[-48.9674548,-16.5672861],[-48.9665145,-16.5664522],[-48.964625,-16.5663936],[-48.9636484,-16.5669645],[-48.9624908,-16.5698377],[-48.9618433,-16.5698695],[-48.9612831,-16.5734067],[-48.9593361,-16.5753106],[-48.9468513,-16.6054458],[-48.9445393,-16.6075362],[-48.9437944,-16.6097425],[-48.9399786,-16.613236],[-48.9375828,-16.6141858],[-48.9353266,-16.6175302],[-48.9310522,-16.6186983],[-48.9293186,-16.6198782],[-48.9251966,-16.6206746],[-48.9233834,-16.6230898],[-48.921452,-16.6244072],[-48.9200449,-16.6242096],[-48.9196904,-16.623221],[-48.9179044,-16.6228854],[-48.9252528,-16.6348919],[-48.9270439,-16.6326401],[-48.9331497,-16.6279767],[-48.942812,-16.6301877],[-48.9453441,-16.629171],[-48.9469572,-16.6296619],[-48.9483951,-16.6283386],[-48.94977,-16.6285649],[-48.956021,-16.6327617],[-48.9587735,-16.6335998],[-48.9600453,-16.63668],[-48.9642866,-16.6387253],[-48.9656834,-16.6427355],[-48.9670868,-16.6431476],[-48.9676551,-16.6442258],[-48.9714726,-16.6456455],[-48.9763698,-16.6485482],[-48.9797189,-16.6512356],[-48.9846583,-16.6485366],[-48.9862017,-16.6463773],[-48.9878451,-16.645218],[-48.9896314,-16.6447423],[-48.9904391,-16.6433723],[-48.9925166,-16.6421519],[-48.9938662,-16.639166],[-48.9948188,-16.638421],[-48.9960303,-16.6390372],[-49.0017448,-16.6378171],[-49.0031209,-16.6358317],[-49.004795,-16.636213],[-49.0043343,-16.6365513],[-49.0041159,-16.6388436],[-49.0027753,-16.6392219],[-49.0045035,-16.6434645],[-49.0047327,-16.6465328],[-49.0043056,-16.647119],[-49.0052476,-16.6477638],[-49.0052474,-16.6485197],[-49.0044583,-16.6490035],[-49.0045297,-16.6501367],[-49.0066114,-16.6522904],[-49.0079557,-16.6523869],[-49.0075251,-16.6527349],[-49.0081863,-16.6548338],[-49.0092923,-16.6552088],[-49.0109696,-16.6590536],[-49.0119483,-16.659188],[-49.0123165,-16.6600694],[-49.0105579,-16.6597255],[-49.0096143,-16.6635247],[-49.0066113,-16.6639021],[-48.9955244,-16.6708496],[-48.9935009,-16.6744407],[-48.9848307,-16.6804476],[-48.979356,-16.6896108],[-48.9753866,-16.6929195],[-48.9200307,-16.6923645],[-48.9150328,-16.6827737],[-48.9097717,-16.6762603],[-48.9050291,-16.6723453],[-48.9029397,-16.6648549],[-48.8878282,-16.6530364],[-48.8816898,-16.6441326],[-48.8764144,-16.6393531],[-48.8705817,-16.6376884],[-48.8584405,-16.63095],[-48.8490798,-16.6353225],[-48.8485199,-16.6404031],[-48.8524408,-16.6456702],[-48.8548851,-16.6524399],[-48.8521936,-16.6568324],[-48.8530353,-16.6568241],[-48.8529086,-16.6580676],[-48.8543588,-16.6581542],[-48.855301,-16.65651],[-48.8569416,-16.6555819],[-48.8585693,-16.6555876],[-48.8594134,-16.6567868],[-48.8611507,-16.6569555],[-48.8629136,-16.6581623],[-48.8648349,-16.6577113],[-48.8670065,-16.6582442],[-48.8679597,-16.6576606],[-48.8689,-16.6589976],[-48.870633,-16.658701],[-48.8705086,-16.6570823],[-48.8721565,-16.6567912],[-48.8723729,-16.6589093],[-48.8736247,-16.6595857],[-48.8734334,-16.6606691],[-48.874914,-16.6611286],[-48.8763334,-16.6649907],[-48.8781323,-16.6654248],[-48.8790765,-16.6645158],[-48.8788075,-16.6668983],[-48.8805787,-16.6699469],[-48.8810785,-16.6713955],[-48.880791,-16.6722921],[-48.8831367,-16.6729803],[-48.883791,-16.6756196],[-48.8847783,-16.6766122],[-48.8852928,-16.6761412],[-48.88602,-16.676523],[-48.886028,-16.6779059],[-48.8874818,-16.6784157],[-48.8880845,-16.6829788],[-48.8888167,-16.6844065],[-48.88865,-16.6856399],[-48.8894968,-16.6862233],[-48.8894734,-16.68737],[-48.8904635,-16.6875001],[-48.8910952,-16.6886535],[-48.8903117,-16.6902349],[-48.891999,-16.6905026],[-48.8922737,-16.6915454],[-48.8935171,-16.6921288],[-48.8935789,-16.6929472],[-48.8945148,-16.6923505],[-48.8956856,-16.6937656],[-48.8972824,-16.6942623],[-48.8970017,-16.6953129],[-48.8978758,-16.6958591],[-48.8977958,-16.6975126],[-48.8986159,-16.6983393],[-48.8968457,-16.6988594],[-48.8967455,-16.7004738],[-48.8972765,-16.7006598],[-48.8985549,-16.6993528],[-48.8997997,-16.6996403],[-48.9002443,-16.7003467],[-48.9015758,-16.70017],[-48.9012499,-16.7019211],[-48.9001424,-16.7028522],[-48.8999884,-16.7037858],[-48.9018996,-16.7068275],[-48.9017497,-16.7074435],[-48.9023487,-16.7076466],[-48.9023405,-16.7091966],[-48.9030079,-16.7100537],[-48.9037353,-16.7099438],[-48.9033953,-16.7110301],[-48.9046436,-16.7115126],[-48.9044621,-16.7143467],[-48.9057929,-16.7140096],[-48.9076148,-16.7171613],[-48.9099736,-16.7165397],[-48.909749,-16.7174515],[-48.908706,-16.7182917],[-48.9086949,-16.7191729],[-48.9094382,-16.7198119],[-48.9116509,-16.7189334],[-48.9135637,-16.7195498],[-48.9135999,-16.7185501],[-48.9144109,-16.7199945],[-48.9158933,-16.7199159],[-48.9158077,-16.723172],[-48.9166468,-16.7238207],[-48.9167387,-16.7249978],[-48.9155159,-16.7252377],[-48.9137205,-16.7282848],[-48.9145769,-16.7302364],[-48.9144355,-16.7315548],[-48.9134421,-16.7328612],[-48.9124312,-16.7328184],[-48.9117426,-16.73102],[-48.9105928,-16.7310196],[-48.9090674,-16.7330958],[-48.9081012,-16.736072],[-48.9066345,-16.7359913],[-48.9050208,-16.7379196],[-48.9031515,-16.7368588],[-48.9011484,-16.7372739],[-48.899587,-16.7355535],[-48.8990786,-16.7362801],[-48.8979342,-16.7364204],[-48.8973244,-16.7352064],[-48.8957736,-16.7347314],[-48.8945623,-16.7359126],[-48.8925938,-16.7358856],[-48.8920592,-16.7345545],[-48.8912474,-16.7340626],[-48.891158,-16.7346242],[-48.8903433,-16.7343897],[-48.8907169,-16.7356618],[-48.8896615,-16.7365377],[-48.890321,-16.7382806],[-48.8882932,-16.7381272],[-48.8878549,-16.7389128],[-48.8865039,-16.7384498],[-48.8856024,-16.7399411],[-48.8844614,-16.7399813],[-48.8832266,-16.7408617],[-48.8832764,-16.74188],[-48.8814777,-16.740805],[-48.8808988,-16.7416102],[-48.8804286,-16.7410551],[-48.8792944,-16.741366],[-48.8793734,-16.7432376],[-48.8787508,-16.7441714],[-48.8801358,-16.7449459],[-48.8787897,-16.7458482],[-48.8766022,-16.7457261],[-48.8762815,-16.7465758],[-48.8776275,-16.7476702],[-48.8760325,-16.7489444],[-48.8721162,-16.7494794],[-48.8714623,-16.7516447],[-48.8705624,-16.7520829],[-48.8696127,-16.7516518],[-48.8692997,-16.7531111],[-48.8676975,-16.7525443],[-48.8668354,-16.754335],[-48.8672736,-16.7560972],[-48.866222,-16.7572019],[-48.8639698,-16.7577041],[-48.865164,-16.7586332],[-48.8654307,-16.7602911],[-48.8650024,-16.7608107],[-48.8657449,-16.7614619],[-48.866573,-16.763786],[-48.8681134,-16.7651047],[-48.8680959,-16.7675684],[-48.8895048,-16.7962334],[-48.8918327,-16.7957567],[-48.8927517,-16.7963692],[-48.8982127,-16.7950203],[-48.9021934,-16.7948258],[-48.9034861,-16.7936242],[-48.9070868,-16.7922165],[-48.9100587,-16.7922703],[-48.9135501,-16.7902024],[-48.9156325,-16.7900313],[-48.9164741,-16.7889751],[-48.9176396,-16.7897521],[-48.9184375,-16.7891424],[-48.9211928,-16.7889278],[-48.9229366,-16.7881408],[-48.9240167,-16.7886227],[-48.9279528,-16.7877496],[-48.9304058,-16.7882926],[-48.931981,-16.7895491],[-48.9323421,-16.7916934],[-48.9337385,-16.7933745],[-48.9348907,-16.7934856],[-48.9351313,-16.7940333],[-48.9367071,-16.7934826],[-48.9374191,-16.7943917],[-48.9393875,-16.7936942],[-48.9413735,-16.7943101],[-48.9419002,-16.793402],[-48.9429269,-16.7939573],[-48.9452444,-16.7937272],[-48.9455966,-16.7943438],[-48.9475795,-16.7949389],[-48.948944,-16.7944788],[-48.9494047,-16.7951669],[-48.9512299,-16.7940931],[-48.9533848,-16.7944328],[-48.9573512,-16.7939746],[-48.9622285,-16.7957829],[-48.9652584,-16.7946653],[-48.9696722,-16.7951732],[-48.9707977,-16.7945803],[-48.9710676,-16.7923519],[-48.9739884,-16.7912351],[-48.9795883,-16.79578],[-48.987997,-16.7983882],[-48.9903319,-16.800022],[-48.9958344,-16.8056058],[-48.9973911,-16.807862],[-48.9980302,-16.8113237],[-49.00017,-16.813214],[-48.999444,-16.8154852],[-49.0029862,-16.820241],[-49.0062437,-16.8226345],[-49.0135021,-16.8264712],[-49.0198933,-16.8261381],[-49.0225276,-16.8266395],[-49.0285721,-16.8211972],[-49.0351514,-16.8186864],[-49.0401683,-16.815081],[-49.0444478,-16.8144032],[-49.047146,-16.8148307],[-49.0497736,-16.8160457],[-49.0531253,-16.8201935],[-49.0549637,-16.8214801],[-49.0553905,-16.8238469],[-49.056194,-16.824873],[-49.0558548,-16.827408],[-49.0568658,-16.8271949],[-49.0580351,-16.8248928],[-49.0623171,-16.8245955],[-49.0633328,-16.8264224],[-49.0653514,-16.8265006],[-49.0686927,-16.8215317],[-49.0667361,-16.8202875],[-49.065871,-16.818798],[-49.066843,-16.8175523],[-49.0670481,-16.8147625],[-49.0659306,-16.8141407],[-49.0651934,-16.814848],[-49.0645042,-16.8147258],[-49.0646098,-16.813318],[-49.065609,-16.8129872],[-49.0646469,-16.8108956],[-49.0618438,-16.8139901],[-49.0607151,-16.8139721],[-49.0609017,-16.8112057],[-49.0599833,-16.8104544],[-49.0594149,-16.8087257],[-49.0597411,-16.8081858],[-49.0600133,-16.8090762],[-49.0606024,-16.8082067],[-49.0603838,-16.8056197],[-49.058872,-16.8043036],[-49.058906,-16.8030075],[-49.0578179,-16.8014682],[-49.0580603,-16.8000949],[-49.05651,-16.7978738],[-49.0553404,-16.7993103],[-49.0557353,-16.8001799],[-49.0551353,-16.800176],[-49.054153,-16.7972911],[-49.0531979,-16.7975888],[-49.0530577,-16.7971536],[-49.0573201,-16.7946283],[-49.0581893,-16.7953948],[-49.0590982,-16.794613],[-49.0602283,-16.7946283],[-49.0605026,-16.7951963],[-49.061284,-16.7947245],[-49.0631242,-16.7911791],[-49.0637665,-16.7920019],[-49.0643134,-16.791391],[-49.0636158,-16.789438],[-49.06186,-16.7889505],[-49.06146036713174,-16.78775820845727],[-49.0623492,-16.7862642],[-49.0643843,-16.7846162],[-49.0662812,-16.7843018],[-49.0684358,-16.7829071],[-49.0725393,-16.778615],[-49.0757204,-16.7785415],[-49.0768765,-16.7773639],[-49.0787315,-16.7767587],[-49.0796167,-16.7750615],[-49.0822371,-16.7743798],[-49.0850402,-16.7723084],[-49.0868708,-16.7719308],[-49.0883422,-16.7726307],[-49.0961623,-16.7732501],[-49.0989521,-16.7814733],[-49.0995685,-16.7817197],[-49.1006739,-16.7809206],[-49.1021854,-16.7813121],[-49.107981,-16.7902755],[-49.118578,-16.7969605],[-49.1241051,-16.7991751],[-49.1276425,-16.7998458],[-49.1258139,-16.8037467],[-49.1215046,-16.8100195],[-49.1273727,-16.8151494],[-49.1301831,-16.821662],[-49.1344414,-16.8275838],[-49.1358572,-16.828561],[-49.1381532,-16.829135],[-49.1402106,-16.8286018],[-49.1445723,-16.8257539],[-49.1505679,-16.8239853],[-49.1562327,-16.8236624],[-49.1541512,-16.8240996],[-49.1547874,-16.8254687],[-49.1546899,-16.8272386],[-49.1563812,-16.8269802],[-49.1568016,-16.8274276],[-49.155408,-16.8283134],[-49.153412,-16.8314077],[-49.1565759,-16.8332178],[-49.1569666,-16.8353408],[-49.1565881,-16.8363186],[-49.1555607,-16.8368128],[-49.1574205,-16.8381494],[-49.1575776,-16.8392141],[-49.1536793,-16.8412143],[-49.1497971,-16.8396137],[-49.1483268,-16.837873],[-49.146318,-16.8414349],[-49.1478961,-16.8434772],[-49.1478124,-16.8456929],[-49.1458343,-16.8479756],[-49.1452684,-16.849467],[-49.1485522,-16.8501683],[-49.1475128,-16.8551111],[-49.1501117,-16.8553684],[-49.1509056,-16.8559386],[-49.1525055,-16.8595634],[-49.1533249,-16.8636128],[-49.1524501,-16.8639258],[-49.1516233,-16.8626423],[-49.1494273,-16.8610235],[-49.1484694,-16.861752],[-49.1480294,-16.8677967],[-49.1465425,-16.8689708],[-49.1455203,-16.8730205],[-49.1458745,-16.8748782],[-49.1445024,-16.8754145],[-49.1441994,-16.8742056],[-49.1416579,-16.8743131],[-49.1415915,-16.8759632],[-49.1409709,-16.8769567],[-49.139532,-16.8771677],[-49.1392796,-16.8782592],[-49.1366726,-16.8810985],[-49.1375017,-16.8836302],[-49.1373852,-16.8869171],[-49.1383959,-16.887075],[-49.1421225,-16.8922475],[-49.1431305,-16.8974287],[-49.1442306,-16.8980192],[-49.1463286,-16.8977562],[-49.1444716,-16.9018864],[-49.1412957,-16.9016614],[-49.1396368,-16.9001915],[-49.1366625,-16.9006902],[-49.1357068,-16.9030327],[-49.1313393,-16.9037257],[-49.127742,-16.9053019],[-49.1274889,-16.906275],[-49.1282631,-16.9080843],[-49.1279923,-16.9111565],[-49.1289385,-16.9144944],[-49.12806,-16.9170443],[-49.1260093,-16.9160954],[-49.1236653,-16.9158684],[-49.1213606,-16.9140787],[-49.118332,-16.9145415],[-49.1170598,-16.9135965],[-49.1130873,-16.9147637],[-49.1131365,-16.9166961],[-49.1186375,-16.9187844],[-49.1190128,-16.9242223],[-49.1182434,-16.9258383],[-49.1190441,-16.9273122],[-49.1213348,-16.9287094],[-49.1219088,-16.9309032],[-49.1215789,-16.9321312],[-49.1188016,-16.9350703],[-49.117185,-16.9386962],[-49.1157161,-16.9393751],[-49.1136242,-16.9419736],[-49.1140327,-16.9447008],[-49.1133958,-16.9481106],[-49.1121347,-16.9487831],[-49.1082031,-16.9477923],[-49.106228,-16.949354],[-49.1063188,-16.9514481],[-49.1052702,-16.9519756],[-49.1045136,-16.9511217],[-49.1046564,-16.9464591],[-49.1019424,-16.9461231],[-49.1015385,-16.9447329],[-49.0989699,-16.9449947],[-49.0968182,-16.9443792],[-49.092735,-16.9424188],[-49.091094,-16.9407414],[-49.0889414,-16.9432807],[-49.0858734,-16.9501936],[-49.0867389,-16.9513623],[-49.0889804,-16.9513043],[-49.0898247,-16.9510697],[-49.0905323,-16.9493824],[-49.0929787,-16.9503936],[-49.0947792,-16.9493373],[-49.0962937,-16.9494584],[-49.0949097,-16.9532798],[-49.0965093,-16.9538256],[-49.0967718,-16.9546158],[-49.0948762,-16.9567522],[-49.0945106,-16.958176],[-49.0935528,-16.9585723],[-49.0889457,-16.9584304],[-49.0877554,-16.9600774],[-49.0852929,-16.9600535],[-49.0830183,-16.9613178],[-49.0750028,-16.9565932],[-49.0741443,-16.956566],[-49.0695131,-16.9617368],[-49.0667874,-16.963508],[-49.0663835,-16.9644957],[-49.0600317,-16.9697398],[-49.0586512,-16.9721188],[-49.0570685,-16.9775067],[-49.0585416,-16.9819854],[-49.0578268,-16.984084],[-49.0587971,-16.984433],[-49.060017,-16.9833193],[-49.0602466,-16.9865394],[-49.0617904,-16.9858701],[-49.062341,-16.9862107],[-49.0606742,-16.988408],[-49.0621841,-16.9909157],[-49.0640818,-16.9915321],[-49.065546,-16.9933353],[-49.0655557,-16.994048],[-49.0644504,-16.9950503],[-49.0648528,-16.9963039],[-49.071676,-16.9965864],[-49.0731621,-16.997864],[-49.0713625,-17.0002661],[-49.0712769,-17.0026434],[-49.068839,-17.0072709],[-49.0701925,-17.007691],[-49.071927,-17.0069031],[-49.075237,-17.0039265],[-49.0792185,-17.0037795],[-49.07953,-17.0056453],[-49.081165,-17.0059838],[-49.0814128,-17.0066797],[-49.0782095,-17.0098343],[-49.0780055,-17.011322],[-49.0787613,-17.011805],[-49.0805211,-17.0113274],[-49.0813961,-17.0124386],[-49.0810175,-17.0144441],[-49.081582,-17.015862],[-49.0842042,-17.0161651],[-49.086903,-17.0181532],[-49.0861064,-17.0198583],[-49.0851406,-17.0204531],[-49.0795237,-17.0203048],[-49.0795516,-17.0210404],[-49.0818583,-17.0224051],[-49.0807952,-17.0250656],[-49.0817333,-17.0256032],[-49.0827086,-17.02426],[-49.0847401,-17.0241105],[-49.0865472,-17.0276274],[-49.0879492,-17.0281696],[-49.0885535,-17.0280392],[-49.0885682,-17.0264952],[-49.0894317,-17.0249537],[-49.091886,-17.0260467],[-49.0900337,-17.0292602],[-49.0899256,-17.0304319],[-49.0904352,-17.0330511],[-49.0931265,-17.0354624],[-49.0929482,-17.0364422],[-49.0912091,-17.0377889],[-49.0899295,-17.0406751],[-49.0816431,-17.0455256],[-49.0811078,-17.0470016],[-49.0876696,-17.0485631],[-49.090595,-17.0485599],[-49.0924259,-17.0500384],[-49.0942722,-17.050679],[-49.0950644,-17.0505563],[-49.0965132,-17.0490194],[-49.0977861,-17.0490005],[-49.0994907,-17.0519568],[-49.0990782,-17.0531971],[-49.0970495,-17.0550345],[-49.0960473,-17.0549373],[-49.0946674,-17.0536455],[-49.0930659,-17.0536456],[-49.0896971,-17.0564954],[-49.0864025,-17.0575119],[-49.0836632,-17.0615168],[-49.0838683,-17.0644454],[-49.0868066,-17.0647377],[-49.0876775,-17.0655361],[-49.0876135,-17.0664155],[-49.0862727,-17.066984],[-49.0860522,-17.067787],[-49.0881128,-17.0746082],[-49.0902564,-17.0784351],[-49.0908105,-17.0779782],[-49.0914622,-17.0730145],[-49.0925352,-17.0722721],[-49.0947562,-17.0744312],[-49.0964794,-17.0737907],[-49.0982002,-17.0746846],[-49.1025024,-17.075356],[-49.1081132,-17.0779758],[-49.1086121,-17.0786773],[-49.1088445,-17.0816087],[-49.1067717,-17.0913217],[-49.1080578,-17.0944552],[-49.1124918,-17.0962464],[-49.116407,-17.0965891],[-49.1191388,-17.096171],[-49.1209701,-17.1032336],[-49.1211377,-17.1062522],[-49.12049,-17.1069897],[-49.1186715,-17.1072257],[-49.1173347,-17.1046154],[-49.116565,-17.1048784],[-49.1162655,-17.1057899],[-49.11681,-17.1079185],[-49.1193122,-17.1116612],[-49.1180178,-17.1141236],[-49.1196148,-17.118073],[-49.1173272,-17.1186383],[-49.1165118,-17.1218549],[-49.1147423,-17.1209307],[-49.112294,-17.121078],[-49.1077919,-17.1246386],[-49.1096485,-17.1355124],[-49.1103947,-17.1348391],[-49.1120155,-17.1360259],[-49.1183619,-17.1342285],[-49.1203829,-17.1328597],[-49.1231079,-17.1320399],[-49.1274063,-17.1319145],[-49.1299184,-17.1297621],[-49.1301019,-17.1281261],[-49.1321764,-17.126807],[-49.1340206,-17.1274466],[-49.1390603,-17.12767],[-49.1421588,-17.130431],[-49.144688,-17.1312482],[-49.1460833,-17.1302467],[-49.1467487,-17.1276128],[-49.1500993,-17.12664],[-49.1521353,-17.1245447],[-49.1548294,-17.123241],[-49.1559429,-17.1220044],[-49.1581445,-17.1216495],[-49.1675861,-17.1222423],[-49.1703048,-17.1216121],[-49.1719304,-17.1202552],[-49.1750207,-17.1194877],[-49.176107,-17.1197863],[-49.1785186,-17.1218512],[-49.1790477,-17.1248771],[-49.1784822,-17.1277744],[-49.1804962,-17.1310332],[-49.1828248,-17.1323002],[-49.1833794,-17.1335753],[-49.1849714,-17.1347484],[-49.187989,-17.1355507],[-49.1897394,-17.1353541],[-49.1912787,-17.1365768],[-49.1923574,-17.1365551],[-49.1952822,-17.131931],[-49.1961665,-17.1263117],[-49.1981418,-17.1237648],[-49.1985015,-17.1216074],[-49.2008669,-17.1210458],[-49.2029933,-17.1212827],[-49.2036833,-17.1204985],[-49.2048204,-17.1204902],[-49.2040013,-17.1197006],[-49.2043955,-17.117135],[-49.2051857,-17.1167084],[-49.2059749,-17.1173296],[-49.2065802,-17.1171445],[-49.2067638,-17.113957],[-49.207737,-17.1135014],[-49.2086746,-17.110707],[-49.2107158,-17.1109942],[-49.2102049,-17.1085513],[-49.2111683,-17.1073312],[-49.2112997,-17.1054497],[-49.212459,-17.1034436],[-49.2117244,-17.1026396],[-49.2122492,-17.1018537],[-49.2131968,-17.1022954],[-49.2138704,-17.1018238],[-49.2136355,-17.1007084],[-49.2141994,-17.1000872],[-49.2156326,-17.1018239],[-49.2170814,-17.0996574],[-49.2169207,-17.0984931],[-49.2145952,-17.0969782],[-49.2156001,-17.0952029],[-49.215387,-17.0939564],[-49.217293,-17.0912473],[-49.2179765,-17.0882123],[-49.221996,-17.0858749],[-49.2227704,-17.08309],[-49.2238862,-17.0824837],[-49.2318099,-17.0825548],[-49.2336322,-17.0831856],[-49.2352468,-17.0827164],[-49.236249,-17.0829788],[-49.2373745,-17.0847048],[-49.2394902,-17.0857308],[-49.2404048,-17.0856354],[-49.2421388,-17.0865262],[-49.2445102,-17.0861893],[-49.2472727,-17.0880309],[-49.2477253,-17.0891763],[-49.2490943,-17.0897942],[-49.251404,-17.0895166],[-49.2586507,-17.091378],[-49.2595097,-17.0926426],[-49.2623333,-17.0936846],[-49.2674634,-17.0945276],[-49.2679168,-17.0968501],[-49.2715874,-17.0976574],[-49.2740531,-17.1010378],[-49.2805897,-17.1028425],[-49.2802763,-17.1036074],[-49.2828181,-17.1052135],[-49.282931,-17.1068316],[-49.2838392,-17.1075084],[-49.2917024,-17.1098187],[-49.2930625,-17.108562],[-49.2952021,-17.1090313],[-49.2958145,-17.1101925],[-49.2978737,-17.1111792],[-49.2988687,-17.1125548],[-49.3045,-17.1171838],[-49.3045875,-17.1189337],[-49.3157625,-17.125066],[-49.3175202,-17.128681],[-49.3203323,-17.1294742],[-49.3276447,-17.1290762],[-49.3354387,-17.1339805],[-49.3402706,-17.1334985],[-49.346128,-17.1363466],[-49.3493581,-17.1375232],[-49.3526339,-17.1378355],[-49.3601848,-17.1411365],[-49.36427,-17.1422041],[-49.3685984,-17.1420044],[-49.3707984,-17.1444624],[-49.3746673,-17.1451818],[-49.3758872,-17.1457229],[-49.3764319,-17.1469972],[-49.378259,-17.1477164],[-49.3787842,-17.1488088],[-49.3780595,-17.1498625],[-49.3783559,-17.1506232],[-49.3815049,-17.1510759],[-49.382177,-17.1519105],[-49.3832911,-17.151636],[-49.3838198,-17.1532356],[-49.3858929,-17.1536532],[-49.3864777,-17.1545164],[-49.3884098,-17.1554238],[-49.3903451,-17.155611],[-49.3906514,-17.156453],[-49.3922132,-17.1563005],[-49.395692,-17.1575341],[-49.3963402,-17.1569813],[-49.3989681,-17.1579599],[-49.400016,-17.1591355],[-49.4022324,-17.1589194],[-49.4072543,-17.1610163],[-49.4082919,-17.1602498],[-49.4100019,-17.1599833],[-49.4120312,-17.1574053],[-49.4133498,-17.1566954],[-49.4216342,-17.1580915],[-49.4248967,-17.1594459],[-49.4283853,-17.159199],[-49.4305818,-17.1603482],[-49.4312696,-17.159406],[-49.4352091,-17.14628],[-49.4352465,-17.1436339],[-49.4410494,-17.139939],[-49.4480282,-17.1421515],[-49.4559064,-17.1469372],[-49.4569532,-17.148818],[-49.4569677,-17.1502413],[-49.4565175,-17.1517954],[-49.4549126,-17.1534112],[-49.456247,-17.1603854],[-49.4620421,-17.1667288],[-49.4634909,-17.1653084],[-49.4649759,-17.1653345],[-49.4667043,-17.1638567],[-49.4758384,-17.1625716],[-49.4841694,-17.1585772],[-49.4896297,-17.1609862],[-49.4895361,-17.1545815],[-49.4836857,-17.1474436],[-49.4812279,-17.1465077],[-49.4800347,-17.1441124],[-49.479872,-17.1415834],[-49.482054,-17.136522],[-49.4806762,-17.1329517],[-49.4828811,-17.1298747],[-49.490193,-17.1250569],[-49.4969517,-17.1225345],[-49.4944765,-17.1207573],[-49.490316,-17.1190235],[-49.4799681,-17.1094854],[-49.4751233,-17.1089539],[-49.4755695,-17.1022378],[-49.4737075,-17.0989004],[-49.4738789,-17.0967766],[-49.4733084,-17.0946217],[-49.4747083,-17.0944352],[-49.4767262,-17.0926943],[-49.4798415,-17.0884953],[-49.4823218,-17.0838232],[-49.4822179,-17.082541],[-49.4838721,-17.0813738],[-49.4824818,-17.0804428],[-49.4855947,-17.0783579],[-49.4854873,-17.0744068],[-49.490624,-17.0671638],[-49.4911015,-17.0648038],[-49.4905862,-17.0630353],[-49.4911556,-17.0623965],[-49.4928555,-17.0622122],[-49.4939211,-17.0595906],[-49.4928407,-17.054775],[-49.4914138,-17.0527065],[-49.486624,-17.0515303],[-49.4823247,-17.0472267],[-49.4824385,-17.0449396],[-49.4813942,-17.0414759],[-49.4821326,-17.0404497],[-49.4818458,-17.0385341],[-49.4806002,-17.0348686],[-49.479859,-17.0338043],[-49.4786209,-17.0333139],[-49.4809407,-17.0288172],[-49.4807817,-17.0277739],[-49.4821842,-17.0245089],[-49.48472,-17.0210872]],[[-49.0141252,-16.6600634],[-49.0115584112982,-16.66049711177373],[-49.0123165,-16.6600694],[-49.0141252,-16.6600634]],[[-49.3465194,-16.3270514],[-49.3452854,-16.326161],[-49.3430847,-16.3233114],[-49.3465194,-16.3270514]],[[-49.3626859,-16.3849265],[-49.3624675630589,-16.384928331557703],[-49.36275042253758,-16.384579942687672],[-49.3626859,-16.3849265]],[[-49.3612554,-16.3849385],[-49.36058519224018,-16.38432395852201],[-49.36204263779279,-16.38493189611778],[-49.3612554,-16.3849385]],[[-49.35651129470298,-16.38273824930657],[-49.3566541,-16.3826842],[-49.35825439714575,-16.383351724627296],[-49.35651129470298,-16.38273824930657]],[[-49.3555772,-16.3834467],[-49.35462040021207,-16.383453919790583],[-49.356326719192026,-16.38280810790836],[-49.3555772,-16.3834467]],[[-49.3524483,-16.3845836],[-49.35149158202621,-16.38463812273591],[-49.35329024782028,-16.383957359200135],[-49.3524483,-16.3845836]],[[-49.3337935,-16.3900887],[-49.33364971128023,-16.390135864902337],[-49.3341767,-16.3887639],[-49.3337935,-16.3900887]],[[-49.33275340516052,-16.39042986703733],[-49.3327197,-16.3903178],[-49.33310779690588,-16.390313621117024],[-49.33275340516052,-16.39042986703733]],[[-49.3339244,-16.397532],[-49.33386464414364,-16.397761746740077],[-49.33353304441547,-16.39727015635079],[-49.3339244,-16.397532]],[[-49.3342817,-16.398214],[-49.33425570805177,-16.39834149166296],[-49.33416590740355,-16.39820836388309],[-49.3342817,-16.398214]],[[-49.3341806,-16.3987099],[-49.3336105,-16.3985374],[-49.334241810207125,-16.398409661209552],[-49.3341806,-16.3987099]],[[-49.304338371885684,-16.42677610251119],[-49.3044507,-16.4265475],[-49.3057004,-16.4262107],[-49.304338371885684,-16.42677610251119]],[[-49.21422868782934,-16.449642565308846],[-49.2142363,-16.4496206],[-49.2156452,-16.449085],[-49.21422868782934,-16.449642565308846]],[[-49.213727622183235,-16.454153446985984],[-49.21353921638972,-16.45384697840106],[-49.213666905502656,-16.4537972753687],[-49.213727622183235,-16.454153446985984]],[[-49.21430864295293,-16.455098559181213],[-49.2165626,-16.4567765],[-49.2148788,-16.456026],[-49.21430864295293,-16.455098559181213]],[[-49.26352366648546,-16.515992817557393],[-49.2633718,-16.5158992],[-49.2626272,-16.5132903],[-49.26352366648546,-16.515992817557393]],[[-49.2654606,-16.5154944],[-49.2638789,-16.5162118],[-49.26370967246083,-16.516107480282496],[-49.2654606,-16.5154944]],[[-49.269565,-16.5182497],[-49.2677178,-16.5185041],[-49.267587012320575,-16.51832971063319],[-49.269565,-16.5182497]],[[-49.27981468286658,-16.52929203099426],[-49.2795729,-16.5291527],[-49.2771567,-16.5267231],[-49.27981468286658,-16.52929203099426]],[[-49.28495896069166,-16.531504903922144],[-49.284854,-16.5316897],[-49.2842015,-16.53182],[-49.28495896069166,-16.531504903922144]],[[-49.2852257,-16.5285796],[-49.2853365,-16.5308402],[-49.285168466179066,-16.531136044001837],[-49.2852257,-16.5285796]],[[-49.3104377,-16.5298738],[-49.310747546993085,-16.530181534514806],[-49.31032061528831,-16.529898572869243],[-49.3104377,-16.5298738]],[[-49.3263513,-16.5486823],[-49.326427805288496,-16.54895582531751],[-49.3253833,-16.5479286],[-49.3263513,-16.5486823]],[[-49.3278178,-16.5539254],[-49.32782809731217,-16.554126865437162],[-49.32758824452396,-16.55310468242998],[-49.3278178,-16.5539254]],[[-49.3279504,-16.5565197],[-49.32782193932596,-16.557105242377254],[-49.32789393798667,-16.55541502879967],[-49.3279504,-16.5565197]],[[-49.329982600305556,-16.56385285573626],[-49.3299471,-16.5637283],[-49.3303132,-16.562366],[-49.329982600305556,-16.56385285573626]],[[-49.3305238,-16.5654864],[-49.33046635243278,-16.56555013978561],[-49.33018751956088,-16.564571831765292],[-49.3305238,-16.5654864]],[[-49.328814008381,-16.569290016814126],[-49.3287449,-16.5692136],[-49.328444,-16.567794],[-49.328814008381,-16.569290016814126]],[[-49.329907461279056,-16.5703342864798],[-49.3297652,-16.5703418],[-49.32907635685827,-16.569580109484967],[-49.329907461279056,-16.5703342864798]],[[-49.3385283,-16.5682117],[-49.3387539660613,-16.568203937475616],[-49.33851066759122,-16.568232658091752],[-49.3385283,-16.5682117]],[[-49.3405284,-16.5681429],[-49.34155069845518,-16.568586930413144],[-49.339684321651724,-16.568171934843438],[-49.3405284,-16.5681429]],[[-49.3416814,-16.5686437],[-49.3416210490689,-16.56976640482132],[-49.3415887,-16.5697614],[-49.3416814,-16.5686437]],[[-49.34373999848542,-16.57036095823228],[-49.3435556,-16.570587],[-49.34340724759136,-16.570270108880056],[-49.34373999848542,-16.57036095823228]],[[-49.3465797,-16.569217],[-49.3448635,-16.5705189],[-49.344800192943175,-16.570493638822583],[-49.3465797,-16.569217]],[[-49.346847237781766,-16.57002206263486],[-49.3467309,-16.5700376],[-49.3465797,-16.569217],[-49.346847237781766,-16.57002206263486]],[[-49.348662134965615,-16.569463822396788],[-49.3479701,-16.5698721],[-49.34711681858599,-16.569986059065542],[-49.348662134965615,-16.569463822396788]],[[-49.3492492,-16.567674],[-49.3487515,-16.5694111],[-49.34873317100718,-16.56942191349589],[-49.3492492,-16.567674]],[[-49.3512374,-16.5655536],[-49.351011,-16.5666139],[-49.35062088024126,-16.566848640581362],[-49.3512374,-16.5655536]],[[-49.3531415,-16.5644901],[-49.3546075,-16.5655925],[-49.35313303602107,-16.564498204920817],[-49.3531415,-16.5644901]],[[-49.3760347,-16.5792875],[-49.3760486366178,-16.57932354284059],[-49.3744393,-16.5781176],[-49.3760347,-16.5792875]],[[-49.3946733,-16.5953563],[-49.39181381270061,-16.597819079028223],[-49.3918203,-16.5977979],[-49.3946733,-16.5953563]],[[-49.38941592151067,-16.610629911846853],[-49.3893989,-16.6105782],[-49.3910194,-16.6076253],[-49.38941592151067,-16.610629911846853]],[[-49.380182893871,-16.629303055043778],[-49.3801597,-16.6292298],[-49.3814749,-16.6235003],[-49.380182893871,-16.629303055043778]],[[-49.4446105,-16.7177756],[-49.4464511,-16.7229186],[-49.44439107326293,-16.717641663236797],[-49.4469118,-16.7164455],[-49.4446105,-16.7177756]],[[-49.438236357155944,-16.719748893823187],[-49.4439835,-16.7175007],[-49.44411450607504,-16.71754600974442],[-49.438236357155944,-16.719748893823187]],[[-49.4360544,-16.7205666],[-49.4305848,-16.718995],[-49.436161814712825,-16.72052634546342],[-49.4360544,-16.7205666]],[[-49.3963513,-16.7916937],[-49.39612005282347,-16.7919094537693],[-49.397374,-16.7877726],[-49.3963513,-16.7916937]],[[-49.390577406689054,-16.79708074629415],[-49.390609,-16.7968905],[-49.39402844276437,-16.79386092734369],[-49.390577406689054,-16.79708074629415]],[[-49.38948686845272,-16.800961256757777],[-49.3894676,-16.8000713],[-49.38985076447023,-16.799572265496977],[-49.38948686845272,-16.800961256757777]],[[-49.3904261,-16.8220672],[-49.390371328831755,-16.82221983779442],[-49.3887407,-16.819525],[-49.3904261,-16.8220672]],[[-49.388492,-16.8274694],[-49.388453750024354,-16.827491798924594],[-49.3874175,-16.8268015],[-49.388492,-16.8274694]],[[-49.38680769922024,-16.829448788490982],[-49.386637,-16.828689],[-49.38672400845351,-16.828639204792157],[-49.38680769922024,-16.829448788490982]],[[-49.3875441,-16.8304676],[-49.3869505,-16.8300844],[-49.38691652156363,-16.829933160733304],[-49.3875441,-16.8304676]],[[-49.3868489,-16.8312741],[-49.38673734506134,-16.831245179091542],[-49.3875441,-16.8304676],[-49.3868489,-16.8312741]],[[-49.38488150081165,-16.830655888556763],[-49.3849791,-16.8304967],[-49.3857727,-16.8303202],[-49.38488150081165,-16.830655888556763]],[[-49.3856957,-16.8353274],[-49.384683239480026,-16.83600084859368],[-49.38566353231944,-16.83511035581915],[-49.3856957,-16.8353274]],[[-49.3843237,-16.83624],[-49.382757,-16.8361334],[-49.38439663951868,-16.83619148352424],[-49.3843237,-16.83624]],[[-49.377937172438806,-16.83992731416592],[-49.3779078,-16.839862],[-49.3796726,-16.8394678],[-49.377937172438806,-16.83992731416592]],[[-49.3789336,-16.8496517],[-49.3774845,-16.8491322],[-49.37749008682192,-16.849083649915094],[-49.3789336,-16.8496517]],[[-49.374844903322256,-16.872435696736158],[-49.375046,-16.8722975],[-49.3787958,-16.8712144],[-49.374844903322256,-16.872435696736158]],[[-49.3735772448578,-16.873393446037543],[-49.3736185,-16.8732785],[-49.373761641512345,-16.87318013094668],[-49.3735772448578,-16.873393446037543]],[[-49.3742645,-16.8746057],[-49.3734501,-16.8737477],[-49.37354453673105,-16.873484578181653],[-49.3742645,-16.8746057]],[[-49.3745379,-16.8775228],[-49.37451562610113,-16.877542453775483],[-49.3740325,-16.876004],[-49.3745379,-16.8775228]],[[-49.373677190726404,-16.878712798864548],[-49.3733656,-16.8786203],[-49.373411621569446,-16.878580181762114],[-49.373677190726404,-16.878712798864548]],[[-49.3744756,-16.8791115],[-49.37444497496902,-16.879654027444264],[-49.37442260486391,-16.87908503585231],[-49.3744756,-16.8791115]],[[-49.3744268,-16.879976],[-49.3733792,-16.8804009],[-49.374430667665834,-16.879907483665786],[-49.3744268,-16.879976]],[[-49.3738059,-16.8812618],[-49.373738471333766,-16.881247537879116],[-49.3733792,-16.8804009],[-49.3738059,-16.8812618]],[[-49.3674637,-16.8913488],[-49.36742568780672,-16.891346111394768],[-49.3672696,-16.8901937],[-49.3674637,-16.8913488]],[[-49.3635785,-16.8923373],[-49.3628076,-16.8936245],[-49.36389488025042,-16.891461300919534],[-49.3635785,-16.8923373]],[[-49.3623732,-16.9201644],[-49.3624875,-16.919097],[-49.36254570973652,-16.91908833664873],[-49.3623732,-16.9201644]],[[-49.361442877436545,-16.92335661702794],[-49.3623314,-16.9217294],[-49.3631626,-16.921216],[-49.361442877436545,-16.92335661702794]],[[-49.36231447121519,-16.923947585104493],[-49.3611661,-16.9238635],[-49.361228568083376,-16.923749097582828],[-49.36231447121519,-16.923947585104493]],[[-49.3654792,-16.9232786],[-49.363003,-16.923998],[-49.362883941129155,-16.92398928236805],[-49.3654792,-16.9232786]],[[-49.3663834,-16.9240692],[-49.366315939377294,-16.92409673090955],[-49.3654792,-16.9232786],[-49.3663834,-16.9240692]],[[-49.3669367,-16.9663931],[-49.36709416331377,-16.966388418068163],[-49.3666741,-16.9673182],[-49.3669367,-16.9663931]],[[-49.3675858,-16.9663738],[-49.367682609646785,-16.966522867590445],[-49.367365865071186,-16.966380339430174],[-49.3675858,-16.9663738]],[[-49.3680682,-16.9671166],[-49.3679141,-16.9692874],[-49.367837005343425,-16.966760606237763],[-49.3680682,-16.9671166]],[[-49.3710063,-16.9715019],[-49.37101339501753,-16.971791908841567],[-49.37059953784266,-16.971144307642334],[-49.3710063,-16.9715019]],[[-49.3710471,-16.9731696],[-49.3701437,-16.9757525],[-49.371029079005176,-16.972432991836506],[-49.3710471,-16.9731696]],[[-49.368409449158264,-17.004320562734048],[-49.3684103,-17.0040959],[-49.36851031245945,-17.00409445388739],[-49.368409449158264,-17.004320562734048]],[[-49.368434109091744,-17.00633978792528],[-49.3684019,-17.0063139],[-49.36840413505597,-17.00572373879311],[-49.368434109091744,-17.00633978792528]],[[-49.3694471,-17.0067552],[-49.3708686,-17.0082965],[-49.36882504379719,-17.00665400009012],[-49.3694471,-17.0067552]],[[-49.369647523912455,-17.009839755896063],[-49.3694981,-17.0093903],[-49.36958557416332,-17.009361857831326],[-49.369647523912455,-17.009839755896063]],[[-49.3735171,-17.0174445],[-49.3703814,-17.0120472],[-49.369756212910474,-17.010166684231677],[-49.3735171,-17.0174445]],[[-49.3750403,-17.0298854],[-49.37481539319941,-17.03010694069913],[-49.3745014,-17.0290092],[-49.3750403,-17.0298854]],[[-49.3744256,-17.0304909],[-49.3735922,-17.0299147],[-49.37470763199385,-17.03021308908041],[-49.3744256,-17.0304909]],[[-49.3729777,-17.0307521],[-49.372870936638655,-17.030720430410916],[-49.3735922,-17.0299147],[-49.3729777,-17.0307521]],[[-49.4382301,-17.0360475],[-49.439465223040514,-17.03580405014504],[-49.43815183243371,-17.03617904615214],[-49.4382301,-17.0360475]],[[-49.4409251,-17.0355163],[-49.44337397565974,-17.03633162057305],[-49.440259740538124,-17.03564744617668],[-49.4409251,-17.0355163]],[[-49.4438665,-17.0364956],[-49.4472191,-17.0392271],[-49.44384825836064,-17.036489526688847],[-49.4438665,-17.0364956]],[[-49.5983415,-16.8011402],[-49.59803573342198,-16.80183699770504],[-49.5979213,-16.8017671],[-49.5983415,-16.8011402]],[[-49.59628304821088,-16.799795202722276],[-49.5976802,-16.8003477],[-49.5962597,-16.7998788],[-49.59628304821088,-16.799795202722276]],[[-49.5932688,-16.7870132],[-49.59320343766015,-16.787170477916888],[-49.593176752690354,-16.785902855024013],[-49.5932688,-16.7870132]],[[-49.5931031,-16.7850144],[-49.59311138955517,-16.785114394947893],[-49.5905173,-16.7837516],[-49.5931031,-16.7850144]],[[-49.5819903,-16.7729074],[-49.5820885,-16.7743111],[-49.581850659023544,-16.7728726968324],[-49.5819903,-16.7729074]],[[-49.5795458,-16.7722999],[-49.58158957189557,-16.772807812221952],[-49.580492,-16.772881],[-49.5795458,-16.7722999]],[[-49.5763519,-16.7718107],[-49.577748,-16.7726448],[-49.57627250248648,-16.77189411321701],[-49.5763519,-16.7718107]],[[-49.5751478,-16.7730757],[-49.575992281836115,-16.772188506641733],[-49.5747913,-16.7744622],[-49.5751478,-16.7730757]],[[-49.505822947975325,-16.804083906010078],[-49.5088872,-16.8034481],[-49.5058967,-16.8041736],[-49.505822947975325,-16.804083906010078]],[[-49.5025299,-16.800178],[-49.50253108615326,-16.800179449829105],[-49.4988403,-16.7974493],[-49.5025299,-16.800178]],[[-49.5360023,-16.7785239],[-49.5320063,-16.7770445],[-49.53743803209872,-16.778596395139072],[-49.5360023,-16.7785239]],[[-49.5376639,-16.7786078],[-49.537508153909506,-16.77859993583474],[-49.5392046,-16.7777804],[-49.5376639,-16.7786078]],[[-49.5506949,-16.773593],[-49.5498127,-16.7745952],[-49.551383,-16.7723154],[-49.5506949,-16.773593]],[[-49.5479171,-16.7686768],[-49.548014356254605,-16.768778902371107],[-49.54711633392199,-16.768260231121953],[-49.5479171,-16.7686768]],[[-49.5461138,-16.7677387],[-49.54630518571493,-16.767838261326],[-49.545994742881206,-16.76778334918359],[-49.5461138,-16.7677387]],[[-49.490965,-16.7365455],[-49.49108478984277,-16.736744458494435],[-49.490776454041985,-16.736486044957246],[-49.490965,-16.7365455]],[[-49.4902131,-16.7363084],[-49.49062540199588,-16.73643841303793],[-49.4894604,-16.7368351],[-49.4902131,-16.7363084]],[[-49.47088997040113,-16.898514876531483],[-49.4708103,-16.8980134],[-49.4709743,-16.8983876],[-49.47088997040113,-16.898514876531483]],[[-49.4700458,-16.898667],[-49.46995022449967,-16.898636364642844],[-49.4708103,-16.8980134],[-49.4700458,-16.898667]],[[-49.46945470004795,-16.898477531380077],[-49.46802853599518,-16.898020394928075],[-49.4680715,-16.8979679],[-49.46945470004795,-16.898477531380077]],[[-49.466633724928265,-16.899615930701103],[-49.4665922,-16.8996661],[-49.4649396,-16.8986258],[-49.466633724928265,-16.899615930701103]],[[-49.4375352,-16.8601466],[-49.4397265,-16.8596208],[-49.44077049275159,-16.85967331652927],[-49.4375352,-16.8601466]],[[-49.459460053312,-16.85362863349062],[-49.4593518,-16.8519121],[-49.459569,-16.8535088],[-49.459460053312,-16.85362863349062]],[[-49.44616340166531,-16.860296157737],[-49.4465331,-16.8603989],[-49.447114,-16.8612845],[-49.44616340166531,-16.860296157737]],[[-49.443935064532646,-16.85983250568679],[-49.4446188,-16.8598669],[-49.445652560317164,-16.86015419064866],[-49.443935064532646,-16.85983250568679]],[[-49.42175346516276,-16.405302486274262],[-49.4210595,-16.4044092],[-49.4218784,-16.4050755],[-49.42175346516276,-16.405302486274262]],[[-49.4200572,-16.4057045],[-49.4199426800447,-16.404646508111703],[-49.4199852,-16.4046341],[-49.4200572,-16.4057045]],[[-49.41961902057742,-16.404740957948142],[-49.41890504994628,-16.405055640487333],[-49.4189976,-16.4049223],[-49.41961902057742,-16.404740957948142]],[[-49.41913232056741,-16.406647700416578],[-49.4191197,-16.406717],[-49.41890264970751,-16.406675573093747],[-49.41913232056741,-16.406647700416578]],[[-49.41871178700508,-16.40663914443387],[-49.4186644,-16.4066301],[-49.41868018974406,-16.406398854474787],[-49.41871178700508,-16.40663914443387]],[[-49.41864161137081,-16.406105474750404],[-49.4182411,-16.4070308],[-49.4186231,-16.4059647],[-49.41864161137081,-16.406105474750404]],[[-49.417552722842785,-16.40654483283712],[-49.4176383,-16.4064117],[-49.4182411,-16.4070308],[-49.417552722842785,-16.40654483283712]],[[-49.41741793573302,-16.40675452185829],[-49.4168663,-16.4087149],[-49.4171931,-16.4071043],[-49.41741793573302,-16.40675452185829]],[[-49.417240472408785,-16.40909761557284],[-49.417278,-16.409136],[-49.4160593,-16.4092782],[-49.417240472408785,-16.40909761557284]],[[-49.415602705930326,-16.408792583750614],[-49.4155606,-16.4086206],[-49.4160593,-16.4092782],[-49.415602705930326,-16.408792583750614]],[[-49.415720327192076,-16.409273013599563],[-49.4158072,-16.4095021],[-49.41578631571289,-16.40954254696978],[-49.415720327192076,-16.409273013599563]],[[-49.4141428,-16.4123253],[-49.41346983472028,-16.412190104588262],[-49.4133573,-16.4121115],[-49.4141428,-16.4123253]],[[-49.414055482695375,-16.41386686430667],[-49.414137,-16.4138966],[-49.4108038,-16.414063],[-49.414055482695375,-16.41386686430667]],[[-49.396922,-16.4297987],[-49.3980541,-16.4329678],[-49.39794716241799,-16.432976654794484],[-49.396922,-16.4297987]],[[-49.394126,-16.4344716],[-49.39310563170644,-16.434079643561038],[-49.3930536,-16.4339817],[-49.394126,-16.4344716]],[[-49.391900421199196,-16.43613757803899],[-49.3932008,-16.4377135],[-49.3918651,-16.4361694],[-49.391900421199196,-16.43613757803899]],[[-49.39127998467914,-16.439914728520254],[-49.39161324164162,-16.439956969073624],[-49.3912442,-16.4400588],[-49.39127998467914,-16.439914728520254]],[[-49.3874897,-16.4482175],[-49.388430217416115,-16.449107940232153],[-49.3875706,-16.4487706],[-49.3874897,-16.4482175]],[[-49.38856569598131,-16.449236205337062],[-49.3885978,-16.4492666],[-49.3880657,-16.4499071],[-49.38856569598131,-16.449236205337062]],[[-49.38682365897643,-16.450052268700443],[-49.3870669,-16.4496909],[-49.3880657,-16.4499071],[-49.38682365897643,-16.450052268700443]],[[-49.38678255124986,-16.450113340001295],[-49.38740223749686,-16.451344315307118],[-49.3867187,-16.4502082],[-49.38678255124986,-16.450113340001295]],[[-49.387656522610094,-16.45184943978994],[-49.3877004,-16.4519366],[-49.38714318943581,-16.451988242959782],[-49.387656522610094,-16.45184943978994]],[[-49.38656865137564,-16.452143595677946],[-49.38683790112639,-16.45370303608203],[-49.3865372,-16.4521521],[-49.38656865137564,-16.452143595677946]],[[-49.386977257545944,-16.45442179926707],[-49.3875085,-16.4546113],[-49.3869924,-16.4544999],[-49.386977257545944,-16.45442179926707]],[[-49.38550002728811,-16.455424144079373],[-49.3853433,-16.4562816],[-49.3854426,-16.4553779],[-49.38550002728811,-16.455424144079373]],[[-49.3446396,-16.4475883],[-49.32263276655367,-16.437701846780712],[-49.3234133,-16.4377549],[-49.3446396,-16.4475883]],[[-49.3670069,-16.4984717],[-49.3701032,-16.5008443],[-49.37002641190834,-16.500895136484708],[-49.3670069,-16.4984717]],[[-49.3467429,-16.5166662],[-49.3454135,-16.517853],[-49.34527574571756,-16.517882261800416],[-49.3467429,-16.5166662]],[[-49.34072370503655,-16.518935965143452],[-49.3405258,-16.5199114],[-49.3406634,-16.518948],[-49.34072370503655,-16.518935965143452]],[[-49.33971546029086,-16.52071924370791],[-49.3417601,-16.5213482],[-49.3395843,-16.52085],[-49.33971546029086,-16.52071924370791]],[[-49.3432176,-16.5238778],[-49.34316269959746,-16.523912528394767],[-49.3417601,-16.5213482],[-49.3432176,-16.5238778]],[[-49.34195508361699,-16.524676431072187],[-49.34056796063529,-16.52555388464747],[-49.3404553,-16.5254549],[-49.34195508361699,-16.524676431072187]],[[-49.34406399061311,-16.526824367519655],[-49.3441307,-16.5268579],[-49.343710611017244,-16.52726163629647],[-49.34406399061311,-16.526824367519655]],[[-49.34318586918926,-16.527910947179016],[-49.3438537,-16.5297476],[-49.3431257,-16.5279854],[-49.34318586918926,-16.527910947179016]],[[-49.3433232,-16.5303004],[-49.3424901,-16.5304825],[-49.3438537,-16.5297476],[-49.3433232,-16.5303004]],[[-49.3392493,-16.5452232],[-49.3411186,-16.5473297],[-49.34100425372929,-16.547381584746876],[-49.3392493,-16.5452232]],[[-49.33720481005739,-16.550900932763607],[-49.336684870314784,-16.55068208035118],[-49.3372455,-16.5508093],[-49.33720481005739,-16.550900932763607]],[[-49.336047310520875,-16.55053740350794],[-49.3326475,-16.5548754],[-49.3359336,-16.5505116],[-49.336047310520875,-16.55053740350794]],[[-49.3306813,-16.5560457],[-49.32824761122574,-16.555733741425254],[-49.3282969,-16.5556034],[-49.3306813,-16.5560457]],[[-49.6201193,-16.489898],[-49.6190041,-16.4901393],[-49.61999713056294,-16.489750473525515],[-49.6201193,-16.489898]],[[-49.4545949,-16.5364115],[-49.45394502345629,-16.5366271057772],[-49.45462339660026,-16.53610579908606],[-49.4545949,-16.5364115]],[[-49.4493903,-16.5381382],[-49.4516263,-16.5372232],[-49.452181128000724,-16.53721230315704],[-49.4493903,-16.5381382]],[[-49.4221623,-16.54778],[-49.4224809,-16.5494791],[-49.4209493,-16.5443815],[-49.4221623,-16.54778]],[[-49.3328937,-16.7498856],[-49.337164,-16.7538944],[-49.331939647382654,-16.74954069079105],[-49.3328937,-16.7498856]],[[-49.331678,-16.7494461],[-49.3317648853073,-16.749477510786015],[-49.3125989,-16.7507559],[-49.331678,-16.7494461]],[[-49.2780453,-16.742866],[-49.28813852478692,-16.7482564371558],[-49.2880998,-16.7482649],[-49.2780453,-16.742866]],[[-49.1582537,-16.7925704],[-49.15828816726717,-16.792501830623934],[-49.15852982043028,-16.793004142694254],[-49.1582537,-16.7925704]],[[-49.1587442,-16.7933409],[-49.158645386366516,-16.793185678991634],[-49.1610614,-16.7942123],[-49.1587442,-16.7933409]],[[-49.1576287,-16.8167643],[-49.1584787,-16.8134662],[-49.15780313006436,-16.816890770633037],[-49.1576287,-16.8167643]],[[-49.16431326602019,-16.81288733125229],[-49.1633391680968,-16.814496719866813],[-49.1636687,-16.8134078],[-49.16431326602019,-16.81288733125229]],[[-49.1649628,-16.8142207],[-49.16446500513411,-16.812764806229055],[-49.1645574,-16.8126902],[-49.1649628,-16.8142207]],[[-49.170089,-16.8164188],[-49.1672368,-16.8163982],[-49.16707456866128,-16.81624285314861],[-49.170089,-16.8164188]],[[-49.16088443445953,-16.831350141469574],[-49.16121545192154,-16.831167368953928],[-49.1609941,-16.8314058],[-49.16088443445953,-16.831350141469574]],[[-49.14563254532502,-16.881424461318183],[-49.145439305075065,-16.881198364241694],[-49.145463,-16.8811529],[-49.14563254532502,-16.881424461318183]],[[-49.141634,-16.8849163],[-49.14162234023428,-16.887021658861475],[-49.1413703,-16.88692],[-49.141634,-16.8849163]],[[-49.14161558825179,-16.88824083826055],[-49.1416151,-16.888329],[-49.141589159066065,-16.888328362286195],[-49.14161558825179,-16.88824083826055]],[[-49.36489210325161,-16.891227769923635],[-49.36500586543364,-16.891042309656385],[-49.3649146,-16.8912247],[-49.36489210325161,-16.891227769923635]],[[-49.36574275831186,-16.88956965851226],[-49.36585754955629,-16.889198283136995],[-49.3658888,-16.8892778],[-49.36574275831186,-16.88956965851226]],[[-49.365717478508884,-16.88640503068711],[-49.3642026,-16.8854104],[-49.3657469,-16.8863135],[-49.365717478508884,-16.88640503068711]],[[-49.05946694348242,-16.785588451464577],[-49.0602606,-16.7872624],[-49.0594407,-16.7856305],[-49.05946694348242,-16.785588451464577]],[[-49.0602209,-16.7848851],[-49.05963099482646,-16.7853256007254],[-49.060629406226056,-16.783725899266596],[-49.0602209,-16.7848851]],[[-49.0616973,-16.7821358],[-49.06161061942778,-16.782153753565094],[-49.061646980287456,-16.78209549449445],[-49.0616973,-16.7821358]],[[-49.056941610084486,-16.7557643200722],[-49.0577208,-16.7617087],[-49.0568582,-16.7558943],[-49.056941610084486,-16.7557643200722]],[[-49.0680758833956,-16.745223668642858],[-49.0681925,-16.7471428],[-49.0680624,-16.7452424],[-49.0680758833956,-16.745223668642858]],[[-49.0689175,-16.7439778],[-49.068880498900356,-16.744030621140936],[-49.0684858,-16.743572],[-49.0689175,-16.7439778]],[[-49.0684659,-16.741431],[-49.06846900105822,-16.741764636464847],[-49.0673914,-16.7400687],[-49.0684659,-16.741431]],[[-49.02291302936978,-16.682999369067616],[-49.0265744,-16.6836256],[-49.0228609,-16.6830953],[-49.02291302936978,-16.682999369067616]],[[-49.0242517,-16.6809547],[-49.02331256990076,-16.68226411568123],[-49.02421968556462,-16.68059479852319],[-49.0242517,-16.6809547]],[[-49.0226882,-16.6727498],[-49.0227678,-16.6744268],[-49.02257692931458,-16.672854032680824],[-49.0226882,-16.6727498]],[[-49.01753074276893,-16.672999672929414],[-49.01839605683991,-16.673344208906624],[-49.0178963,-16.6733402],[-49.01753074276893,-16.672999672929414]],[[-49.01612413430677,-16.67161409533603],[-49.01631100876401,-16.671863455636224],[-49.0160824,-16.6716505],[-49.01612413430677,-16.67161409533603]],[[-49.0125467,-16.6629406],[-49.01244290191552,-16.66299173828609],[-49.0114397335353,-16.661838108387098],[-49.0125467,-16.6629406]],[[-49.01080551179336,-16.660921895815353],[-49.01077985609722,-16.661079258370254],[-49.0106965,-16.6609834],[-49.01080551179336,-16.660921895815353]],[[-49.1952158,-16.4912573],[-49.1959807,-16.4937298],[-49.19594482049113,-16.494176812431018],[-49.1952158,-16.4912573]],[[-49.19569563516712,-16.497281340362456],[-49.1955835,-16.4986784],[-49.19553464982299,-16.498791645660273],[-49.19569563516712,-16.497281340362456]],[[-49.1943002,-16.5045245],[-49.1954203,-16.5060563],[-49.19534717552133,-16.506140926894417],[-49.1943002,-16.5045245]],[[-49.1933084,-16.5085004],[-49.19240699507398,-16.512158992533355],[-49.1923865,-16.5120729],[-49.1933084,-16.5085004]],[[-49.19448874252394,-16.516909085798854],[-49.1945247,-16.5169376],[-49.19463961597379,-16.517366988978285],[-49.19448874252394,-16.516909085798854]],[[-49.19487844692016,-16.51825939211998],[-49.1949354,-16.5184722],[-49.19421412904493,-16.520155052517033],[-49.19487844692016,-16.51825939211998]],[[-49.1883111,-16.5255033],[-49.19391232218122,-16.520859221230175],[-49.1905272,-16.5239262],[-49.1883111,-16.5255033]],[[-49.1769117659091,-16.534064517502173],[-49.1768987,-16.5354601],[-49.176653,-16.5343724],[-49.1769117659091,-16.534064517502173]],[[-49.1572118,-16.7856113],[-49.1596973,-16.7894071],[-49.15967035555124,-16.78945321002765],[-49.1572118,-16.7856113]],[[-49.1405862,-16.7500498],[-49.13975578277533,-16.749455994523018],[-49.14132761616788,-16.750074966702954],[-49.1405862,-16.7500498]],[[-49.1389809,-16.7489019],[-49.1403079,-16.748108],[-49.13918401760421,-16.749047143068506],[-49.1389809,-16.7489019]],[[-49.1492712400891,-16.74404682116909],[-49.1492355,-16.7447379],[-49.1491261365064,-16.744834697647047],[-49.1492712400891,-16.74404682116909]],[[-49.1490668856263,-16.743540920048822],[-49.1492929,-16.743628],[-49.1492887953435,-16.74370736861054],[-49.1490668856263,-16.743540920048822]],[[-49.14764423327309,-16.743061879888103],[-49.1477421,-16.7430305],[-49.14795552449754,-16.74311272926056],[-49.14764423327309,-16.743061879888103]],[[-49.142311,-16.7393585],[-49.14242481555591,-16.73928503971932],[-49.1447749,-16.7439819],[-49.142311,-16.7393585]],[[-49.1550671,-16.7164775],[-49.15520367742804,-16.716516991311707],[-49.1551076420864,-16.716620209671927],[-49.1550671,-16.7164775]],[[-49.1573692,-16.7162787],[-49.1570862,-16.7169367],[-49.157018219984046,-16.7169172268144],[-49.1573692,-16.7162787]],[[-49.1596142,-16.7173214],[-49.1575663,-16.7149394],[-49.15980583443682,-16.71721446440997],[-49.1596142,-16.7173214]],[[-49.16159167783612,-16.716051587040496],[-49.1615765,-16.7162264],[-49.16149350512003,-16.71627271269101],[-49.16159167783612,-16.716051587040496]],[[-49.1614444,-16.7145896],[-49.16172392200148,-16.71452844541825],[-49.161665938932,-16.7151962739479],[-49.1614444,-16.7145896]],[[-49.1621131,-16.7144433],[-49.16513475497153,-16.715810628615316],[-49.161984999379264,-16.714471326201306],[-49.1621131,-16.7144433]],[[-49.1678027,-16.7170179],[-49.1672827,-16.7190397],[-49.16767701639475,-16.71696102693158],[-49.1678027,-16.7170179]],[[-49.1699059,-16.7236383],[-49.1677284,-16.7242768],[-49.16771517583948,-16.724182905118052],[-49.1699059,-16.7236383]],[[-49.1766263,-16.7228442],[-49.177117,-16.7247115],[-49.176936798108116,-16.724717507316956],[-49.1766263,-16.7228442]],[[-49.191176479442966,-16.70150002391241],[-49.191181,-16.7015323],[-49.1855313,-16.7053685],[-49.191176479442966,-16.70150002391241]],[[-49.1910113,-16.6993581],[-49.1938875,-16.6966689],[-49.191025897673775,-16.69944988840329],[-49.1910113,-16.6993581]],[[-49.194469,-16.6945432],[-49.19456380773741,-16.694481123797438],[-49.1938875,-16.6966689],[-49.194469,-16.6945432]]]}}]}